{
"type": "FeatureCollection",
"name": "geo_26_4",
"crs": { "type": "name", "properties": { "name": "urn:ogc:def:crs:OGC:1.3:CRS84" } },
"features": [
{ "type": "Feature", "properties": { "ID": 2642651000006, "正式名称": "やすらぎの森木村助産院", "機関区分": 4, "都道府県コード": 26, "市区町村コード": 109, "所在地": "京都府京都市伏見区日野畑出町５０", "緯度": 34.933334, "経度": 135.816425, "url": "https://www.iryou.teikyouseido.mhlw.go.jp/znk-web/juminkanja/S2430/initialize?prefCd=26&kikanCd=2651000006&kikanKbn=4", "url2": "https://yasuraginomori-babymam.jimdofree.com/", "内容": "やすらぎの森木村助産院【4:助産院】京都府京都市伏見区日野畑出町５０" }, "geometry": { "type": "Point", "coordinates": [ 135.816425, 34.933334 ] } },
{ "type": "Feature", "properties": { "ID": 2642651000012, "正式名称": "幸代助産院", "機関区分": 4, "都道府県コード": 26, "市区町村コード": 102, "所在地": "京都府京都市上京区今出川通室町東入今出川町３３０－３千成ビル２Ｆ", "緯度": 35.028921, "経度": 135.758931, "url": "https://www.iryou.teikyouseido.mhlw.go.jp/znk-web/juminkanja/S2430/initialize?prefCd=26&kikanCd=2651000012&kikanKbn=4", "url2": "http://yukioppai.net/", "内容": "幸代助産院【4:助産院】京都府京都市上京区今出川通室町東入今出川町３３０－３千成ビル２Ｆ" }, "geometry": { "type": "Point", "coordinates": [ 135.758931, 35.028921 ] } },
{ "type": "Feature", "properties": { "ID": 2642651000022, "正式名称": "桃井助産院", "機関区分": 4, "都道府県コード": 26, "市区町村コード": 101, "所在地": "京都府京都市北区大宮北林町９番地", "緯度": 35.056668, "経度": 135.745709, "url": "https://www.iryou.teikyouseido.mhlw.go.jp/znk-web/juminkanja/S2430/initialize?prefCd=26&kikanCd=2651000022&kikanKbn=4", "url2": "http://mom-oppai.com/", "内容": "桃井助産院【4:助産院】京都府京都市北区大宮北林町９番地" }, "geometry": { "type": "Point", "coordinates": [ 135.745709, 35.056668 ] } },
{ "type": "Feature", "properties": { "ID": 2642651000023, "正式名称": "あおい助産院（出張専門）", "機関区分": 4, "都道府県コード": 26, "市区町村コード": 101, "所在地": "京都府京都市北区紫竹上園生町３３－７", "緯度": 35.054002, "経度": 135.75007, "url": "https://www.iryou.teikyouseido.mhlw.go.jp/znk-web/juminkanja/S2430/initialize?prefCd=26&kikanCd=2651000023&kikanKbn=4", "url2": null, "内容": "あおい助産院（出張専門）【4:助産院】京都府京都市北区紫竹上園生町３３－７" }, "geometry": { "type": "Point", "coordinates": [ 135.75007, 35.054002 ] } },
{ "type": "Feature", "properties": { "ID": 2642651000027, "正式名称": "永田理惠（出張専門開業助産師）", "機関区分": 4, "都道府県コード": 26, "市区町村コード": 104, "所在地": "京都府京都市中京区三文字町２０５－３－１００４", "緯度": 35.00809, "経度": 135.760821, "url": "https://www.iryou.teikyouseido.mhlw.go.jp/znk-web/juminkanja/S2430/initialize?prefCd=26&kikanCd=2651000027&kikanKbn=4", "url2": null, "内容": "永田理惠（出張専門開業助産師）【4:助産院】京都府京都市中京区三文字町２０５－３－１００４" }, "geometry": { "type": "Point", "coordinates": [ 135.760821, 35.00809 ] } },
{ "type": "Feature", "properties": { "ID": 2642651000029, "正式名称": "池上助産院", "機関区分": 4, "都道府県コード": 26, "市区町村コード": 104, "所在地": "京都府京都市中京区大宮通蛸薬師下ル四坊大宮町１７４－１四坊大宮ビル１Ｆ", "緯度": 35.005618, "経度": 135.748961, "url": "https://www.iryou.teikyouseido.mhlw.go.jp/znk-web/juminkanja/S2430/initialize?prefCd=26&kikanCd=2651000029&kikanKbn=4", "url2": "https://www.mw-ikegami.com/", "内容": "池上助産院【4:助産院】京都府京都市中京区大宮通蛸薬師下ル四坊大宮町１７４－１四坊大宮ビル１Ｆ" }, "geometry": { "type": "Point", "coordinates": [ 135.748961, 35.005618 ] } },
{ "type": "Feature", "properties": { "ID": 2642651000048, "正式名称": "まこと助産院", "機関区分": 4, "都道府県コード": 26, "市区町村コード": 110, "所在地": "京都府京都市山科区安朱中小路町２８番１", "緯度": 34.993981, "経度": 135.81815, "url": "https://www.iryou.teikyouseido.mhlw.go.jp/znk-web/juminkanja/S2430/initialize?prefCd=26&kikanCd=2651000048&kikanKbn=4", "url2": null, "内容": "まこと助産院【4:助産院】京都府京都市山科区安朱中小路町２８番１" }, "geometry": { "type": "Point", "coordinates": [ 135.81815, 34.993981 ] } },
{ "type": "Feature", "properties": { "ID": 2642651000072, "正式名称": "長尾助産院", "機関区分": 4, "都道府県コード": 26, "市区町村コード": 208, "所在地": "京都府向日市寺戸町西田中瀬８－２０", "緯度": 34.953539, "経度": 135.7063, "url": "https://www.iryou.teikyouseido.mhlw.go.jp/znk-web/juminkanja/S2430/initialize?prefCd=26&kikanCd=2651000072&kikanKbn=4", "url2": "https://nagao-breast.com/index.html", "内容": "長尾助産院【4:助産院】京都府向日市寺戸町西田中瀬８－２０" }, "geometry": { "type": "Point", "coordinates": [ 135.7063, 34.953539 ] } },
{ "type": "Feature", "properties": { "ID": 2642651000093, "正式名称": "助産院しんかい", "機関区分": 4, "都道府県コード": 26, "市区町村コード": 214, "所在地": "京都府木津川市木津川原田３－７", "緯度": 34.732565, "経度": 135.821329, "url": "https://www.iryou.teikyouseido.mhlw.go.jp/znk-web/juminkanja/S2430/initialize?prefCd=26&kikanCd=2651000093&kikanKbn=4", "url2": "https://osannoyado.com/", "内容": "助産院しんかい【4:助産院】京都府木津川市木津川原田３－７" }, "geometry": { "type": "Point", "coordinates": [ 135.821329, 34.732565 ] } },
{ "type": "Feature", "properties": { "ID": 2642651000097, "正式名称": "みき助産院", "機関区分": 4, "都道府県コード": 26, "市区町村コード": 202, "所在地": "京都府舞鶴市喜多８４９－４", "緯度": 35.456432, "経度": 135.308384, "url": "https://www.iryou.teikyouseido.mhlw.go.jp/znk-web/juminkanja/S2430/initialize?prefCd=26&kikanCd=2651000097&kikanKbn=4", "url2": null, "内容": "みき助産院【4:助産院】京都府舞鶴市喜多８４９－４" }, "geometry": { "type": "Point", "coordinates": [ 135.308384, 35.456432 ] } },
{ "type": "Feature", "properties": { "ID": 2642651100001, "正式名称": "あみ助産院", "機関区分": 4, "都道府県コード": 26, "市区町村コード": 207, "所在地": "京都府城陽市市辺西川原３２－６", "緯度": 34.823107, "経度": 135.805261, "url": "https://www.iryou.teikyouseido.mhlw.go.jp/znk-web/juminkanja/S2430/initialize?prefCd=26&kikanCd=2651100001&kikanKbn=4", "url2": "https://amijosanin.wixsite.com/website", "内容": "あみ助産院【4:助産院】京都府城陽市市辺西川原３２－６" }, "geometry": { "type": "Point", "coordinates": [ 135.805261, 34.823107 ] } },
{ "type": "Feature", "properties": { "ID": 2642651100005, "正式名称": "つぐみ助産院", "機関区分": 4, "都道府県コード": 26, "市区町村コード": 101, "所在地": "京都府京都市北区西賀茂井ノ口町１１０－２", "緯度": 35.069215, "経度": 135.742583, "url": "https://www.iryou.teikyouseido.mhlw.go.jp/znk-web/juminkanja/S2430/initialize?prefCd=26&kikanCd=2651100005&kikanKbn=4", "url2": "https://www.instagram.com/tsugumijosanin/", "内容": "つぐみ助産院【4:助産院】京都府京都市北区西賀茂井ノ口町１１０－２" }, "geometry": { "type": "Point", "coordinates": [ 135.742583, 35.069215 ] } },
{ "type": "Feature", "properties": { "ID": 2642651100007, "正式名称": "ｍｕｓｕｂｉ助産院", "機関区分": 4, "都道府県コード": 26, "市区町村コード": 208, "所在地": "京都府向日市鶏冠井町楓畑３−１", "緯度": 34.94353, "経度": 135.700729, "url": "https://www.iryou.teikyouseido.mhlw.go.jp/znk-web/juminkanja/S2430/initialize?prefCd=26&kikanCd=2651100007&kikanKbn=4", "url2": "mw-musubi.studio.site", "内容": "ｍｕｓｕｂｉ助産院【4:助産院】京都府向日市鶏冠井町楓畑３−１" }, "geometry": { "type": "Point", "coordinates": [ 135.700729, 34.94353 ] } },
{ "type": "Feature", "properties": { "ID": 2642651100008, "正式名称": "えみ助産院（出張専門）", "機関区分": 4, "都道府県コード": 26, "市区町村コード": 214, "所在地": "京都府木津川市木津川台８－２９－１９", "緯度": 34.741564, "経度": 135.780186, "url": "https://www.iryou.teikyouseido.mhlw.go.jp/znk-web/juminkanja/S2430/initialize?prefCd=26&kikanCd=2651100008&kikanKbn=4", "url2": "https://minatakako0311.wixsite.com/website", "内容": "えみ助産院（出張専門）【4:助産院】京都府木津川市木津川台８－２９－１９" }, "geometry": { "type": "Point", "coordinates": [ 135.780186, 34.741564 ] } },
{ "type": "Feature", "properties": { "ID": 2642651100012, "正式名称": "悠育助産院", "機関区分": 4, "都道府県コード": 26, "市区町村コード": 366, "所在地": "京都府相楽郡精華町精華台４－２１－１４", "緯度": 34.752217, "経度": 135.775387, "url": "https://www.iryou.teikyouseido.mhlw.go.jp/znk-web/juminkanja/S2430/initialize?prefCd=26&kikanCd=2651100012&kikanKbn=4", "url2": "https://yuiku-clinic.com/yuiku/", "内容": "悠育助産院【4:助産院】京都府相楽郡精華町精華台４－２１－１４" }, "geometry": { "type": "Point", "coordinates": [ 135.775387, 34.752217 ] } }
]
}
