{
"type": "FeatureCollection",
"name": "geo_26_小規模多機能型居宅介護",
"crs": { "type": "name", "properties": { "name": "urn:ogc:def:crs:OGC:1.3:CRS84" } },
"features": [
{ "type": "Feature", "properties": { "内容": "ガーデンハウス西賀茂【小規模多機能型居宅介護】京都市北区西賀茂南大栗町11番地", "url": "https://www.kaigokensaku.mhlw.go.jp/26/index.php?action_kouhyou_detail_004_kani=true&JigyosyoCd=2690100017-00&ServiceCd=730&Type=search", "url2": "http://www.hiragino.or.jp" }, "geometry": { "type": "Point", "coordinates": [ 135.745962064834686, 35.060541294956352 ] } },
{ "type": "Feature", "properties": { "内容": "小規模多機能型居宅介護事業所きたおおじ【小規模多機能型居宅介護】京都府京都市北区紫野大徳寺町49-3", "url": "https://www.kaigokensaku.mhlw.go.jp/26/index.php?action_kouhyou_detail_004_kani=true&JigyosyoCd=2690100215-00&ServiceCd=730&Type=search", "url2": "http://www.kitaooji8025.jp/" }, "geometry": { "type": "Point", "coordinates": [ 135.74613880000004, 35.0454551 ] } },
{ "type": "Feature", "properties": { "内容": "小規模多機能型居宅介護事業所うえの【小規模多機能型居宅介護】京都府京都市北区紫野上野町68番地", "url": "https://www.kaigokensaku.mhlw.go.jp/26/index.php?action_kouhyou_detail_004_kani=true&JigyosyoCd=2690100249-00&ServiceCd=730&Type=search", "url2": "http://www.kitaooji8025.jp/" }, "geometry": { "type": "Point", "coordinates": [ 135.74307239999996, 35.0470076 ] } },
{ "type": "Feature", "properties": { "内容": "特定非営利活動法人　リアル･リンク京都　柏野の郷　小規模多機能型【小規模多機能型居宅介護】京都府京都市北区紫野中柏野町22番地", "url": "https://www.kaigokensaku.mhlw.go.jp/26/index.php?action_kouhyou_detail_004_kani=true&JigyosyoCd=2690100231-00&ServiceCd=730&Type=search", "url2": "http://www.reallink.or.jp/" }, "geometry": { "type": "Point", "coordinates": [ 135.738059740475478, 35.03450888198801 ] } },
{ "type": "Feature", "properties": { "内容": "小規模多機能型居宅介護　金閣こぶしの里【小規模多機能型居宅介護】京都府京都市北区平野桜木町7-3-2", "url": "https://www.kaigokensaku.mhlw.go.jp/26/index.php?action_kouhyou_detail_004_kani=true&JigyosyoCd=2690100223-00&ServiceCd=730&Type=search", "url2": "http://nananokai.com/sisetu/kinkaku.html" }, "geometry": { "type": "Point", "coordinates": [ 135.729945899999962, 35.0352557 ] } },
{ "type": "Feature", "properties": { "内容": "小規模多機能ふなおか【小規模多機能型居宅介護】京都府京都市北区紫野花ノ坊町11番2", "url": "https://www.kaigokensaku.mhlw.go.jp/26/index.php?action_kouhyou_detail_004_kani=true&JigyosyoCd=2690100330-00&ServiceCd=730&Type=search", "url2": "http://www.shizuhararyo.com" }, "geometry": { "type": "Point", "coordinates": [ 135.7387243, 35.0396887 ] } },
{ "type": "Feature", "properties": { "内容": "小規模多機能型居宅介護衣笠シオン【小規模多機能型居宅介護】衣笠赤阪町1-328", "url": "https://www.kaigokensaku.mhlw.go.jp/26/index.php?action_kouhyou_detail_004_kani=true&JigyosyoCd=2690100116-00&ServiceCd=730&Type=search", "url2": "http://castanet.jpn.com/" }, "geometry": { "type": "Point", "coordinates": [ 135.724365799999987, 35.0389829 ] } },
{ "type": "Feature", "properties": { "内容": "ガーデンハウス上賀茂【小規模多機能型居宅介護】上賀茂西河原町12番地高齢者総合施設上賀茂", "url": "https://www.kaigokensaku.mhlw.go.jp/26/index.php?action_kouhyou_detail_004_kani=true&JigyosyoCd=2690100181-00&ServiceCd=730&Type=search", "url2": "http://www.hiragino.or.jp" }, "geometry": { "type": "Point", "coordinates": [ 135.746654236124158, 35.066122651649536 ] } },
{ "type": "Feature", "properties": { "内容": "エクセレント衣笠【小規模多機能型居宅介護】京都市北区北野東紅梅町12エクセレント衣笠", "url": "https://www.kaigokensaku.mhlw.go.jp/26/index.php?action_kouhyou_detail_004_kani=true&JigyosyoCd=2690100140-00&ServiceCd=730&Type=search", "url2": "http:www.excare.co.jp" }, "geometry": { "type": "Point", "coordinates": [ 135.733331899999939, 35.0295757 ] } },
{ "type": "Feature", "properties": { "内容": "はるかぜガーデン御前【小規模多機能型居宅介護】京都府京都市上京区西東町３３９", "url": "https://www.kaigokensaku.mhlw.go.jp/26/index.php?action_kouhyou_detail_004_kani=true&JigyosyoCd=2690200148-00&ServiceCd=730&Type=search", "url2": null }, "geometry": { "type": "Point", "coordinates": [ 135.736532531074545, 35.020385259244698 ] } },
{ "type": "Feature", "properties": { "内容": "小規模多機能ホームおんまえどおり【小規模多機能型居宅介護】京都市上京区御前通下立売上る天満屋町312番１地域密着型ケアセンターおんまえどおり", "url": "https://www.kaigokensaku.mhlw.go.jp/26/index.php?action_kouhyou_detail_004_kani=true&JigyosyoCd=2690200155-00&ServiceCd=730&Type=search", "url2": "http://www.kitaooji8025.jp/" }, "geometry": { "type": "Point", "coordinates": [ 135.736288, 35.021108 ] } },
{ "type": "Feature", "properties": { "内容": "小規模多機能型居宅介護事業所　小川【小規模多機能型居宅介護】京都市上京区小川通一条上る革堂町586番地4", "url": "https://www.kaigokensaku.mhlw.go.jp/26/index.php?action_kouhyou_detail_004_kani=true&JigyosyoCd=2690200056-00&ServiceCd=730&Type=search", "url2": "https://www.kyoto-fukushi.org/" }, "geometry": { "type": "Point", "coordinates": [ 135.754005099999972, 35.0257406 ] } },
{ "type": "Feature", "properties": { "内容": "社会福祉法人　七野会　小規模多機能施設　和泉の家　２Ｆ【小規模多機能型居宅介護】京都市上京区大宮通中立売上る糸屋町198", "url": "https://www.kaigokensaku.mhlw.go.jp/26/index.php?action_kouhyou_detail_004_kani=true&JigyosyoCd=2690200072-00&ServiceCd=730&Type=search", "url2": "http://www.nananokai.com/" }, "geometry": { "type": "Point", "coordinates": [ 135.748892337295501, 35.025915918802134 ] } },
{ "type": "Feature", "properties": { "内容": "医療法人三幸会　ケアサポートセンター千本今出川【小規模多機能型居宅介護】京都府京都市上京区元誓願寺通千本東入元四丁目424番地の2", "url": "https://www.kaigokensaku.mhlw.go.jp/26/index.php?action_kouhyou_detail_004_kani=true&JigyosyoCd=2690200106-00&ServiceCd=730&Type=search", "url2": "http://www.sankokai.jp/" }, "geometry": { "type": "Point", "coordinates": [ 135.749697, 35.0323732 ] } },
{ "type": "Feature", "properties": { "内容": "小規模多機能型居宅介護たのしい家西陣【小規模多機能型居宅介護】中筋大宮西入横大宮町219-1", "url": "https://www.kaigokensaku.mhlw.go.jp/26/index.php?action_kouhyou_detail_004_kani=true&JigyosyoCd=2690200114-00&ServiceCd=730&Type=search", "url2": null }, "geometry": { "type": "Point", "coordinates": [ 135.748378300000013, 35.0293114 ] } },
{ "type": "Feature", "properties": { "内容": "十四軒町の家小規模多機能ホーム【小規模多機能型居宅介護】京都市上京区千本通出水下る十四軒町398", "url": "https://www.kaigokensaku.mhlw.go.jp/26/index.php?action_kouhyou_detail_004_kani=true&JigyosyoCd=2690200049-00&ServiceCd=730&Type=search", "url2": "http://www.kenkouen.jp/" }, "geometry": { "type": "Point", "coordinates": [ 135.742015153381317, 35.020905683579898 ] } },
{ "type": "Feature", "properties": { "内容": "エクセレント聚楽第【小規模多機能型居宅介護】京都市上京区出水通土屋町東入東神明町290-1", "url": "https://www.kaigokensaku.mhlw.go.jp/26/index.php?action_kouhyou_detail_004_kani=true&JigyosyoCd=2690200130-00&ServiceCd=730&Type=search", "url2": "http://excare./jyurakudai/" }, "geometry": { "type": "Point", "coordinates": [ 135.744089732813222, 35.021392733884383 ] } },
{ "type": "Feature", "properties": { "内容": "エクセレント岡崎【小規模多機能型居宅介護】岡崎南御所町38-1", "url": "https://www.kaigokensaku.mhlw.go.jp/26/index.php?action_kouhyou_detail_004_kani=true&JigyosyoCd=2690600123-00&ServiceCd=730&Type=search", "url2": "http://excare.co.jp/" }, "geometry": { "type": "Point", "coordinates": [ 135.785402900000037, 35.015195273833235 ] } },
{ "type": "Feature", "properties": { "内容": "小規模多機能　ようせいの家【小規模多機能型居宅介護】田中馬場町74", "url": "https://www.kaigokensaku.mhlw.go.jp/26/index.php?action_kouhyou_detail_004_kani=true&JigyosyoCd=2690600149-00&ServiceCd=730&Type=search", "url2": null }, "geometry": { "type": "Point", "coordinates": [ 135.775556300000062, 35.0323928 ] } },
{ "type": "Feature", "properties": { "内容": "医療法人三幸会　ケアサポートセンター宝ヶ池【小規模多機能型居宅介護】京都市左京区上高野薩田町11-1", "url": "https://www.kaigokensaku.mhlw.go.jp/26/index.php?action_kouhyou_detail_004_kani=true&JigyosyoCd=2690600032-00&ServiceCd=730&Type=search", "url2": "http://www.sankokai.jp/caresupport/takaragaike/index.html" }, "geometry": { "type": "Point", "coordinates": [ 135.791926500000045, 35.0647613 ] } },
{ "type": "Feature", "properties": { "内容": "エクセレント修学院【小規模多機能型居宅介護】京都府京都市左京区一乗寺東閉川原町2-2", "url": "https://www.kaigokensaku.mhlw.go.jp/26/index.php?action_kouhyou_detail_004_kani=true&JigyosyoCd=2690600115-00&ServiceCd=730&Type=search", "url2": "http://excare.co.jp/" }, "geometry": { "type": "Point", "coordinates": [ 135.787692995967973, 35.047519976875684 ] } },
{ "type": "Feature", "properties": { "内容": "パナソニックエイジフリーケアセンター京都三条大宮　小規模多機能【小規模多機能型居宅介護】京都府京都市中京区大宮通三条下ル三条大宮町248番１エイジフリーハウス京都三条大宮", "url": "https://www.kaigokensaku.mhlw.go.jp/26/index.php?action_kouhyou_detail_004_kani=true&JigyosyoCd=2690300138-00&ServiceCd=730&Type=search", "url2": null }, "geometry": { "type": "Point", "coordinates": [ 135.748728, 35.007559 ] } },
{ "type": "Feature", "properties": { "内容": "パナソニック　エイジフリーケアセンター京都四条大宮・小規模多機能京都四条大宮【小規模多機能型居宅介護】京都府京都市中京区壬生坊城町1-3", "url": "https://www.kaigokensaku.mhlw.go.jp/26/index.php?action_kouhyou_detail_004_kani=true&JigyosyoCd=2690300104-00&ServiceCd=730&Type=search", "url2": null }, "geometry": { "type": "Point", "coordinates": [ 135.748139600000059, 35.0048201 ] } },
{ "type": "Feature", "properties": { "内容": "小規模多機能型居宅介護たのしい家西ノ京【小規模多機能型居宅介護】京都市中京区西ノ京冷泉町119", "url": "https://www.kaigokensaku.mhlw.go.jp/26/index.php?action_kouhyou_detail_004_kani=true&JigyosyoCd=2690300120-00&ServiceCd=730&Type=search", "url2": null }, "geometry": { "type": "Point", "coordinates": [ 135.734746, 35.0158798 ] } },
{ "type": "Feature", "properties": { "内容": "愛の家　小規模多機能型居宅介護　京都円町【小規模多機能型居宅介護】京都市中京区西ノ京南両町２３", "url": "https://www.kaigokensaku.mhlw.go.jp/26/index.php?action_kouhyou_detail_004_kani=true&JigyosyoCd=2690300062-00&ServiceCd=730&Type=search", "url2": "http://mcs-ainoie.com/st007.html" }, "geometry": { "type": "Point", "coordinates": [ 135.734712700000074, 35.0172769 ] } },
{ "type": "Feature", "properties": { "内容": "はるかぜガーデン泉涌寺【小規模多機能型居宅介護】京都市東山区泉涌寺東林町１７番地の６２はるかぜガーデン泉涌寺", "url": "https://www.kaigokensaku.mhlw.go.jp/26/index.php?action_kouhyou_detail_004_kani=true&JigyosyoCd=2690800053-00&ServiceCd=730&Type=search", "url2": null }, "geometry": { "type": "Point", "coordinates": [ 135.776087100000041, 34.9801424 ] } },
{ "type": "Feature", "properties": { "内容": "地域密着型ケアセンターいまくまの　小規模多機能ホームいまくまの【小規模多機能型居宅介護】京都府京都市東山区今熊野北日吉町61-10", "url": "https://www.kaigokensaku.mhlw.go.jp/26/index.php?action_kouhyou_detail_004_kani=true&JigyosyoCd=2690800046-00&ServiceCd=730&Type=search", "url2": "https://www.villa.or.jp" }, "geometry": { "type": "Point", "coordinates": [ 135.778720199999952, 34.9890165 ] } },
{ "type": "Feature", "properties": { "内容": "小規模多機能サービス　もみじの家【小規模多機能型居宅介護】京都府京都市東山区本町4丁目130番地　ヴォールベフィンデン1階", "url": "https://www.kaigokensaku.mhlw.go.jp/26/index.php?action_kouhyou_detail_004_kani=true&JigyosyoCd=2690800020-00&ServiceCd=730&Type=search", "url2": "http://www.wf-rakutouen.com/" }, "geometry": { "type": "Point", "coordinates": [ 135.769548496958919, 34.992277390326585 ] } },
{ "type": "Feature", "properties": { "内容": "エクセレント東山【小規模多機能型居宅介護】京都市東山区大黒町通正面下ル塗師屋町５８５", "url": "https://www.kaigokensaku.mhlw.go.jp/26/index.php?action_kouhyou_detail_004_kani=true&JigyosyoCd=2690800038-00&ServiceCd=730&Type=search", "url2": "http://excare.co.jp/" }, "geometry": { "type": "Point", "coordinates": [ 135.770181144180214, 34.990289884387209 ] } },
{ "type": "Feature", "properties": { "内容": "小規模多機能型居宅介護　レット・イット・ビー【小規模多機能型居宅介護】本町20丁目441番1", "url": "https://www.kaigokensaku.mhlw.go.jp/26/index.php?action_kouhyou_detail_004_kani=true&JigyosyoCd=2690800061-00&ServiceCd=730&Type=search", "url2": "http://www.kyotoikuwakai.jp/" }, "geometry": { "type": "Point", "coordinates": [ 135.7709959, 34.9730486 ] } },
{ "type": "Feature", "properties": { "内容": "小規模多機能きらら梅小路【小規模多機能型居宅介護】京都府京都市下京区梅小路西中町44", "url": "https://www.kaigokensaku.mhlw.go.jp/26/index.php?action_kouhyou_detail_004_kani=true&JigyosyoCd=2690400128-00&ServiceCd=730&Type=search", "url2": "https://www.starts-care.jp/kirara_umekoji_st" }, "geometry": { "type": "Point", "coordinates": [ 135.735083702665293, 34.985389706958244 ] } },
{ "type": "Feature", "properties": { "内容": "小規模多機能型居宅介護さざなみ京都南【小規模多機能型居宅介護】京都市南区上鳥羽奈須野町202", "url": "https://www.kaigokensaku.mhlw.go.jp/26/index.php?action_kouhyou_detail_004_kani=true&JigyosyoCd=2690500042-00&ServiceCd=730&Type=search", "url2": "http://sazanami.jp.net/" }, "geometry": { "type": "Point", "coordinates": [ 135.742786900000056, 34.9552051 ] } },
{ "type": "Feature", "properties": { "内容": "小規模多機能型居宅介護ソラストさんきち【小規模多機能型居宅介護】吉祥院三ノ宮西町87-2", "url": "https://www.kaigokensaku.mhlw.go.jp/26/index.php?action_kouhyou_detail_004_kani=true&JigyosyoCd=2690500216-00&ServiceCd=730&Type=search", "url2": "http://solasto-kaigo.com" }, "geometry": { "type": "Point", "coordinates": [ 135.7275857, 34.9763395 ] } },
{ "type": "Feature", "properties": { "内容": "しょうきぼたきのうがたきょたくかいご　さまさま【小規模多機能型居宅介護】京都市南区久世中久世町2丁目102番地", "url": "https://www.kaigokensaku.mhlw.go.jp/26/index.php?action_kouhyou_detail_004_kani=true&JigyosyoCd=2690500273-00&ServiceCd=730&Type=search", "url2": "info@villa-samasama.jp" }, "geometry": { "type": "Point", "coordinates": [ 135.7135208, 34.9599578 ] } },
{ "type": "Feature", "properties": { "内容": "医療法人三幸会　ケアサポートセンター吉祥院【小規模多機能型居宅介護】京都市南区吉祥院里ノ内町71-1", "url": "https://www.kaigokensaku.mhlw.go.jp/26/index.php?action_kouhyou_detail_004_kani=true&JigyosyoCd=2690500018-00&ServiceCd=730&Type=search", "url2": "https://www.sankokai.jp/group/care_facility/support_center#kishoin" }, "geometry": { "type": "Point", "coordinates": [ 135.733627100000035, 34.9735836 ] } },
{ "type": "Feature", "properties": { "内容": "パナソニックエイジフリーケアセンター京都有栖・小規模多機能【小規模多機能型居宅介護】京都府京都市右京区梅津北川町2番1", "url": "https://www.kaigokensaku.mhlw.go.jp/26/index.php?action_kouhyou_detail_004_kani=true&JigyosyoCd=2690700253-00&ServiceCd=730&Type=search", "url2": null }, "geometry": { "type": "Point", "coordinates": [ 135.6988301, 35.0070413 ] } },
{ "type": "Feature", "properties": { "内容": "パナソニック　エイジフリーケアセンター京都花園･小規模多機能【小規模多機能型居宅介護】京都府京都市右京区花園中御門町11エイジフリーケアセンター京都花園・小規模多機能　　　エイジフリーハウス京都花園", "url": "https://www.kaigokensaku.mhlw.go.jp/26/index.php?action_kouhyou_detail_004_kani=true&JigyosyoCd=2690700261-00&ServiceCd=730&Type=search", "url2": null }, "geometry": { "type": "Point", "coordinates": [ 135.722757626983594, 35.018684679622751 ] } },
{ "type": "Feature", "properties": { "内容": "小規模多機能型居宅介護　ソラスト西京都【小規模多機能型居宅介護】京都府京都市右京区太秦一町芝町6-9", "url": "https://www.kaigokensaku.mhlw.go.jp/26/index.php?action_kouhyou_detail_004_kani=true&JigyosyoCd=2690700022-00&ServiceCd=730&Type=search", "url2": "https://solasto-kaigo.com/care/area/solastonishikyoto2.html" }, "geometry": { "type": "Point", "coordinates": [ 135.697357328836006, 35.017238726842749 ] } },
{ "type": "Feature", "properties": { "内容": "キャビックケアホームすぃーとハンズ嵯峨野【小規模多機能型居宅介護】京都府京都市右京区嵯峨野北野町７－１", "url": "https://www.kaigokensaku.mhlw.go.jp/26/index.php?action_kouhyou_detail_004_kani=true&JigyosyoCd=2690700188-00&ServiceCd=730&Type=search", "url2": "https://www.cabikcare.jp/" }, "geometry": { "type": "Point", "coordinates": [ 135.691691799999944, 35.0098911 ] } },
{ "type": "Feature", "properties": { "内容": "嵐山寮小規模多機能施設さがの【小規模多機能型居宅介護】京都市右京区嵯峨野清水町21-58プレミアムヒルズ嵯峨野1Ｆ", "url": "https://www.kaigokensaku.mhlw.go.jp/26/index.php?action_kouhyou_detail_004_kani=true&JigyosyoCd=2690700030-00&ServiceCd=730&Type=search", "url2": "http://www.arashiyamaryo.or.jp" }, "geometry": { "type": "Point", "coordinates": [ 135.694263500000034, 35.017882 ] } },
{ "type": "Feature", "properties": { "内容": "嵐山寮小規模多機能施設ひろさわ【小規模多機能型居宅介護】京都府京都市右京区嵯峨広沢南野町26-2CあんどC嵯峨", "url": "https://www.kaigokensaku.mhlw.go.jp/26/index.php?action_kouhyou_detail_004_kani=true&JigyosyoCd=2690700105-00&ServiceCd=730&Type=search", "url2": "https://www.arashiyamaryo.or.jp/" }, "geometry": { "type": "Point", "coordinates": [ 135.691627499999981, 35.0206956 ] } },
{ "type": "Feature", "properties": { "内容": "小規模多機能　きらら嵯峨嵐山【小規模多機能型居宅介護】京都府京都市右京区嵯峨新宮町51-3", "url": "https://www.kaigokensaku.mhlw.go.jp/26/index.php?action_kouhyou_detail_004_kani=true&JigyosyoCd=2690700352-00&ServiceCd=730&Type=search", "url2": "http//:www.starts.co.jp" }, "geometry": { "type": "Point", "coordinates": [ 135.685215500000027, 35.0214388 ] } },
{ "type": "Feature", "properties": { "内容": "小規模多機能型居宅介護事業所　山ノ内【小規模多機能型居宅介護】京都府京都市右京区山ノ内宮前町5-10", "url": "https://www.kaigokensaku.mhlw.go.jp/26/index.php?action_kouhyou_detail_004_kani=true&JigyosyoCd=2690700071-00&ServiceCd=730&Type=search", "url2": "http://welcome-yamanouchi.jp/" }, "geometry": { "type": "Point", "coordinates": [ 135.7229921, 35.0087632 ] } },
{ "type": "Feature", "properties": { "内容": "洛和小規模多機能サービス花園【小規模多機能型居宅介護】京都市右京区花園猪ノ毛町８－３", "url": "https://www.kaigokensaku.mhlw.go.jp/26/index.php?action_kouhyou_detail_004_kani=true&JigyosyoCd=2690700139-00&ServiceCd=730&Type=search", "url2": "ｈｔｔｐ：//ｗｗｗ.rakuwa.or.jp" }, "geometry": { "type": "Point", "coordinates": [ 135.723899599999982, 35.0235288 ] } },
{ "type": "Feature", "properties": { "内容": "健光園あらしやま小規模多機能ホーム【小規模多機能型居宅介護】京都府京都市右京区嵯峨柳田町36-5", "url": "https://www.kaigokensaku.mhlw.go.jp/26/index.php?action_kouhyou_detail_004_kani=true&JigyosyoCd=2690700378-00&ServiceCd=730&Type=search", "url2": "http://www.kenkouen.jp/" }, "geometry": { "type": "Point", "coordinates": [ 135.688279, 35.01173570000001 ] } },
{ "type": "Feature", "properties": { "内容": "洛和小規模多機能サービス西院【小規模多機能型居宅介護】西院日照町103", "url": "https://www.kaigokensaku.mhlw.go.jp/26/index.php?action_kouhyou_detail_004_kani=true&JigyosyoCd=2690700154-00&ServiceCd=730&Type=search", "url2": "ｈｔｔｐ：//www.rakuwa.or.jp" }, "geometry": { "type": "Point", "coordinates": [ 135.724516799999947, 35.0007364 ] } },
{ "type": "Feature", "properties": { "内容": "パナソニックエイジフリーケアセンター京都天神川・小規模多機能【小規模多機能型居宅介護】京都市右京区西院西貝川町88エイジフリーハウス京都天神川", "url": "https://www.kaigokensaku.mhlw.go.jp/26/index.php?action_kouhyou_detail_004_kani=true&JigyosyoCd=2690700246-00&ServiceCd=730&Type=search", "url2": "https://sumai.panasonic.jp/agefree/facility_care/agefree-house/kyototenjingawa/" }, "geometry": { "type": "Point", "coordinates": [ 135.716214700000023, 35.000203 ] } },
{ "type": "Feature", "properties": { "内容": "御所ノ内ホームときわ【小規模多機能型居宅介護】太秦青木ケ原町7-2", "url": "https://www.kaigokensaku.mhlw.go.jp/26/index.php?action_kouhyou_detail_004_kani=true&JigyosyoCd=2690700279-00&ServiceCd=730&Type=search", "url2": "http://goshonouchi.com/tokiwa/" }, "geometry": { "type": "Point", "coordinates": [ 135.703482099999974, 35.0190986 ] } },
{ "type": "Feature", "properties": { "内容": "小規模多機能型居宅介護　京都指月あさがおの郷　2号館【小規模多機能型居宅介護】京都府京都市伏見区桃山町泰長老１７６番地の５", "url": "https://www.kaigokensaku.mhlw.go.jp/26/index.php?action_kouhyou_detail_004_kani=true&JigyosyoCd=2690900432-00&ServiceCd=730&Type=search", "url2": "http://www.shinseifukushikai.jp/sigetsu/" }, "geometry": { "type": "Point", "coordinates": [ 135.768908284255303, 34.930633089691874 ] } },
{ "type": "Feature", "properties": { "内容": "小規模多機能居宅介護事業所　醍醐の家ほっこり　はなれ【小規模多機能型居宅介護】京都府京都市伏見区醍醐南里町30-11", "url": "https://www.kaigokensaku.mhlw.go.jp/26/index.php?action_kouhyou_detail_004_kani=true&JigyosyoCd=2690900465-00&ServiceCd=730&Type=search", "url2": "https://kyoro.or.jp/" }, "geometry": { "type": "Point", "coordinates": [ 135.8149143, 34.9465679 ] } },
{ "type": "Feature", "properties": { "内容": "小規模多機能型居宅介護　宝生苑【小規模多機能型居宅介護】京都府伏見区桃山町山ノ下66番38", "url": "https://www.kaigokensaku.mhlw.go.jp/26/index.php?action_kouhyou_detail_004_kani=true&JigyosyoCd=2690900317-00&ServiceCd=730&Type=search", "url2": "http://yamato-fukushi.com" }, "geometry": { "type": "Point", "coordinates": [ 135.795287469975278, 34.941323521393805 ] } },
{ "type": "Feature", "properties": { "内容": "板橋の町家　ほっこり【小規模多機能型居宅介護】京都市伏見区土橋町３３４－１", "url": "https://www.kaigokensaku.mhlw.go.jp/26/index.php?action_kouhyou_detail_004_kani=true&JigyosyoCd=2690900028-00&ServiceCd=730&Type=search", "url2": "itahashi@kyoro.or.jp" }, "geometry": { "type": "Point", "coordinates": [ 135.759184900000037, 34.9366543 ] } },
{ "type": "Feature", "properties": { "内容": "小栗栖の家ほっこり【小規模多機能型居宅介護】京都市伏見区小栗栖牛ヶ淵町30", "url": "https://www.kaigokensaku.mhlw.go.jp/26/index.php?action_kouhyou_detail_004_kani=true&JigyosyoCd=2690900085-00&ServiceCd=730&Type=search", "url2": "http://www.kyoro.or.jp" }, "geometry": { "type": "Point", "coordinates": [ 135.8064336, 34.9495796 ] } },
{ "type": "Feature", "properties": { "内容": "小規模多機能型居宅介護たのしい家醍醐【小規模多機能型居宅介護】京都市伏見区醍醐新町裏町5番", "url": "https://www.kaigokensaku.mhlw.go.jp/26/index.php?action_kouhyou_detail_004_kani=true&JigyosyoCd=2690900309-00&ServiceCd=730&Type=search", "url2": null }, "geometry": { "type": "Point", "coordinates": [ 135.815944700000045, 34.9564922 ] } },
{ "type": "Feature", "properties": { "内容": "小規模多機能ホーム向島美郷【小規模多機能型居宅介護】京都府京都市伏見区向島清水町189-1高齢者複合施設向島美郷", "url": "https://www.kaigokensaku.mhlw.go.jp/26/index.php?action_kouhyou_detail_004_kani=true&JigyosyoCd=2690900358-00&ServiceCd=730&Type=search", "url2": "http://www.misugikai.jp/mukaijimamisato/service3.html" }, "geometry": { "type": "Point", "coordinates": [ 135.7844576, 34.9166625 ] } },
{ "type": "Feature", "properties": { "内容": "ヒューマンライフケア伏見の宿【小規模多機能型居宅介護】伏見区日野谷寺町68", "url": "https://www.kaigokensaku.mhlw.go.jp/26/index.php?action_kouhyou_detail_004_kani=true&JigyosyoCd=2690900374-00&ServiceCd=730&Type=search", "url2": "http://kaigo.human-lifecare.jp/facilities/sh011_Fushimi/summary.html" }, "geometry": { "type": "Point", "coordinates": [ 135.814986640336684, 34.938913912804203 ] } },
{ "type": "Feature", "properties": { "内容": "小規模多機能型居宅介護　鷹匠の家　ほっこり【小規模多機能型居宅介護】京都府京都市伏見区鷹匠町13番地の1", "url": "https://www.kaigokensaku.mhlw.go.jp/26/index.php?action_kouhyou_detail_004_kani=true&JigyosyoCd=2690900515-00&ServiceCd=730&Type=search", "url2": "http://kyoro.or.jp" }, "geometry": { "type": "Point", "coordinates": [ 135.76090459206543, 34.9362303700658 ] } },
{ "type": "Feature", "properties": { "内容": "観月橋小規模多機能ホーム爽やかな風【小規模多機能型居宅介護】京都府京都市伏見区向島立河原町67-1", "url": "https://www.kaigokensaku.mhlw.go.jp/26/index.php?action_kouhyou_detail_004_kani=true&JigyosyoCd=2690900622-00&ServiceCd=730&Type=search", "url2": "https://sangajapan.jp/kangetsukyou/kangetsukyou03/" }, "geometry": { "type": "Point", "coordinates": [ 135.775307, 34.9228734 ] } },
{ "type": "Feature", "properties": { "内容": "稲荷の家ほっこり【小規模多機能型居宅介護】京都市伏見区深草稲荷鳥居前町17-4", "url": "https://www.kaigokensaku.mhlw.go.jp/26/index.php?action_kouhyou_detail_004_kani=true&JigyosyoCd=2690900044-00&ServiceCd=730&Type=search", "url2": "http://www.kyoro.or.jp" }, "geometry": { "type": "Point", "coordinates": [ 135.769371, 34.9662047 ] } },
{ "type": "Feature", "properties": { "内容": "介護サービスセンターふかくさ【小規模多機能型居宅介護】京都府京都市伏見区深草西浦町8丁目15番地介護サービスセンターふかくさ", "url": "https://www.kaigokensaku.mhlw.go.jp/26/index.php?action_kouhyou_detail_004_kani=true&JigyosyoCd=2690900077-00&ServiceCd=730&Type=search", "url2": "http://www.kuno-hospital.or.jp" }, "geometry": { "type": "Point", "coordinates": [ 135.76274920000003, 34.9601162 ] } },
{ "type": "Feature", "properties": { "内容": "小規模多機能ホーム藤城の家【小規模多機能型居宅介護】伏見区深草大亀谷万帖敷町4-1", "url": "https://www.kaigokensaku.mhlw.go.jp/26/index.php?action_kouhyou_detail_004_kani=true&JigyosyoCd=2690900093-00&ServiceCd=730&Type=search", "url2": "http://www.kenkouen.jp/" }, "geometry": { "type": "Point", "coordinates": [ 135.7774723, 34.9423488 ] } },
{ "type": "Feature", "properties": { "内容": "医療法人　啓信会　小規模多機能ホーム　リエゾン羽束師【小規模多機能型居宅介護】羽束師古川町168-1", "url": "https://www.kaigokensaku.mhlw.go.jp/26/index.php?action_kouhyou_detail_004_kani=true&JigyosyoCd=2690900119-00&ServiceCd=730&Type=search", "url2": "http://www.kyoto-keishinkai.or.jp/" }, "geometry": { "type": "Point", "coordinates": [ 135.723435, 34.9267221 ] } },
{ "type": "Feature", "properties": { "内容": "洛和小規模多機能サービス伏見竹田【小規模多機能型居宅介護】京都市伏見区竹田三ツ杭町59-3", "url": "https://www.kaigokensaku.mhlw.go.jp/26/index.php?action_kouhyou_detail_004_kani=true&JigyosyoCd=2690900275-00&ServiceCd=730&Type=search", "url2": "http://www.rakuwa.or.jp" }, "geometry": { "type": "Point", "coordinates": [ 135.758849400000031, 34.9562387 ] } },
{ "type": "Feature", "properties": { "内容": "せんしゅんかい小規模多機能型居宅介護事業所桃の木【小規模多機能型居宅介護】京都府京都市伏見区銀座町2丁目326-1", "url": "https://www.kaigokensaku.mhlw.go.jp/26/index.php?action_kouhyou_detail_004_kani=true&JigyosyoCd=2690900705-00&ServiceCd=730&Type=search", "url2": "https://www.senshunkai.or.jp/" }, "geometry": { "type": "Point", "coordinates": [ 135.7643838, 34.9351151 ] } },
{ "type": "Feature", "properties": { "内容": "ラプラース樹楽　樹楽【小規模多機能型居宅介護】京都府京都市伏見区醍醐中山町20-2", "url": "https://www.kaigokensaku.mhlw.go.jp/26/index.php?action_kouhyou_detail_004_kani=true&JigyosyoCd=2690900838-00&ServiceCd=730&Type=search", "url2": "http://across-inc.jp" }, "geometry": { "type": "Point", "coordinates": [ 135.8176408, 34.9522767 ] } },
{ "type": "Feature", "properties": { "内容": "小規模多機能型居宅介護事業所醍醐の家ほっこり【小規模多機能型居宅介護】京都市伏見区醍醐南里町30-1", "url": "https://www.kaigokensaku.mhlw.go.jp/26/index.php?action_kouhyou_detail_004_kani=true&JigyosyoCd=2690900036-00&ServiceCd=730&Type=search", "url2": "http://www.kyoro.or.jp" }, "geometry": { "type": "Point", "coordinates": [ 135.814835499999958, 34.9465523 ] } },
{ "type": "Feature", "properties": { "内容": "おとわ小規模多機能ホーム【小規模多機能型居宅介護】京都府京都市山科区小山南溝町17番地おとわ翔裕館", "url": "https://www.kaigokensaku.mhlw.go.jp/26/index.php?action_kouhyou_detail_004_kani=true&JigyosyoCd=2694100310-00&ServiceCd=730&Type=search", "url2": "https://sangajapan.jp/otowa/otowa01" }, "geometry": { "type": "Point", "coordinates": [ 135.830958399999986, 34.9844286 ] } },
{ "type": "Feature", "properties": { "内容": "なぎつじ小規模多機能ホーム【小規模多機能型居宅介護】京都府京都市山科区大宅沢町105なぎつじ翔裕館　Ⅱ号館", "url": "https://www.kaigokensaku.mhlw.go.jp/26/index.php?action_kouhyou_detail_004_kani=true&JigyosyoCd=2694100351-00&ServiceCd=730&Type=search", "url2": "httpｓ：／／ｗｗｗ.sanga-kaigo.co.jp" }, "geometry": { "type": "Point", "coordinates": [ 135.8169997, 34.9692472 ] } },
{ "type": "Feature", "properties": { "内容": "パナソニックエイジフリーケアセンター京都大宅・小規模多機能【小規模多機能型居宅介護】京都府京都市山科区大宅五反畑町49-3エイジフリーハウス京都大宅", "url": "https://www.kaigokensaku.mhlw.go.jp/26/index.php?action_kouhyou_detail_004_kani=true&JigyosyoCd=2694100203-00&ServiceCd=730&Type=search", "url2": "http://sumai.panasonic.jp/agefree/facility_care/agefree-house/kyotooyake/" }, "geometry": { "type": "Point", "coordinates": [ 135.823404100000062, 34.9733167 ] } },
{ "type": "Feature", "properties": { "内容": "寛ぎの家勧修【小規模多機能型居宅介護】京都府京都市山科区勧修寺東堂田町170番地", "url": "https://www.kaigokensaku.mhlw.go.jp/26/index.php?action_kouhyou_detail_004_kani=true&JigyosyoCd=2694100013-00&ServiceCd=730&Type=search", "url2": "http://care-net.biz/26/kanshukutu" }, "geometry": { "type": "Point", "coordinates": [ 135.807853099999988, 34.9655587 ] } },
{ "type": "Feature", "properties": { "内容": "小規模多機能型居宅介護事業所みささぎ【小規模多機能型居宅介護】京都市山科区御陵原西町４２", "url": "https://www.kaigokensaku.mhlw.go.jp/26/index.php?action_kouhyou_detail_004_kani=true&JigyosyoCd=2694100047-00&ServiceCd=730&Type=search", "url2": "https://www.kyoto-fukushi.org/" }, "geometry": { "type": "Point", "coordinates": [ 135.803534200000058, 34.9960162 ] } },
{ "type": "Feature", "properties": { "内容": "小規模多機能型居宅介護　たのしい家山科音羽【小規模多機能型居宅介護】京都府京都市山科区音羽初田町5－1", "url": "https://www.kaigokensaku.mhlw.go.jp/26/index.php?action_kouhyou_detail_004_kani=true&JigyosyoCd=2694100195-00&ServiceCd=730&Type=search", "url2": null }, "geometry": { "type": "Point", "coordinates": [ 135.820693300000016, 34.9856957 ] } },
{ "type": "Feature", "properties": { "内容": "洛和小規模多機能サービス山科西野【小規模多機能型居宅介護】京都市山科区西野広見町27-1", "url": "https://www.kaigokensaku.mhlw.go.jp/26/index.php?action_kouhyou_detail_004_kani=true&JigyosyoCd=2694100088-00&ServiceCd=730&Type=search", "url2": "http://www.rakuwa.or.jp/" }, "geometry": { "type": "Point", "coordinates": [ 135.807725399999981, 34.9824957 ] } },
{ "type": "Feature", "properties": { "内容": "小規模多機能型居宅介護　香東園やましな【小規模多機能型居宅介護】京都府京都市山科区西野野色町15-88", "url": "https://www.kaigokensaku.mhlw.go.jp/26/index.php?action_kouhyou_detail_004_kani=true&JigyosyoCd=2694100112-00&ServiceCd=730&Type=search", "url2": "http://www.koutouen.com/yamashina/" }, "geometry": { "type": "Point", "coordinates": [ 135.805090177384955, 34.986243863546257 ] } },
{ "type": "Feature", "properties": { "内容": "パナソニック　エイジフリーケアセンター京都音羽・小規模多機能【小規模多機能型居宅介護】京都市山科区音羽前田町38-1エイジフリーハウス　京都音羽", "url": "https://www.kaigokensaku.mhlw.go.jp/26/index.php?action_kouhyou_detail_004_kani=true&JigyosyoCd=2694100179-00&ServiceCd=730&Type=search", "url2": "http://sumai.panasonic.jp/agefree/" }, "geometry": { "type": "Point", "coordinates": [ 135.826942700000018, 34.9855653 ] } },
{ "type": "Feature", "properties": { "内容": "ヒューマンライフケア山科の宿【小規模多機能型居宅介護】西野山中鳥井町28", "url": "https://www.kaigokensaku.mhlw.go.jp/26/index.php?action_kouhyou_detail_004_kani=true&JigyosyoCd=2694100161-00&ServiceCd=730&Type=search", "url2": "https://kaigo.human-lifecare.jp/facilities/sh010_Yamashina/summary.html" }, "geometry": { "type": "Point", "coordinates": [ 135.798026451837131, 34.970615170917405 ] } },
{ "type": "Feature", "properties": { "内容": "はるかぜガーデン桂川【小規模多機能型居宅介護】京都府京都市西京区桂上野西町234番はるかぜガーデン桂川", "url": "https://www.kaigokensaku.mhlw.go.jp/26/index.php?action_kouhyou_detail_004_kani=true&JigyosyoCd=2694000270-00&ServiceCd=730&Type=search", "url2": "https://kondo-naika.jp" }, "geometry": { "type": "Point", "coordinates": [ 135.701150899999988, 34.9951955 ] } },
{ "type": "Feature", "properties": { "内容": "パナソニック　エイジフリーケアセンター　京都桂川・小規模多機能【小規模多機能型居宅介護】下津林番条町86", "url": "https://www.kaigokensaku.mhlw.go.jp/26/index.php?action_kouhyou_detail_004_kani=true&JigyosyoCd=2694000148-00&ServiceCd=730&Type=search", "url2": "http://panasonic.co.jp" }, "geometry": { "type": "Point", "coordinates": [ 135.712223399999971, 34.970158942286119 ] } },
{ "type": "Feature", "properties": { "内容": "ガーデンハウス上桂【小規模多機能型居宅介護】京都市西京区上桂北村町114", "url": "https://www.kaigokensaku.mhlw.go.jp/26/index.php?action_kouhyou_detail_004_kani=true&JigyosyoCd=2694000056-00&ServiceCd=730&Type=search", "url2": "http://www.hiragino.or.jp" }, "geometry": { "type": "Point", "coordinates": [ 135.699827300000038, 34.992401 ] } },
{ "type": "Feature", "properties": { "内容": "京都厚生園松尾の家【小規模多機能型居宅介護】京都市西京区松尾井戸町36", "url": "https://www.kaigokensaku.mhlw.go.jp/26/index.php?action_kouhyou_detail_004_kani=true&JigyosyoCd=2694000023-00&ServiceCd=730&Type=search", "url2": "http://www.kyotokouseien.com" }, "geometry": { "type": "Point", "coordinates": [ 135.6889033, 34.9921232 ] } },
{ "type": "Feature", "properties": { "内容": "エクセレント桂【小規模多機能型居宅介護】牛ヶ瀬西柿町75", "url": "https://www.kaigokensaku.mhlw.go.jp/26/index.php?action_kouhyou_detail_004_kani=true&JigyosyoCd=2694000098-00&ServiceCd=730&Type=search", "url2": "http://excare.co.jp" }, "geometry": { "type": "Point", "coordinates": [ 135.716120132540937, 34.971084554063793 ] } },
{ "type": "Feature", "properties": { "内容": "小規模多機能型居宅介護事業所桂坂【小規模多機能型居宅介護】京都市西京区大枝北沓掛町１丁目２１番地の９４地域密着型サービスセンター桂坂", "url": "https://www.kaigokensaku.mhlw.go.jp/26/index.php?action_kouhyou_detail_004_kani=true&JigyosyoCd=2694000171-00&ServiceCd=730&Type=search", "url2": "http://katsurazaka.sakura.ne.jp" }, "geometry": { "type": "Point", "coordinates": [ 135.655624200000062, 34.98835467788782 ] } },
{ "type": "Feature", "properties": { "内容": "社会福祉法人　京都市社会福祉協議会　小規模多機能かたぎはら【小規模多機能型居宅介護】樫原百々ケ池31番地の18西京ふれあい地域福祉センター内", "url": "https://www.kaigokensaku.mhlw.go.jp/26/index.php?action_kouhyou_detail_004_kani=true&JigyosyoCd=2694000296-00&ServiceCd=730&Type=search", "url2": "https://www.syakyo-kyoto.net/katagihara/" }, "geometry": { "type": "Point", "coordinates": [ 135.688401327508586, 34.97222234411965 ] } },
{ "type": "Feature", "properties": { "内容": "ニチイケアセンター京都洛西【小規模多機能型居宅介護】大枝中山町3-3", "url": "https://www.kaigokensaku.mhlw.go.jp/26/index.php?action_kouhyou_detail_004_kani=true&JigyosyoCd=2694000411-00&ServiceCd=730&Type=search", "url2": null }, "geometry": { "type": "Point", "coordinates": [ 135.6760117, 34.9680498 ] } },
{ "type": "Feature", "properties": { "内容": "スイート上桂【小規模多機能型居宅介護】上桂前田町55-4スイート上桂", "url": "https://www.kaigokensaku.mhlw.go.jp/26/index.php?action_kouhyou_detail_004_kani=true&JigyosyoCd=2694000163-00&ServiceCd=730&Type=search", "url2": "http://www.excare.co.jp/" }, "geometry": { "type": "Point", "coordinates": [ 135.699769177944518, 34.9892009742723 ] } },
{ "type": "Feature", "properties": { "内容": "小規模多機能型居宅介護スイート嵐山【小規模多機能型居宅介護】京都市西京区嵐山内田町25－4スイート嵐山", "url": "https://www.kaigokensaku.mhlw.go.jp/26/index.php?action_kouhyou_detail_004_kani=true&JigyosyoCd=2694000205-00&ServiceCd=730&Type=search", "url2": "https://www.excare.co.jp/facility/09/arashiyama/" }, "geometry": { "type": "Point", "coordinates": [ 135.6840856, 35.0047856 ] } },
{ "type": "Feature", "properties": { "内容": "小規模多機能型居宅介護　ソラスト銀閣【小規模多機能型居宅介護】下津林南大般若町120高齢者福祉施設　湧昇閣　３階", "url": "https://www.kaigokensaku.mhlw.go.jp/26/index.php?action_kouhyou_detail_004_kani=true&JigyosyoCd=2694000353-00&ServiceCd=730&Type=search", "url2": null }, "geometry": { "type": "Point", "coordinates": [ 135.71134, 34.9736759 ] } },
{ "type": "Feature", "properties": { "内容": "愛の家小規模多機能居宅介護京都桂【小規模多機能型居宅介護】桂上野東町135番1", "url": "https://www.kaigokensaku.mhlw.go.jp/26/index.php?action_kouhyou_detail_004_kani=true&JigyosyoCd=2694000155-00&ServiceCd=730&Type=search", "url2": "http://mcs-ainoie.com/st010.html" }, "geometry": { "type": "Point", "coordinates": [ 135.704678081614702, 34.994668540177443 ] } },
{ "type": "Feature", "properties": { "内容": "いまやすにこにこはうす　にっこりむら【小規模多機能型居宅介護】京都府福知山市字今安小字前田1004番地ｰ1今安ニコニコハウス", "url": "https://www.kaigokensaku.mhlw.go.jp/26/index.php?action_kouhyou_detail_004_kani=true&JigyosyoCd=2692600188-00&ServiceCd=730&Type=search", "url2": "http://ameblo.jp/imaniko-nikkori/" }, "geometry": { "type": "Point", "coordinates": [ 135.089024399999971, 35.2966972 ] } },
{ "type": "Feature", "properties": { "内容": "小規模多機能型居宅介護事業所アリアーテ【小規模多機能型居宅介護】京都府福知山市末広町4-32-1", "url": "https://www.kaigokensaku.mhlw.go.jp/26/index.php?action_kouhyou_detail_004_kani=true&JigyosyoCd=2692600287-00&ServiceCd=730&Type=search", "url2": "https://www.maisonparterre.jp/about/new/" }, "geometry": { "type": "Point", "coordinates": [ 135.116315, 35.3001212 ] } },
{ "type": "Feature", "properties": { "内容": "土ニコニコハウス　にっこり村【小規模多機能型居宅介護】京都府福知山市字土小字山ノ下６０番地", "url": "https://www.kaigokensaku.mhlw.go.jp/26/index.php?action_kouhyou_detail_004_kani=true&JigyosyoCd=2692600170-00&ServiceCd=730&Type=search", "url2": "https://www.facebook.com/profile.php?id=61578762281179" }, "geometry": { "type": "Point", "coordinates": [ 135.126562799999988, 35.2967 ] } },
{ "type": "Feature", "properties": { "内容": "あっとホームらく楽【小規模多機能型居宅介護】福知山市鴨野町57番地", "url": "https://www.kaigokensaku.mhlw.go.jp/26/index.php?action_kouhyou_detail_004_kani=true&JigyosyoCd=2692600014-00&ServiceCd=730&Type=search", "url2": "http://swc-seikouen.jp/iwato/" }, "geometry": { "type": "Point", "coordinates": [ 135.043559, 35.3271843 ] } },
{ "type": "Feature", "properties": { "内容": "小規模多機能型居宅介護事業　おとなせ【小規模多機能型居宅介護】京都府福知山市字猪崎７５４－５３", "url": "https://www.kaigokensaku.mhlw.go.jp/26/index.php?action_kouhyou_detail_004_kani=true&JigyosyoCd=2692600139-00&ServiceCd=730&Type=search", "url2": "http://www.mitsumi.or.jp/" }, "geometry": { "type": "Point", "coordinates": [ 135.129867900000022, 35.306709800000014 ] } },
{ "type": "Feature", "properties": { "内容": "やすらぎ苑　引土の家【小規模多機能型居宅介護】京都府舞鶴市字引土182-1", "url": "https://www.kaigokensaku.mhlw.go.jp/26/index.php?action_kouhyou_detail_004_kani=true&JigyosyoCd=2692700145-00&ServiceCd=730&Type=search", "url2": "http://daijukai.jp/" }, "geometry": { "type": "Point", "coordinates": [ 135.385991800000056, 35.4747971 ] } },
{ "type": "Feature", "properties": { "内容": "やすらぎ苑　余部の家【小規模多機能型居宅介護】京都府舞鶴市余部下９２１－２", "url": "https://www.kaigokensaku.mhlw.go.jp/26/index.php?action_kouhyou_detail_004_kani=true&JigyosyoCd=2692700111-00&ServiceCd=730&Type=search", "url2": "http://www.10.ocn.ne.jp/yasuragi/" }, "geometry": { "type": "Point", "coordinates": [ 135.3620687, 35.4788211 ] } },
{ "type": "Feature", "properties": { "内容": "小規模多機能型居宅介護ココ・ガーデン【小規模多機能型居宅介護】田中町３－３", "url": "https://www.kaigokensaku.mhlw.go.jp/26/index.php?action_kouhyou_detail_004_kani=true&JigyosyoCd=2692700178-00&ServiceCd=730&Type=search", "url2": "https://g-support-takahama.com/" }, "geometry": { "type": "Point", "coordinates": [ 135.2727021, 34.7232619 ] } },
{ "type": "Feature", "properties": { "内容": "ふれあいホーム真愛【小規模多機能型居宅介護】京都府舞鶴市字北田辺41番地1、42番地", "url": "https://www.kaigokensaku.mhlw.go.jp/26/index.php?action_kouhyou_detail_004_kani=true&JigyosyoCd=2692700012-00&ServiceCd=730&Type=search", "url2": "http://www.sinainoie.org" }, "geometry": { "type": "Point", "coordinates": [ 135.329897499999987, 35.4497021 ] } },
{ "type": "Feature", "properties": { "内容": "オンブラージュ矢之助【小規模多機能型居宅介護】矢之助町28-7", "url": "https://www.kaigokensaku.mhlw.go.jp/26/index.php?action_kouhyou_detail_004_kani=true&JigyosyoCd=2692700103-00&ServiceCd=730&Type=search", "url2": "http://daijukai.jp//" }, "geometry": { "type": "Point", "coordinates": [ 135.4014237, 35.4718614 ] } },
{ "type": "Feature", "properties": { "内容": "小規模多機能型居宅介護　やすらぎ苑　丸山の家【小規模多機能型居宅介護】舞鶴市丸山口町２３－１", "url": "https://www.kaigokensaku.mhlw.go.jp/26/index.php?action_kouhyou_detail_004_kani=true&JigyosyoCd=2692700061-00&ServiceCd=730&Type=search", "url2": "http://daijukai.jp/" }, "geometry": { "type": "Point", "coordinates": [ 135.391699900000049, 35.4601128 ] } },
{ "type": "Feature", "properties": { "内容": "中筋　小規模多機能型居宅介護施設　丹都【小規模多機能型居宅介護】京都府綾部市岡町長田３－１", "url": "https://www.kaigokensaku.mhlw.go.jp/26/index.php?action_kouhyou_detail_004_kani=true&JigyosyoCd=2691800201-00&ServiceCd=730&Type=search", "url2": "http://fukinotou-ayabe.com/" }, "geometry": { "type": "Point", "coordinates": [ 135.2393921, 35.3015813 ] } },
{ "type": "Feature", "properties": { "内容": "山家　小規模多機能型居宅介護施設　やまぶき【小規模多機能型居宅介護】京都府綾部市上原町木トラ１番地の３", "url": "https://www.kaigokensaku.mhlw.go.jp/26/index.php?action_kouhyou_detail_004_kani=true&JigyosyoCd=2691800193-00&ServiceCd=730&Type=search", "url2": "https://www.fukinotou-ayabe.com" }, "geometry": { "type": "Point", "coordinates": [ 135.317934400000013, 35.2939616 ] } },
{ "type": "Feature", "properties": { "内容": "小規模多機能ホーム　リエゾン宇治おおくぼ【小規模多機能型居宅介護】京都府宇治市大久保町山ノ内55-2", "url": "https://www.kaigokensaku.mhlw.go.jp/26/index.php?action_kouhyou_detail_004_kani=true&JigyosyoCd=2691200188-00&ServiceCd=730&Type=search", "url2": "http://www.kyoto-keishinkai.or.jp/" }, "geometry": { "type": "Point", "coordinates": [ 135.77273, 34.8711676 ] } },
{ "type": "Feature", "properties": { "内容": "小規模多機能ホームまごころ大久保【小規模多機能型居宅介護】京都府宇治市広野町宮谷69番1", "url": "https://www.kaigokensaku.mhlw.go.jp/26/index.php?action_kouhyou_detail_004_kani=true&JigyosyoCd=2691200030-00&ServiceCd=730&Type=search", "url2": "https://www.micro-fukushikai.or.jp/" }, "geometry": { "type": "Point", "coordinates": [ 135.785545400000046, 34.873334 ] } },
{ "type": "Feature", "properties": { "内容": "伊勢田明星園小規模多機能型居宅介護【小規模多機能型居宅介護】京都府宇治市伊勢田町若林41番地", "url": "https://www.kaigokensaku.mhlw.go.jp/26/index.php?action_kouhyou_detail_004_kani=true&JigyosyoCd=2691200139-00&ServiceCd=730&Type=search", "url2": "http://www.myoujyo.or.jp/isedamyoujyo/" }, "geometry": { "type": "Point", "coordinates": [ 135.776988066270405, 34.885340323603032 ] } },
{ "type": "Feature", "properties": { "内容": "ニングルの森　御蔵山【小規模多機能型居宅介護】京都府宇治市平尾台１丁目３－１０", "url": "https://www.kaigokensaku.mhlw.go.jp/26/index.php?action_kouhyou_detail_004_kani=true&JigyosyoCd=2691200063-00&ServiceCd=730&Type=search", "url2": "http://www.ninguru.co.jp" }, "geometry": { "type": "Point", "coordinates": [ 135.8119246, 34.9240654 ] } },
{ "type": "Feature", "properties": { "内容": "小規模多機能型居宅介護ニングルの森木幡【小規模多機能型居宅介護】京都府宇治市木幡中村29番地2", "url": "https://www.kaigokensaku.mhlw.go.jp/26/index.php?action_kouhyou_detail_004_kani=true&JigyosyoCd=2691200097-00&ServiceCd=730&Type=search", "url2": "http://www.ninguru.co.jp/" }, "geometry": { "type": "Point", "coordinates": [ 135.7986869, 34.9221985 ] } },
{ "type": "Feature", "properties": { "内容": "宇治おかもと安心介護の家（小規模多機能型）【小規模多機能型居宅介護】京都府宇治市神明石塚54番地18おかもとクリニック1階", "url": "https://www.kaigokensaku.mhlw.go.jp/26/index.php?action_kouhyou_detail_004_kani=true&JigyosyoCd=2691200246-00&ServiceCd=730&Type=search", "url2": "https://www.okamoto-hp.or.jp/" }, "geometry": { "type": "Point", "coordinates": [ 135.78365740000001, 34.8847602 ] } },
{ "type": "Feature", "properties": { "内容": "菟道明星園小規模多機能型居宅介護【小規模多機能型居宅介護】京都府宇治市莵道岡谷16-3", "url": "https://www.kaigokensaku.mhlw.go.jp/26/index.php?action_kouhyou_detail_004_kani=true&JigyosyoCd=2691200253-00&ServiceCd=730&Type=search", "url2": "https://www.myoujyo.or.jp/todoutakinou/" }, "geometry": { "type": "Point", "coordinates": [ 135.8201905, 34.8964837 ] } },
{ "type": "Feature", "properties": { "内容": "社会福祉法人柏樹会小規模多機能型居宅介護やまぶきの郷【小規模多機能型居宅介護】京都府宇治市莵道段ノ上20番地の1", "url": "https://www.kaigokensaku.mhlw.go.jp/26/index.php?action_kouhyou_detail_004_kani=true&JigyosyoCd=2691200329-00&ServiceCd=730&Type=search", "url2": null }, "geometry": { "type": "Point", "coordinates": [ 135.8121802, 34.903645700000041 ] } },
{ "type": "Feature", "properties": { "内容": "地域密着型サービス　ハーモニーやまはた【小規模多機能型居宅介護】京都府宇治市木幡北山畑23-1", "url": "https://www.kaigokensaku.mhlw.go.jp/26/index.php?action_kouhyou_detail_004_kani=true&JigyosyoCd=2691200162-00&ServiceCd=730&Type=search", "url2": "http://www.kurashino-harmony.or.jp/about.html" }, "geometry": { "type": "Point", "coordinates": [ 135.799753399999986, 34.9243928 ] } },
{ "type": "Feature", "properties": { "内容": "小規模多機能ホームまごころ西宇治【小規模多機能型居宅介護】宇治市伊勢田町中山45番1", "url": "https://www.kaigokensaku.mhlw.go.jp/26/index.php?action_kouhyou_detail_004_kani=true&JigyosyoCd=2691200071-00&ServiceCd=730&Type=search", "url2": "https://www.micro-fukushikai.or.jp" }, "geometry": { "type": "Point", "coordinates": [ 135.7770511, 34.8829551 ] } },
{ "type": "Feature", "properties": { "内容": "メイプルリーフ宇治【小規模多機能型居宅介護】京都府宇治市槇島町本屋敷10-1", "url": "https://www.kaigokensaku.mhlw.go.jp/26/index.php?action_kouhyou_detail_004_kani=true&JigyosyoCd=2691200022-00&ServiceCd=730&Type=search", "url2": "http://www.ujimapleleaf.com/" }, "geometry": { "type": "Point", "coordinates": [ 135.777496255819642, 34.913661527434606 ] } },
{ "type": "Feature", "properties": { "内容": "宇治やすらぎの家【小規模多機能型居宅介護】京都府宇治市宇治戸ノ内22-6", "url": "https://www.kaigokensaku.mhlw.go.jp/26/index.php?action_kouhyou_detail_004_kani=true&JigyosyoCd=2691200105-00&ServiceCd=730&Type=search", "url2": "https://fudouen.com/" }, "geometry": { "type": "Point", "coordinates": [ 135.8003809, 34.890993500000015 ] } },
{ "type": "Feature", "properties": { "内容": "ニチイケアセンター三室戸【小規模多機能型居宅介護】京都府宇治市莵道籔里３７番地", "url": "https://www.kaigokensaku.mhlw.go.jp/26/index.php?action_kouhyou_detail_004_kani=true&JigyosyoCd=2691200220-00&ServiceCd=730&Type=search", "url2": "hstQ69@nichiigakkan.co.jp" }, "geometry": { "type": "Point", "coordinates": [ 135.809725438622991, 34.90114399451091 ] } },
{ "type": "Feature", "properties": { "内容": "あすみる小規模多機能型居宅介護事業所【小規模多機能型居宅介護】宇治市小倉町蓮池175-23", "url": "https://www.kaigokensaku.mhlw.go.jp/26/index.php?action_kouhyou_detail_004_kani=true&JigyosyoCd=2691200204-00&ServiceCd=730&Type=search", "url2": "https://care-net.biz/26/akia/" }, "geometry": { "type": "Point", "coordinates": [ 135.778475899999989, 34.8960797 ] } },
{ "type": "Feature", "properties": { "内容": "はごろも苑みやづの家【小規模多機能型居宅介護】京都府宮津市字鶴賀２１３０", "url": "https://www.kaigokensaku.mhlw.go.jp/26/index.php?action_kouhyou_detail_004_kani=true&JigyosyoCd=2692100049-00&ServiceCd=730&Type=search", "url2": "http://www.mineyama-fukusikai.jp/theme137.html" }, "geometry": { "type": "Point", "coordinates": [ 135.200315591401676, 35.534196715265963 ] } },
{ "type": "Feature", "properties": { "内容": "亀岡陽風荘【小規模多機能型居宅介護】亀岡市本梅町東加舎九日田9-6", "url": "https://www.kaigokensaku.mhlw.go.jp/26/index.php?action_kouhyou_detail_004_kani=true&JigyosyoCd=2691600049-00&ServiceCd=730&Type=search", "url2": "kameoka-yo-ｆu-sou@honey.ocn.ne.jp" }, "geometry": { "type": "Point", "coordinates": [ 135.481551299999978, 35.0060504 ] } },
{ "type": "Feature", "properties": { "内容": "小規模多機能ホーム亀岡清泉荘【小規模多機能型居宅介護】曽我部町南条下河原８番", "url": "https://www.kaigokensaku.mhlw.go.jp/26/index.php?action_kouhyou_detail_004_kani=true&JigyosyoCd=2691600072-00&ServiceCd=730&Type=search", "url2": "http://www.care-community.co.jp/" }, "geometry": { "type": "Point", "coordinates": [ 135.5524193, 34.9989373 ] } },
{ "type": "Feature", "properties": { "内容": "小規模多機能型居宅介護あゆみの家【小規模多機能型居宅介護】京都府亀岡市篠町篠下中筋44－5", "url": "https://www.kaigokensaku.mhlw.go.jp/26/index.php?action_kouhyou_detail_004_kani=true&JigyosyoCd=2691600031-00&ServiceCd=730&Type=search", "url2": "http://www.kameoka-ayumi.com" }, "geometry": { "type": "Point", "coordinates": [ 135.612480963987451, 35.00528289956425 ] } },
{ "type": "Feature", "properties": { "内容": "しんまち小規模多機能ホーム【小規模多機能型居宅介護】京都府亀岡市新町15", "url": "https://www.kaigokensaku.mhlw.go.jp/26/index.php?action_kouhyou_detail_004_kani=true&JigyosyoCd=2691600098-00&ServiceCd=730&Type=search", "url2": "http://www.kameokahp.com" }, "geometry": { "type": "Point", "coordinates": [ 135.580365656483451, 35.01009036239671 ] } },
{ "type": "Feature", "properties": { "内容": "小規模多機能ホーム三愛の里うつね【小規模多機能型居宅介護】京都府亀岡市宇津根町土井ノ内48番地１", "url": "https://www.kaigokensaku.mhlw.go.jp/26/index.php?action_kouhyou_detail_004_kani=true&JigyosyoCd=2691600114-00&ServiceCd=730&Type=search", "url2": "http://san-ainosato.com" }, "geometry": { "type": "Point", "coordinates": [ 135.567358799999965, 35.0230239 ] } },
{ "type": "Feature", "properties": { "内容": "篠まごころホーム【小規模多機能型居宅介護】亀岡市篠町広田１丁目３１－２０", "url": "https://www.kaigokensaku.mhlw.go.jp/26/index.php?action_kouhyou_detail_004_kani=true&JigyosyoCd=2691600023-00&ServiceCd=730&Type=search", "url2": "https://www.shimizu-hospital.or.jp/" }, "geometry": { "type": "Point", "coordinates": [ 135.595373600000016, 35.0040398 ] } },
{ "type": "Feature", "properties": { "内容": "リハビリ特化型　小規模多機能型居宅介護　のどかリハビリホーム【小規模多機能型居宅介護】京都府亀岡市大井町並河2丁目859番地", "url": "https://www.kaigokensaku.mhlw.go.jp/26/index.php?action_kouhyou_detail_004_kani=true&JigyosyoCd=2691600130-00&ServiceCd=730&Type=search", "url2": null }, "geometry": { "type": "Point", "coordinates": [ 135.559470996325672, 35.026441627221722 ] } },
{ "type": "Feature", "properties": { "内容": "すずらん【小規模多機能型居宅介護】京都府亀岡市余部町中条１７番地", "url": "https://www.kaigokensaku.mhlw.go.jp/26/index.php?action_kouhyou_detail_004_kani=true&JigyosyoCd=2691600015-00&ServiceCd=730&Type=search", "url2": "http://www.yuaien.or.jp" }, "geometry": { "type": "Point", "coordinates": [ 135.567173700000012, 35.0183605 ] } },
{ "type": "Feature", "properties": { "内容": "小規模多機能ホームまごころ城陽【小規模多機能型居宅介護】城陽市富野南清水68番地6", "url": "https://www.kaigokensaku.mhlw.go.jp/26/index.php?action_kouhyou_detail_004_kani=true&JigyosyoCd=2692800051-00&ServiceCd=730&Type=search", "url2": "https://www.micro-fukushikai.or.jp/" }, "geometry": { "type": "Point", "coordinates": [ 135.78880920000006, 34.8398927 ] } },
{ "type": "Feature", "properties": { "内容": "医療法人　啓信会　小規模多機能ホーム　リエゾン萌木の村【小規模多機能型居宅介護】城陽市寺田新池６５－２", "url": "https://www.kaigokensaku.mhlw.go.jp/26/index.php?action_kouhyou_detail_004_kani=true&JigyosyoCd=2692800028-00&ServiceCd=730&Type=search", "url2": "http://www.kyoto-keishinkai.or.jp/" }, "geometry": { "type": "Point", "coordinates": [ 135.7833736, 34.8481531 ] } },
{ "type": "Feature", "properties": { "内容": "医療法人社団コクラ医院小規模多機能型居宅介護「どんぐりの家」【小規模多機能型居宅介護】久世下大谷18-103", "url": "https://www.kaigokensaku.mhlw.go.jp/26/index.php?action_kouhyou_detail_004_kani=true&JigyosyoCd=2692800010-00&ServiceCd=730&Type=search", "url2": "http://www.kokura-iin.com/" }, "geometry": { "type": "Point", "coordinates": [ 135.781615399999964, 34.8691484 ] } },
{ "type": "Feature", "properties": { "内容": "小規模多機能　久津川ホワイティー【小規模多機能型居宅介護】平川野原16-18", "url": "https://www.kaigokensaku.mhlw.go.jp/26/index.php?action_kouhyou_detail_004_kani=true&JigyosyoCd=2692800077-00&ServiceCd=730&Type=search", "url2": "http://www.whyty.jp/index.html" }, "geometry": { "type": "Point", "coordinates": [ 135.7704331, 34.8677346 ] } },
{ "type": "Feature", "properties": { "内容": "小規模多機能　青谷ホワイティー【小規模多機能型居宅介護】城陽市市辺小梨間33-2", "url": "https://www.kaigokensaku.mhlw.go.jp/26/index.php?action_kouhyou_detail_004_kani=true&JigyosyoCd=2692801208-00&ServiceCd=730&Type=search", "url2": "http://www.whyty.jp/index.html" }, "geometry": { "type": "Point", "coordinates": [ 135.8018959, 34.8273688 ] } },
{ "type": "Feature", "properties": { "内容": "ゆうあいの家【小規模多機能型居宅介護】京都府城陽市寺田乾出北４５番地", "url": "https://www.kaigokensaku.mhlw.go.jp/26/index.php?action_kouhyou_detail_004_kani=true&JigyosyoCd=2692800044-00&ServiceCd=730&Type=search", "url2": "https://uihm.jp/" }, "geometry": { "type": "Point", "coordinates": [ 135.770263699999987, 34.8560801 ] } },
{ "type": "Feature", "properties": { "内容": "キャビックケアホームすぃーとハンズ向日【小規模多機能型居宅介護】向日市上植野町下川原４６－４", "url": "https://www.kaigokensaku.mhlw.go.jp/26/index.php?action_kouhyou_detail_004_kani=true&JigyosyoCd=2693100022-00&ServiceCd=730&Type=search", "url2": "ooishi@cabik.co.jp" }, "geometry": { "type": "Point", "coordinates": [ 135.699956899999961, 34.9359953 ] } },
{ "type": "Feature", "properties": { "内容": "小規模多機能型居宅介護ソラストかいで【小規模多機能型居宅介護】京都府向日市鶏冠井町祓所67", "url": "https://www.kaigokensaku.mhlw.go.jp/26/index.php?action_kouhyou_detail_004_kani=true&JigyosyoCd=2693100089-00&ServiceCd=730&Type=search", "url2": null }, "geometry": { "type": "Point", "coordinates": [ 135.7044296, 34.9434157 ] } },
{ "type": "Feature", "properties": { "内容": "ハッピースタッフ長岡天神【小規模多機能型居宅介護】京都府長岡京市長岡2丁目11-13", "url": "https://www.kaigokensaku.mhlw.go.jp/26/index.php?action_kouhyou_detail_004_kani=true&JigyosyoCd=2693000180-00&ServiceCd=730&Type=search", "url2": "http://lifecare-vision-nagaokatennjinn.blog.jp/" }, "geometry": { "type": "Point", "coordinates": [ 135.6909187, 34.9308089 ] } },
{ "type": "Feature", "properties": { "内容": "小規模多機能型居宅介護事業所らしく【小規模多機能型居宅介護】長法寺川原谷27", "url": "https://www.kaigokensaku.mhlw.go.jp/26/index.php?action_kouhyou_detail_004_kani=true&JigyosyoCd=2693000206-00&ServiceCd=730&Type=search", "url2": "https://liv-r.co.jp/kitaeroom/lashiku/" }, "geometry": { "type": "Point", "coordinates": [ 135.683273311591961, 34.928220611779672 ] } },
{ "type": "Feature", "properties": { "内容": "小規模多機能型居宅介護　あさつゆ【小規模多機能型居宅介護】京都府長岡京市久貝2丁目15", "url": "https://www.kaigokensaku.mhlw.go.jp/26/index.php?action_kouhyou_detail_004_kani=true&JigyosyoCd=2693000149-00&ServiceCd=730&Type=search", "url2": "http://www.senshunkai.or.jp" }, "geometry": { "type": "Point", "coordinates": [ 135.697669577246046, 34.911598314784875 ] } },
{ "type": "Feature", "properties": { "内容": "せんしゅんかい小規模多機能型居宅介護事業所のどか【小規模多機能型居宅介護】京都府長岡京市友岡川原25-3", "url": "https://www.kaigokensaku.mhlw.go.jp/26/index.php?action_kouhyou_detail_004_kani=true&JigyosyoCd=2693000172-00&ServiceCd=730&Type=search", "url2": "https://www.senshunkai.or.jp/" }, "geometry": { "type": "Point", "coordinates": [ 135.687824400000011, 34.9137384 ] } },
{ "type": "Feature", "properties": { "内容": "サポートハウスほのぼの【小規模多機能型居宅介護】京都府長岡京市井ノ内広海道37-5", "url": "https://www.kaigokensaku.mhlw.go.jp/26/index.php?action_kouhyou_detail_004_kani=true&JigyosyoCd=2693000024-00&ServiceCd=730&Type=search", "url2": null }, "geometry": { "type": "Point", "coordinates": [ 135.6849, 34.9419582 ] } },
{ "type": "Feature", "properties": { "内容": "小規模多機能居宅介護　ぽんぽこ【小規模多機能型居宅介護】京都府八幡市男山指月15-9", "url": "https://www.kaigokensaku.mhlw.go.jp/26/index.php?action_kouhyou_detail_004_kani=true&JigyosyoCd=2692900042-00&ServiceCd=730&Type=search", "url2": "ponpoko-suzuran@nike.eonet.ne.jp" }, "geometry": { "type": "Point", "coordinates": [ 135.697588600000017, 34.8698274 ] } },
{ "type": "Feature", "properties": { "内容": "コスモス男山【小規模多機能型居宅介護】男山笹谷４番地２Ｄ19棟－106号室", "url": "https://www.kaigokensaku.mhlw.go.jp/26/index.php?action_kouhyou_detail_004_kani=true&JigyosyoCd=2692900026-00&ServiceCd=730&Type=search", "url2": "https://kosumosuot.sakura.ne.jp/hp/" }, "geometry": { "type": "Point", "coordinates": [ 135.695763899999946, 34.868333 ] } },
{ "type": "Feature", "properties": { "内容": "医療法人啓信会小規模多機能ホームリエゾン健康村【小規模多機能型居宅介護】京都府京田辺市大住大坪55-14", "url": "https://www.kaigokensaku.mhlw.go.jp/26/index.php?action_kouhyou_detail_004_kani=true&JigyosyoCd=2693200020-00&ServiceCd=730&Type=search", "url2": "http://www.kyoto-keishinkai.or.jp" }, "geometry": { "type": "Point", "coordinates": [ 135.7571815, 34.8305658 ] } },
{ "type": "Feature", "properties": { "内容": "医療法人健和会　ふれあいの里京田辺【小規模多機能型居宅介護】宮津池ノ内36番地", "url": "https://www.kaigokensaku.mhlw.go.jp/26/index.php?action_kouhyou_detail_004_kani=true&JigyosyoCd=2693200012-00&ServiceCd=730&Type=search", "url2": null }, "geometry": { "type": "Point", "coordinates": [ 135.786518699999988, 34.7904471 ] } },
{ "type": "Feature", "properties": { "内容": "ニチイケアセンター京田辺【小規模多機能型居宅介護】京田辺市興戸北落延４４－１", "url": "https://www.kaigokensaku.mhlw.go.jp/26/index.php?action_kouhyou_detail_004_kani=true&JigyosyoCd=2693200053-00&ServiceCd=730&Type=search", "url2": "http://www.nichiigakkan.co.jp" }, "geometry": { "type": "Point", "coordinates": [ 135.781546599999956, 34.807998300000015 ] } },
{ "type": "Feature", "properties": { "内容": "小規模多機能型居宅介護事業所　ほっこ里【小規模多機能型居宅介護】京都府京丹後市網野町網野３の１", "url": "https://www.kaigokensaku.mhlw.go.jp/26/index.php?action_kouhyou_detail_004_kani=true&JigyosyoCd=2693300226-00&ServiceCd=730&Type=search", "url2": null }, "geometry": { "type": "Point", "coordinates": [ 135.020189549158431, 35.681394578071355 ] } },
{ "type": "Feature", "properties": { "内容": "小規模多機能型居宅介護施設　川上ふれあいの家【小規模多機能型居宅介護】京都府京丹後市久美浜町金谷965", "url": "https://www.kaigokensaku.mhlw.go.jp/26/index.php?action_kouhyou_detail_004_kani=true&JigyosyoCd=2693300069-00&ServiceCd=730&Type=search", "url2": "http://taiyoufukushikai.jp/" }, "geometry": { "type": "Point", "coordinates": [ 134.933020599999963, 35.5579865 ] } },
{ "type": "Feature", "properties": { "内容": "小規模多機能型居宅介護施設　田村ゆうゆうの里【小規模多機能型居宅介護】京丹後市久美浜町関199-1", "url": "https://www.kaigokensaku.mhlw.go.jp/26/index.php?action_kouhyou_detail_004_kani=true&JigyosyoCd=2693300101-00&ServiceCd=730&Type=search", "url2": "http://taiyoufukushikai.jp/" }, "geometry": { "type": "Point", "coordinates": [ 134.9510014, 35.6227767 ] } },
{ "type": "Feature", "properties": { "内容": "小規模多機能施設間人あきばの里【小規模多機能型居宅介護】京都府京丹後市丹後町間人２５１１－６", "url": "https://www.kaigokensaku.mhlw.go.jp/26/index.php?action_kouhyou_detail_004_kani=true&JigyosyoCd=2693300093-00&ServiceCd=730&Type=search", "url2": "http://www.ichigaoen.com/" }, "geometry": { "type": "Point", "coordinates": [ 135.090159699999958, 35.7366898 ] } },
{ "type": "Feature", "properties": { "内容": "ふれあいホーム桃山【小規模多機能型居宅介護】京都府京丹後市網野町網野3060", "url": "https://www.kaigokensaku.mhlw.go.jp/26/index.php?action_kouhyou_detail_004_kani=true&JigyosyoCd=2693300010-00&ServiceCd=730&Type=search", "url2": "https://tangoen.net/" }, "geometry": { "type": "Point", "coordinates": [ 135.019974400000024, 35.6749943 ] } },
{ "type": "Feature", "properties": { "内容": "ふれあいホームあみの【小規模多機能型居宅介護】京都府京丹後市網野町網野390-10", "url": "https://www.kaigokensaku.mhlw.go.jp/26/index.php?action_kouhyou_detail_004_kani=true&JigyosyoCd=2693300044-00&ServiceCd=730&Type=search", "url2": "https://tangoen.net/" }, "geometry": { "type": "Point", "coordinates": [ 135.0260412, 35.6825748 ] } },
{ "type": "Feature", "properties": { "内容": "あしぎぬホームなごみ【小規模多機能型居宅介護】京都府京丹後市弥栄町溝谷3436番地の7", "url": "https://www.kaigokensaku.mhlw.go.jp/26/index.php?action_kouhyou_detail_004_kani=true&JigyosyoCd=2693300168-00&ServiceCd=730&Type=search", "url2": "http：//www.ashiginu.or.jp" }, "geometry": { "type": "Point", "coordinates": [ 135.092497230688423, 35.657563377288696 ] } },
{ "type": "Feature", "properties": { "内容": "あけぼの荘【小規模多機能型居宅介護】京都府京丹後市大宮町上常吉1226番地", "url": "https://www.kaigokensaku.mhlw.go.jp/26/index.php?action_kouhyou_detail_004_kani=true&JigyosyoCd=2693300036-00&ServiceCd=730&Type=search", "url2": "https://fudouen.com/" }, "geometry": { "type": "Point", "coordinates": [ 135.077025435581987, 35.550815119586488 ] } },
{ "type": "Feature", "properties": { "内容": "いさなご荘【小規模多機能型居宅介護】京都府京丹後市峰山町鱒留523番地", "url": "https://www.kaigokensaku.mhlw.go.jp/26/index.php?action_kouhyou_detail_004_kani=true&JigyosyoCd=2693300242-00&ServiceCd=730&Type=search", "url2": "https://fudouen.com/" }, "geometry": { "type": "Point", "coordinates": [ 135.028146642991601, 35.580849065712805 ] } },
{ "type": "Feature", "properties": { "内容": "はごろも苑ないきの家【小規模多機能型居宅介護】京都府京丹後市峰山町内記416番地", "url": "https://www.kaigokensaku.mhlw.go.jp/26/index.php?action_kouhyou_detail_004_kani=true&JigyosyoCd=2693300051-00&ServiceCd=730&Type=search", "url2": "http://www.mineyama-fukusikai.jp/index.htm" }, "geometry": { "type": "Point", "coordinates": [ 135.082874626983653, 35.630318860159441 ] } },
{ "type": "Feature", "properties": { "内容": "おおみや苑あけだの家【小規模多機能型居宅介護】京都府京丹後市大宮町明田1165番地", "url": "https://www.kaigokensaku.mhlw.go.jp/26/index.php?action_kouhyou_detail_004_kani=true&JigyosyoCd=2693300085-00&ServiceCd=730&Type=search", "url2": "http://www.oomiyaen.com" }, "geometry": { "type": "Point", "coordinates": [ 135.13336419999996, 35.5936983 ] } },
{ "type": "Feature", "properties": { "内容": "はごろも苑さかいの家【小規模多機能型居宅介護】京丹後市峰山町堺４４", "url": "https://www.kaigokensaku.mhlw.go.jp/26/index.php?action_kouhyou_detail_004_kani=true&JigyosyoCd=2693300127-00&ServiceCd=730&Type=search", "url2": "http://www.mineyama-fukusikai.jp/index.htm" }, "geometry": { "type": "Point", "coordinates": [ 135.055565605418451, 35.623745456967896 ] } },
{ "type": "Feature", "properties": { "内容": "はぎの里ふれあいホーム【小規模多機能型居宅介護】京都府南丹市日吉町田原殿垣内５４番地", "url": "https://www.kaigokensaku.mhlw.go.jp/26/index.php?action_kouhyou_detail_004_kani=true&JigyosyoCd=2693400018-00&ServiceCd=730&Type=search", "url2": "http://www.cans.zaq.ne.jp/haginosato" }, "geometry": { "type": "Point", "coordinates": [ 135.521295900000041, 35.1961751 ] } },
{ "type": "Feature", "properties": { "内容": "小規模多機能ホームだんない【小規模多機能型居宅介護】京都府南丹市園部町内林町4号54番地", "url": "https://www.kaigokensaku.mhlw.go.jp/26/index.php?action_kouhyou_detail_004_kani=true&JigyosyoCd=2693400034-00&ServiceCd=730&Type=search", "url2": "http://care-net.biz/26/area2sonobe/#dannai" }, "geometry": { "type": "Point", "coordinates": [ 135.476804054769872, 35.118963705986118 ] } },
{ "type": "Feature", "properties": { "内容": "知井ふれあいホーム　ひだまり【小規模多機能型居宅介護】京都府南丹市美山町中勘定10番地", "url": "https://www.kaigokensaku.mhlw.go.jp/26/index.php?action_kouhyou_detail_004_kani=true&JigyosyoCd=2693400091-00&ServiceCd=730&Type=search", "url2": "chiiday@hokusoukai.com" }, "geometry": { "type": "Point", "coordinates": [ 135.6446305, 35.3132381 ] } },
{ "type": "Feature", "properties": { "内容": "小規模多機能型居宅介護涌出ぬくもりの里【小規模多機能型居宅介護】京都府木津川市山城町平尾里屋敷69-4", "url": "https://www.kaigokensaku.mhlw.go.jp/26/index.php?action_kouhyou_detail_004_kani=true&JigyosyoCd=2693500056-00&ServiceCd=730&Type=search", "url2": "www.s-rakji.com" }, "geometry": { "type": "Point", "coordinates": [ 135.817555700000014, 34.7746945 ] } },
{ "type": "Feature", "properties": { "内容": "小規模多機能居宅介護西木津ぬくもりの里【小規模多機能型居宅介護】京都府木津川市木津南後背３０番地５", "url": "https://www.kaigokensaku.mhlw.go.jp/26/index.php?action_kouhyou_detail_004_kani=true&JigyosyoCd=2693500064-00&ServiceCd=730&Type=search", "url2": "http://www.s-rakuji.com" }, "geometry": { "type": "Point", "coordinates": [ 135.808549199999987, 34.7379847 ] } },
{ "type": "Feature", "properties": { "内容": "小規模多機能型居宅介護加茂ぬくもりの里【小規模多機能型居宅介護】京都府木津川市加茂町里宇留志40番地", "url": "https://www.kaigokensaku.mhlw.go.jp/26/index.php?action_kouhyou_detail_004_kani=true&JigyosyoCd=2693500072-00&ServiceCd=730&Type=search", "url2": "https://s-rakuji.com/" }, "geometry": { "type": "Point", "coordinates": [ 135.8662529, 34.7555584 ] } },
{ "type": "Feature", "properties": { "内容": "医療法人啓信会　小規模多機能ホーム　リエゾン久御山ひしの里【小規模多機能型居宅介護】京都府久世郡久御山町佐古内屋敷９１－５", "url": "https://www.kaigokensaku.mhlw.go.jp/26/index.php?action_kouhyou_detail_004_kani=true&JigyosyoCd=2691100024-00&ServiceCd=730&Type=search", "url2": "http://www.kyoto-keishinkai.or.jp/rouken_hishinosato/index.html" }, "geometry": { "type": "Point", "coordinates": [ 135.753809, 34.8788917 ] } },
{ "type": "Feature", "properties": { "内容": "医療法人八仁会　ケアリビングくみやま【小規模多機能型居宅介護】久御山町島田堤外３１－２４", "url": "https://www.kaigokensaku.mhlw.go.jp/26/index.php?action_kouhyou_detail_004_kani=true&JigyosyoCd=2691100016-00&ServiceCd=730&Type=search", "url2": "http://www.kumiyama-minamihp.or.jp/busyo.html" }, "geometry": { "type": "Point", "coordinates": [ 135.734176599999955, 34.8828412 ] } },
{ "type": "Feature", "properties": { "内容": "小規模多機能型居宅介護　花笑み【小規模多機能型居宅介護】京都府相楽郡精華町光台7丁目１１－３地域ケアセンター花笑み", "url": "https://www.kaigokensaku.mhlw.go.jp/26/index.php?action_kouhyou_detail_004_kani=true&JigyosyoCd=2691400044-00&ServiceCd=730&Type=search", "url2": "http://kami-home.jp/" }, "geometry": { "type": "Point", "coordinates": [ 135.757294399999978, 34.7419107 ] } },
{ "type": "Feature", "properties": { "内容": "下狛ふれあいの家【小規模多機能型居宅介護】京都府相楽郡精華町下狛清神前42", "url": "https://www.kaigokensaku.mhlw.go.jp/26/index.php?action_kouhyou_detail_004_kani=true&JigyosyoCd=2691400028-00&ServiceCd=730&Type=search", "url2": "http://kami-home.jp/" }, "geometry": { "type": "Point", "coordinates": [ 135.788126899999952, 34.7759707 ] } },
{ "type": "Feature", "properties": { "内容": "小規模多機能居宅介護事業所　ひまわりの里【小規模多機能型居宅介護】京都府船井郡京丹波町高岡西ケ坪51－１ひまわりの里", "url": "https://www.kaigokensaku.mhlw.go.jp/26/index.php?action_kouhyou_detail_004_kani=true&JigyosyoCd=2691500066-00&ServiceCd=730&Type=search", "url2": "https://www.himawarikaigo.net" }, "geometry": { "type": "Point", "coordinates": [ 135.409803900000014, 35.1364022 ] } },
{ "type": "Feature", "properties": { "内容": "おきなぎの家【小規模多機能型居宅介護】京都府与謝郡伊根町字平田151-1", "url": "https://www.kaigokensaku.mhlw.go.jp/26/index.php?action_kouhyou_detail_004_kani=true&JigyosyoCd=2692000058-00&ServiceCd=730&Type=search", "url2": "https://yosagun-fukushikai.net/" }, "geometry": { "type": "Point", "coordinates": [ 135.287482700000027, 35.6768794 ] } },
{ "type": "Feature", "properties": { "内容": "ユメライフはしだて【小規模多機能型居宅介護】京都府与謝郡与謝野町字岩滝９０１番１", "url": "https://www.kaigokensaku.mhlw.go.jp/26/index.php?action_kouhyou_detail_004_kani=true&JigyosyoCd=2692000066-00&ServiceCd=730&Type=search", "url2": null }, "geometry": { "type": "Point", "coordinates": [ 135.150752499999953, 35.5690583 ] } },
{ "type": "Feature", "properties": { "内容": "ふれあいホーム神宮寺【小規模多機能型居宅介護】京都府与謝郡与謝野町字石川小字姫路谷2376番地", "url": "https://www.kaigokensaku.mhlw.go.jp/26/index.php?action_kouhyou_detail_004_kani=true&JigyosyoCd=2692000025-00&ServiceCd=730&Type=search", "url2": "http://yofuku.or.jp/nijigaoka" }, "geometry": { "type": "Point", "coordinates": [ 135.127382076632756, 35.534577724014966 ] } },
{ "type": "Feature", "properties": { "内容": "みんなのうち加悦奥【小規模多機能型居宅介護】京都府与謝郡与謝野町字加悦奥138-3", "url": "https://www.kaigokensaku.mhlw.go.jp/26/index.php?action_kouhyou_detail_004_kani=true&JigyosyoCd=2692000116-00&ServiceCd=730&Type=search", "url2": "https://tangofukushi-ouendan.wixsite.com/ouendan" }, "geometry": { "type": "Point", "coordinates": [ 135.087042666270435, 35.50562303015807 ] } },
{ "type": "Feature", "properties": { "内容": "みんなのうち後野【小規模多機能型居宅介護】京都府与謝郡与謝野町字後野542-6", "url": "https://www.kaigokensaku.mhlw.go.jp/26/index.php?action_kouhyou_detail_004_kani=true&JigyosyoCd=2692000124-00&ServiceCd=730&Type=search", "url2": "https://tangofukushi-ouendan.wixsite.com/ouendan" }, "geometry": { "type": "Point", "coordinates": [ 135.0948905, 35.4986309 ] } }
]
}
