{
"type": "FeatureCollection",
"name": "geo_26_訪問リハビリテーション",
"crs": { "type": "name", "properties": { "name": "urn:ogc:def:crs:OGC:1.3:CRS84" } },
"features": [
{ "type": "Feature", "properties": { "内容": "医療法人財団康生会　北山武田病院【訪問リハビリテーション】京都府京都市北区上賀茂岩ヶ垣内町９９番地", "url": "https://www.kaigokensaku.mhlw.go.jp/26/index.php?action_kouhyou_detail_004_kani=true&JigyosyoCd=2610105062-00&ServiceCd=140&Type=search", "url2": "http://www.takedahp.or.jp" }, "geometry": { "type": "Point", "coordinates": [ 135.7667232, 35.0525135 ] } },
{ "type": "Feature", "properties": { "内容": "医療法人　大友整形外科【訪問リハビリテーション】鞍馬口通室町西入小山町220", "url": "https://www.kaigokensaku.mhlw.go.jp/26/index.php?action_kouhyou_detail_004_kani=true&JigyosyoCd=2610104917-00&ServiceCd=140&Type=search", "url2": "otomoseikei.com" }, "geometry": { "type": "Point", "coordinates": [ 135.7579782, 35.0379216 ] } },
{ "type": "Feature", "properties": { "内容": "社会福祉法人　京都博愛会　冨田病院【訪問リハビリテーション】京都市北区下内河原町56", "url": "https://www.kaigokensaku.mhlw.go.jp/26/index.php?action_kouhyou_detail_004_kani=true&JigyosyoCd=2610101806-00&ServiceCd=140&Type=search", "url2": "https://www.kyoto-hakuaikai.or.jp/tomita/" }, "geometry": { "type": "Point", "coordinates": [ 135.760894095269521, 35.044801633768834 ] } },
{ "type": "Feature", "properties": { "内容": "医療法人葵会　上賀茂診療所【訪問リハビリテーション】京都府京都市北区上賀茂藤ノ木町21番地", "url": "https://www.kaigokensaku.mhlw.go.jp/26/index.php?action_kouhyou_detail_004_kani=true&JigyosyoCd=2610103315-00&ServiceCd=140&Type=search", "url2": "https://kamigamo.aoikai.net/" }, "geometry": { "type": "Point", "coordinates": [ 135.755769, 35.0579033 ] } },
{ "type": "Feature", "properties": { "内容": "医療法人社団都会渡辺西賀茂診療所【訪問リハビリテーション】大宮南田尻町59番地", "url": "https://www.kaigokensaku.mhlw.go.jp/26/index.php?action_kouhyou_detail_004_kani=true&JigyosyoCd=2610105278-00&ServiceCd=140&Type=search", "url2": "https://www.miyakokai-kyoto.com" }, "geometry": { "type": "Point", "coordinates": [ 135.749588499999959, 35.0571732 ] } },
{ "type": "Feature", "properties": { "内容": "介護老人保健施設ライブリィきぬかけ【訪問リハビリテーション】京都市北区大北山原谷乾町１２７－１", "url": "https://www.kaigokensaku.mhlw.go.jp/26/index.php?action_kouhyou_detail_004_kani=true&JigyosyoCd=2650180017-00&ServiceCd=140&Type=search", "url2": "http://www.nananokai.com/" }, "geometry": { "type": "Point", "coordinates": [ 135.71878849999996, 35.0443629 ] } },
{ "type": "Feature", "properties": { "内容": "介護老人保健施設「がくさい」【訪問リハビリテーション】京都府京都市北区鷹峯土天井町54", "url": "https://www.kaigokensaku.mhlw.go.jp/26/index.php?action_kouhyou_detail_004_kani=true&JigyosyoCd=2650180025-00&ServiceCd=140&Type=search", "url2": "https://gakusai.or.jp/rouken" }, "geometry": { "type": "Point", "coordinates": [ 135.731976567459128, 35.052666156441994 ] } },
{ "type": "Feature", "properties": { "内容": "京都博愛会病院（訪問リハビリテーション事業所）【訪問リハビリテーション】京都市北区上賀茂ケシ山1番地", "url": "https://www.kaigokensaku.mhlw.go.jp/26/index.php?action_kouhyou_detail_004_kani=true&JigyosyoCd=2610100964-00&ServiceCd=140&Type=search", "url2": "http://www.kyoto-hakuaikai.or.jp" }, "geometry": { "type": "Point", "coordinates": [ 135.771631919851643, 35.060216157721115 ] } },
{ "type": "Feature", "properties": { "内容": "医療法人整形外科鈴木医院【訪問リハビリテーション】京都府京都市北区大宮西小野堀町5", "url": "https://www.kaigokensaku.mhlw.go.jp/26/index.php?action_kouhyou_detail_004_kani=true&JigyosyoCd=2610104339-00&ServiceCd=140&Type=search", "url2": "http://suzukiseikei.com" }, "geometry": { "type": "Point", "coordinates": [ 135.743500199999971, 35.0568621 ] } },
{ "type": "Feature", "properties": { "内容": "医療法人　梁山会診療所【訪問リハビリテーション】京都府京都市北区大将軍西町163", "url": "https://www.kaigokensaku.mhlw.go.jp/26/index.php?action_kouhyou_detail_004_kani=true&JigyosyoCd=2610105310-00&ServiceCd=140&Type=search", "url2": "http://www.kyoto-reha.jp" }, "geometry": { "type": "Point", "coordinates": [ 135.731301600000052, 35.024365 ] } },
{ "type": "Feature", "properties": { "内容": "社会医療法人西陣健康会堀川病院【訪問リハビリテーション】京都府京都市上京区堀川通今出川上る北船橋町８６５番地", "url": "https://www.kaigokensaku.mhlw.go.jp/26/index.php?action_kouhyou_detail_004_kani=true&JigyosyoCd=2610200251-00&ServiceCd=140&Type=search", "url2": "http://www.horikawa-ho.or.jp/" }, "geometry": { "type": "Point", "coordinates": [ 135.733159900000032, 35.0207237 ] } },
{ "type": "Feature", "properties": { "内容": "医療法人　相馬病院　訪問リハビリセンター【訪問リハビリテーション】京都市上京区今小路通御前通東入西今小路町797番地上京老人デイサービスセンター　2階", "url": "https://www.kaigokensaku.mhlw.go.jp/26/index.php?action_kouhyou_detail_004_kani=true&JigyosyoCd=2610200780-00&ServiceCd=140&Type=search", "url2": "http//www.sohma-hp.or.jp/" }, "geometry": { "type": "Point", "coordinates": [ 135.737012992659771, 35.028214887834203 ] } },
{ "type": "Feature", "properties": { "内容": "クリニックほりかわ【訪問リハビリテーション】京都府京都市上京区今出川上る北舟橋町845", "url": "https://www.kaigokensaku.mhlw.go.jp/26/index.php?action_kouhyou_detail_004_kani=true&JigyosyoCd=2610204121-00&ServiceCd=140&Type=search", "url2": "http://www.horikawa-hp.or.jp/hospitalization/clinic.html" }, "geometry": { "type": "Point", "coordinates": [ 135.7522357, 35.0310789 ] } },
{ "type": "Feature", "properties": { "内容": "上京診療所【訪問リハビリテーション】京都市上京区千本通寺之内下ル花車町482番地の2", "url": "https://www.kaigokensaku.mhlw.go.jp/26/index.php?action_kouhyou_detail_004_kani=true&JigyosyoCd=2610204741-00&ServiceCd=140&Type=search", "url2": "https://kyoto-hokenkai.or.jp/kamigyo/" }, "geometry": { "type": "Point", "coordinates": [ 135.741864949676483, 35.033550390844724 ] } },
{ "type": "Feature", "properties": { "内容": "医療法人　敬幸会　垣田医院　訪問リハビリテーション【訪問リハビリテーション】智恵光院通中立売下ル山里町238－8", "url": "https://www.kaigokensaku.mhlw.go.jp/26/index.php?action_kouhyou_detail_004_kani=true&JigyosyoCd=2610203388-00&ServiceCd=140&Type=search", "url2": "http://www.kakitaclinic.com/" }, "geometry": { "type": "Point", "coordinates": [ 135.746894699999984, 35.0238017 ] } },
{ "type": "Feature", "properties": { "内容": "医療法人寿尚会洛陽病院【訪問リハビリテーション】京都市左京区岩倉上蔵町143", "url": "https://www.kaigokensaku.mhlw.go.jp/26/index.php?action_kouhyou_detail_004_kani=true&JigyosyoCd=2610600849-00&ServiceCd=140&Type=search", "url2": "http://www.rakuyohp.or.jp" }, "geometry": { "type": "Point", "coordinates": [ 135.7836964, 35.079172 ] } },
{ "type": "Feature", "properties": { "内容": "おくだ在宅クリニック【訪問リハビリテーション】京都市左京区一乗寺青城町１１５", "url": "https://www.kaigokensaku.mhlw.go.jp/26/index.php?action_kouhyou_detail_004_kani=true&JigyosyoCd=2610607356-00&ServiceCd=140&Type=search", "url2": null }, "geometry": { "type": "Point", "coordinates": [ 135.789479939425604, 35.045862977719644 ] } },
{ "type": "Feature", "properties": { "内容": "友々苑　訪問リハビリテーション【訪問リハビリテーション】京都市左京区静市市原町447-1", "url": "https://www.kaigokensaku.mhlw.go.jp/26/index.php?action_kouhyou_detail_004_kani=true&JigyosyoCd=2650680040-00&ServiceCd=140&Type=search", "url2": "http://www.yuyuen.or.jp/index.html" }, "geometry": { "type": "Point", "coordinates": [ 135.75624629999993, 35.0835007 ] } },
{ "type": "Feature", "properties": { "内容": "医療法人天翔会　上田リハビリテーション診療所【訪問リハビリテーション】京都府京都市左京区岡崎徳成町20-6", "url": "https://www.kaigokensaku.mhlw.go.jp/26/index.php?action_kouhyou_detail_004_kani=true&JigyosyoCd=2610606945-00&ServiceCd=140&Type=search", "url2": "http://www.kyoto-reha.jp" }, "geometry": { "type": "Point", "coordinates": [ 135.778625700000021, 35.015086 ] } },
{ "type": "Feature", "properties": { "内容": "医療法人社団神野医院　くまのクリニック【訪問リハビリテーション】京都市左京区聖護院川原町３３番地３神野メディカルビル", "url": "https://www.kaigokensaku.mhlw.go.jp/26/index.php?action_kouhyou_detail_004_kani=true&JigyosyoCd=2610607331-00&ServiceCd=140&Type=search", "url2": "http://www.jinno-mg.or.jp" }, "geometry": { "type": "Point", "coordinates": [ 135.777650699999981, 35.018383 ] } },
{ "type": "Feature", "properties": { "内容": "訪問リハビリテーション事業所きたおおじ【訪問リハビリテーション】京都府京都市左京区一乗寺西水干町25番地2", "url": "https://www.kaigokensaku.mhlw.go.jp/26/index.php?action_kouhyou_detail_004_kani=true&JigyosyoCd=2610607380-00&ServiceCd=140&Type=search", "url2": "https://ksmcs.jp/kitaoji/" }, "geometry": { "type": "Point", "coordinates": [ 135.786508300000037, 35.0388533 ] } },
{ "type": "Feature", "properties": { "内容": "医療法人稲門会　介護老人保健施設　フェアウインドきの　訪問リハビリテーション【訪問リハビリテーション】京都府京都市左京区岩倉幡枝町2250", "url": "https://www.kaigokensaku.mhlw.go.jp/26/index.php?action_kouhyou_detail_004_kani=true&JigyosyoCd=2650680081-00&ServiceCd=140&Type=search", "url2": "http://www.toumonkai.net/" }, "geometry": { "type": "Point", "coordinates": [ 135.773630899999944, 35.0654806 ] } },
{ "type": "Feature", "properties": { "内容": "日本バプテスト病院【訪問リハビリテーション】京都市左京区北白川山ノ元町47", "url": "https://www.kaigokensaku.mhlw.go.jp/26/index.php?action_kouhyou_detail_004_kani=true&JigyosyoCd=2610600294-00&ServiceCd=140&Type=search", "url2": "https://www.jbh.or.jp/" }, "geometry": { "type": "Point", "coordinates": [ 135.795974, 35.0340677 ] } },
{ "type": "Feature", "properties": { "内容": "京都民医連あすかい病院【訪問リハビリテーション】田中飛鳥井町89", "url": "https://www.kaigokensaku.mhlw.go.jp/26/index.php?action_kouhyou_detail_004_kani=true&JigyosyoCd=2610601342-00&ServiceCd=140&Type=search", "url2": "http://www.shinwakai-min.com/kyoto2hp/" }, "geometry": { "type": "Point", "coordinates": [ 135.7809254, 35.0318484 ] } },
{ "type": "Feature", "properties": { "内容": "京都大原記念病院　訪問リハビリテーション事業所【訪問リハビリテーション】京都府京都市左京区大原戸寺町334番地1", "url": "https://www.kaigokensaku.mhlw.go.jp/26/index.php?action_kouhyou_detail_004_kani=true&JigyosyoCd=2610605079-00&ServiceCd=140&Type=search", "url2": "https://kyotoohara.jp/visit/" }, "geometry": { "type": "Point", "coordinates": [ 135.821818900000011, 35.1044775 ] } },
{ "type": "Feature", "properties": { "内容": "大原在宅診療所【訪問リハビリテーション】下鴨西林町6上文堂ビル", "url": "https://www.kaigokensaku.mhlw.go.jp/26/index.php?action_kouhyou_detail_004_kani=true&JigyosyoCd=2610606739-00&ServiceCd=140&Type=search", "url2": "http://www.kyotoohara.jp/" }, "geometry": { "type": "Point", "coordinates": [ 135.770710799999989, 35.0392337 ] } },
{ "type": "Feature", "properties": { "内容": "京都近衛リハビリテーション病院　訪問リハビリテーション事業所【訪問リハビリテーション】左京区吉田近衛町26番地", "url": "https://www.kaigokensaku.mhlw.go.jp/26/index.php?action_kouhyou_detail_004_kani=true&JigyosyoCd=2610608040-00&ServiceCd=140&Type=search", "url2": "https://kyoto-konoe.jp/visit/" }, "geometry": { "type": "Point", "coordinates": [ 135.778834174868763, 35.021281315842529 ] } },
{ "type": "Feature", "properties": { "内容": "介護老人保健施設　しずはうす訪問リハビリテーション【訪問リハビリテーション】京都市左京区静市静原町５４８", "url": "https://www.kaigokensaku.mhlw.go.jp/26/index.php?action_kouhyou_detail_004_kani=true&JigyosyoCd=2650680032-00&ServiceCd=140&Type=search", "url2": "http://www.toumonkai.net/" }, "geometry": { "type": "Point", "coordinates": [ 135.779902399999969, 35.1034372 ] } },
{ "type": "Feature", "properties": { "内容": "医療法人三幸会　介護老人保健施設紫雲苑【訪問リハビリテーション】京都府京都市左京区岩倉上蔵町303番地", "url": "https://www.kaigokensaku.mhlw.go.jp/26/index.php?action_kouhyou_detail_004_kani=true&JigyosyoCd=2650680024-00&ServiceCd=140&Type=search", "url2": "http://www.sankokai.jp/" }, "geometry": { "type": "Point", "coordinates": [ 135.780827400000021, 35.0800955 ] } },
{ "type": "Feature", "properties": { "内容": "訪問リハビリテーション「がくさい」【訪問リハビリテーション】壬生東高田町1番９", "url": "https://www.kaigokensaku.mhlw.go.jp/26/index.php?action_kouhyou_detail_004_kani=true&JigyosyoCd=2610308609-00&ServiceCd=140&Type=search", "url2": null }, "geometry": { "type": "Point", "coordinates": [ 135.735224099999982, 34.9983703 ] } },
{ "type": "Feature", "properties": { "内容": "洛和ヴィライリオス【訪問リハビリテーション】京都府京都市中京区聚楽廻西町186", "url": "https://www.kaigokensaku.mhlw.go.jp/26/index.php?action_kouhyou_detail_004_kani=true&JigyosyoCd=2650380013-00&ServiceCd=140&Type=search", "url2": "http://www.rakuwa.or.jp" }, "geometry": { "type": "Point", "coordinates": [ 135.7394706, 35.0173381 ] } },
{ "type": "Feature", "properties": { "内容": "かみうち内科クリニック【訪問リハビリテーション】京都府京都市中京区西ノ京星池町222", "url": "https://www.kaigokensaku.mhlw.go.jp/26/index.php?action_kouhyou_detail_004_kani=true&JigyosyoCd=2610309193-00&ServiceCd=140&Type=search", "url2": "https://kamiuchidm-clinic.com" }, "geometry": { "type": "Point", "coordinates": [ 135.7410969, 35.0126409 ] } },
{ "type": "Feature", "properties": { "内容": "医療法人七生会辻医院訪問リハビリ【訪問リハビリテーション】京都市中京区東洞院通錦小路下る阪東屋町657-4", "url": "https://www.kaigokensaku.mhlw.go.jp/26/index.php?action_kouhyou_detail_004_kani=true&JigyosyoCd=2610309045-00&ServiceCd=140&Type=search", "url2": "http://nakagyozaitaku.com" }, "geometry": { "type": "Point", "coordinates": [ 135.7611968, 35.0046019 ] } },
{ "type": "Feature", "properties": { "内容": "訪問リハビリテーション　クリニック回生【訪問リハビリテーション】京都府京都市中京区御幸町通錦小路上ル船屋町３８２番地", "url": "https://www.kaigokensaku.mhlw.go.jp/26/index.php?action_kouhyou_detail_004_kani=true&JigyosyoCd=2610300705-00&ServiceCd=140&Type=search", "url2": "http://www.kaiseikai.or.jp" }, "geometry": { "type": "Point", "coordinates": [ 135.766143433014349, 35.005556819944424 ] } },
{ "type": "Feature", "properties": { "内容": "医療法人　清仁会　シミズ四条大宮クリニック【訪問リハビリテーション】京都市中京区壬生賀陽御所町３－１京都幸ビル１階", "url": "https://www.kaigokensaku.mhlw.go.jp/26/index.php?action_kouhyou_detail_004_kani=true&JigyosyoCd=2610306868-00&ServiceCd=140&Type=search", "url2": "http://www.shimizu-hospital.or.jp" }, "geometry": { "type": "Point", "coordinates": [ 135.746398099999965, 35.003409 ] } },
{ "type": "Feature", "properties": { "内容": "公益社団法人京都保健会　京都民医連太子道診療所【訪問リハビリテーション】西ノ京小堀池町１８番地１", "url": "https://www.kaigokensaku.mhlw.go.jp/26/index.php?action_kouhyou_detail_004_kani=true&JigyosyoCd=2610307411-00&ServiceCd=140&Type=search", "url2": "https://taishimichi.jp/" }, "geometry": { "type": "Point", "coordinates": [ 135.726016671163961, 35.014449995995982 ] } },
{ "type": "Feature", "properties": { "内容": "御所南リハビリテーションクリニック　訪問リハビリテーション事業所【訪問リハビリテーション】京都市中京区桝屋町327（富小路通丸太町下る）", "url": "https://www.kaigokensaku.mhlw.go.jp/26/index.php?action_kouhyou_detail_004_kani=true&JigyosyoCd=2610308559-00&ServiceCd=140&Type=search", "url2": "http://www.kyotoohara.jp/goshominami/" }, "geometry": { "type": "Point", "coordinates": [ 135.765121200000067, 35.0165692 ] } },
{ "type": "Feature", "properties": { "内容": "医療法人社団洛和会　洛和会丸太町病院【訪問リハビリテーション】京都府京都市中京区聚楽廻松下町9番7", "url": "https://www.kaigokensaku.mhlw.go.jp/26/index.php?action_kouhyou_detail_004_kani=true&JigyosyoCd=2610308625-00&ServiceCd=140&Type=search", "url2": "http://www.rakuwa.or.jp/maruta/shinryoka/co_reha/houmon.html" }, "geometry": { "type": "Point", "coordinates": [ 135.7389872, 35.0188519 ] } },
{ "type": "Feature", "properties": { "内容": "京都新町病院（訪問リハビリテーション事業所）【訪問リハビリテーション】京都府京都市中京区六角通新町西入西六角町１０９", "url": "https://www.kaigokensaku.mhlw.go.jp/26/index.php?action_kouhyou_detail_004_kani=true&JigyosyoCd=2610309623-00&ServiceCd=140&Type=search", "url2": "https://www.kyoto-shinmachi-hp.jp/" }, "geometry": { "type": "Point", "coordinates": [ 135.756123300000013, 35.0068085 ] } },
{ "type": "Feature", "properties": { "内容": "介護老人保健施設西の京訪問リハビリテーション【訪問リハビリテーション】京都府京都市中京区西ノ京小堀池町16番地", "url": "https://www.kaigokensaku.mhlw.go.jp/26/index.php?action_kouhyou_detail_004_kani=true&JigyosyoCd=2650380021-00&ServiceCd=140&Type=search", "url2": "http://www.hoken-fukushi.or.jp" }, "geometry": { "type": "Point", "coordinates": [ 135.7263437, 35.0144468 ] } },
{ "type": "Feature", "properties": { "内容": "医療法人原田病院【訪問リハビリテーション】大和大路通七条下ル西之門町546-2", "url": "https://www.kaigokensaku.mhlw.go.jp/26/index.php?action_kouhyou_detail_004_kani=true&JigyosyoCd=2610804482-00&ServiceCd=140&Type=search", "url2": "https://harada-hp.com/" }, "geometry": { "type": "Point", "coordinates": [ 135.7706671, 34.9885049 ] } },
{ "type": "Feature", "properties": { "内容": "医療法人社団育生会　京都久野病院【訪問リハビリテーション】京都市東山区本町22丁目500番地", "url": "https://www.kaigokensaku.mhlw.go.jp/26/index.php?action_kouhyou_detail_004_kani=true&JigyosyoCd=2610803401-00&ServiceCd=140&Type=search", "url2": "http://www.kuno-hospital.or.jp" }, "geometry": { "type": "Point", "coordinates": [ 135.77053223558201, 34.970678858492057 ] } },
{ "type": "Feature", "properties": { "内容": "こうえきしゃだんほうしん　しんわかい　ひがしやましんりょうじょ　ほうもんりはびりてーしょん【訪問リハビリテーション】京都府京都市東山区今熊野宝蔵町43東山診療所　2階", "url": "https://www.kaigokensaku.mhlw.go.jp/26/index.php?action_kouhyou_detail_004_kani=true&JigyosyoCd=2610804599-00&ServiceCd=140&Type=search", "url2": "https://shinwakai-min.com/higashiyama/" }, "geometry": { "type": "Point", "coordinates": [ 135.775254925760294, 34.984547495103818 ] } },
{ "type": "Feature", "properties": { "内容": "医療法人　健康会　内浜診療所【訪問リハビリテーション】京都市下京区七条通河原町東入材木町460", "url": "https://www.kaigokensaku.mhlw.go.jp/26/index.php?action_kouhyou_detail_004_kani=true&JigyosyoCd=2610402196-00&ServiceCd=140&Type=search", "url2": "http://www.kyotominami.or.jp/" }, "geometry": { "type": "Point", "coordinates": [ 135.7555334, 34.9876552 ] } },
{ "type": "Feature", "properties": { "内容": "介護老人保健施設　ぬくもりの里【訪問リハビリテーション】京都府京都市下京区七条御所ノ内西町68番地", "url": "https://www.kaigokensaku.mhlw.go.jp/26/index.php?action_kouhyou_detail_004_kani=true&JigyosyoCd=2650480029-00&ServiceCd=140&Type=search", "url2": "http://www.kyotominami.or.jp" }, "geometry": { "type": "Point", "coordinates": [ 135.7274874, 34.9873392 ] } },
{ "type": "Feature", "properties": { "内容": "木津屋橋武田クリニック【訪問リハビリテーション】油小路通下魚棚下ル油小路町２９３番地", "url": "https://www.kaigokensaku.mhlw.go.jp/26/index.php?action_kouhyou_detail_004_kani=true&JigyosyoCd=2610407419-00&ServiceCd=140&Type=search", "url2": "https://www.takedahp.or.jp/" }, "geometry": { "type": "Point", "coordinates": [ 135.754026399999987, 34.9886311 ] } },
{ "type": "Feature", "properties": { "内容": "医療法人愛友会　明石病院【訪問リハビリテーション】京都市下京区西七条南衣田町93", "url": "https://www.kaigokensaku.mhlw.go.jp/26/index.php?action_kouhyou_detail_004_kani=true&JigyosyoCd=2610403616-00&ServiceCd=140&Type=search", "url2": "http://www.iyukai.or.jp" }, "geometry": { "type": "Point", "coordinates": [ 135.732757699999979, 34.988535 ] } },
{ "type": "Feature", "properties": { "内容": "医療法人　回生会　訪問リハビリテーションかいせい【訪問リハビリテーション】京都市下京区中堂寺庄ノ内町１－１８１", "url": "https://www.kaigokensaku.mhlw.go.jp/26/index.php?action_kouhyou_detail_004_kani=true&JigyosyoCd=2610400539-00&ServiceCd=140&Type=search", "url2": "http://www.kaiseikai.or.jp" }, "geometry": { "type": "Point", "coordinates": [ 135.739162200000038, 34.9981535 ] } },
{ "type": "Feature", "properties": { "内容": "社会医療法人健康会　京都南病院【訪問リハビリテーション】京都市下京区西七条南中野町8", "url": "https://www.kaigokensaku.mhlw.go.jp/26/index.php?action_kouhyou_detail_004_kani=true&JigyosyoCd=2610402832-00&ServiceCd=140&Type=search", "url2": "http://www.kyotominami.or.jp/" }, "geometry": { "type": "Point", "coordinates": [ 135.735182264417972, 34.98905574132128 ] } },
{ "type": "Feature", "properties": { "内容": "社会医療法人健康会　第二南診療所【訪問リハビリテーション】京都市下京区東中筋通花屋町下ル柳町332", "url": "https://www.kaigokensaku.mhlw.go.jp/26/index.php?action_kouhyou_detail_004_kani=true&JigyosyoCd=2610404101-00&ServiceCd=140&Type=search", "url2": "http://www.kyotominami.or.jp" }, "geometry": { "type": "Point", "coordinates": [ 135.754373952778678, 34.991977226479072 ] } },
{ "type": "Feature", "properties": { "内容": "医療法人　川口内科医院　訪問リハビリテーション【訪問リハビリテーション】京都市下京区七条通り油小路東入る大黒町253番地", "url": "https://www.kaigokensaku.mhlw.go.jp/26/index.php?action_kouhyou_detail_004_kani=true&JigyosyoCd=2610405322-00&ServiceCd=140&Type=search", "url2": "https://kawaguchi-naika.jp/" }, "geometry": { "type": "Point", "coordinates": [ 135.7555334, 34.9876552 ] } },
{ "type": "Feature", "properties": { "内容": "医療法人社団恵心会　京都武田病院【訪問リハビリテーション】下京区西七条南衣田町11番地", "url": "https://www.kaigokensaku.mhlw.go.jp/26/index.php?action_kouhyou_detail_004_kani=true&JigyosyoCd=2610405843-00&ServiceCd=140&Type=search", "url2": "http://www.kyototakeda.jp" }, "geometry": { "type": "Point", "coordinates": [ 135.731032899999946, 34.988651600000011 ] } },
{ "type": "Feature", "properties": { "内容": "介護老人保健施設じゅんぷう　訪問リハビリテーション【訪問リハビリテーション】京都府京都市下京区西堀川通松原下る橋橘町1番地", "url": "https://www.kaigokensaku.mhlw.go.jp/26/index.php?action_kouhyou_detail_004_kani=true&JigyosyoCd=2650480037-00&ServiceCd=140&Type=search", "url2": "http://www.junepooh.com" }, "geometry": { "type": "Point", "coordinates": [ 135.7516913, 34.9986288 ] } },
{ "type": "Feature", "properties": { "内容": "医療法人同仁会（社団）　京都九条病院　訪問リハビリテーション【訪問リハビリテーション】京都市南区唐橋羅城門町10番地", "url": "https://www.kaigokensaku.mhlw.go.jp/26/index.php?action_kouhyou_detail_004_kani=true&JigyosyoCd=2610500205-00&ServiceCd=140&Type=search", "url2": "http://www.dojinkai.com" }, "geometry": { "type": "Point", "coordinates": [ 135.741147075224262, 34.978393219312416 ] } },
{ "type": "Feature", "properties": { "内容": "公益社団法人京都保健会吉祥院病院【訪問リハビリテーション】京都府京都市南区吉祥院井ノ口町43", "url": "https://www.kaigokensaku.mhlw.go.jp/26/index.php?action_kouhyou_detail_004_kani=true&JigyosyoCd=2610500916-00&ServiceCd=140&Type=search", "url2": "http://www.kissyouin-hp.org/index.html" }, "geometry": { "type": "Point", "coordinates": [ 135.7326491, 34.9763875 ] } },
{ "type": "Feature", "properties": { "内容": "医療法人財団医道会十条武田リハビリテーション病院【訪問リハビリテーション】京都府京都市南区吉祥院八反田町32番地", "url": "https://www.kaigokensaku.mhlw.go.jp/26/index.php?action_kouhyou_detail_004_kani=true&JigyosyoCd=2610501328-00&ServiceCd=140&Type=search", "url2": "http://www.takedahp.or.jp/" }, "geometry": { "type": "Point", "coordinates": [ 135.740990300000021, 34.9736282 ] } },
{ "type": "Feature", "properties": { "内容": "医療法人天翔会　第二上田リハビリテーション診療所【訪問リハビリテーション】京都府京都市南区唐橋堂ノ前町49-2", "url": "https://www.kaigokensaku.mhlw.go.jp/26/index.php?action_kouhyou_detail_004_kani=true&JigyosyoCd=2610503241-00&ServiceCd=140&Type=search", "url2": "http://www.kyoto-reha.jp" }, "geometry": { "type": "Point", "coordinates": [ 135.7391682, 34.97892490000001 ] } },
{ "type": "Feature", "properties": { "内容": "医療法人誠心会　池田整形外科クリニック　訪問リハビリテーション【訪問リハビリテーション】太秦一ノ井町31番地", "url": "https://www.kaigokensaku.mhlw.go.jp/26/index.php?action_kouhyou_detail_004_kani=true&JigyosyoCd=2610705796-00&ServiceCd=140&Type=search", "url2": "www.i-clinic.jp" }, "geometry": { "type": "Point", "coordinates": [ 135.7094085, 35.0164209 ] } },
{ "type": "Feature", "properties": { "内容": "医療法人社団　小室整形外科医院【訪問リハビリテーション】京都府京都市右京区嵯峨野開町２１", "url": "https://www.kaigokensaku.mhlw.go.jp/26/index.php?action_kouhyou_detail_004_kani=true&JigyosyoCd=2610704765-00&ServiceCd=140&Type=search", "url2": "http://www.komuro-clinic.com/" }, "geometry": { "type": "Point", "coordinates": [ 135.69671569999997, 35.0145642 ] } },
{ "type": "Feature", "properties": { "内容": "ケア・スポット梅津　訪問リハビリテーション【訪問リハビリテーション】京都府京都市右京区梅津尻溝町66-1", "url": "https://www.kaigokensaku.mhlw.go.jp/26/index.php?action_kouhyou_detail_004_kani=true&JigyosyoCd=2650780022-00&ServiceCd=140&Type=search", "url2": "http://carespotumezu.jimdo.com/" }, "geometry": { "type": "Point", "coordinates": [ 135.696158200000013, 35.000616900000011 ] } },
{ "type": "Feature", "properties": { "内容": "四方医院　訪問リハステーション【訪問リハビリテーション】梅津堤下町28", "url": "https://www.kaigokensaku.mhlw.go.jp/26/index.php?action_kouhyou_detail_004_kani=true&JigyosyoCd=2610707347-00&ServiceCd=140&Type=search", "url2": "https://www.shikata-iin.com" }, "geometry": { "type": "Point", "coordinates": [ 135.708493, 34.9999018 ] } },
{ "type": "Feature", "properties": { "内容": "一般財団法人仁風会　嵯峨野病院【訪問リハビリテーション】京都市右京区鳴滝宇多野谷９番地", "url": "https://www.kaigokensaku.mhlw.go.jp/26/index.php?action_kouhyou_detail_004_kani=true&JigyosyoCd=2610700235-00&ServiceCd=140&Type=search", "url2": "http://www.jinpukai.or.jp/" }, "geometry": { "type": "Point", "coordinates": [ 135.705903700000022, 35.0315808 ] } },
{ "type": "Feature", "properties": { "内容": "社会医療法人健康会　西京極診療所【訪問リハビリテーション】京都市右京区西京極佃田町17番地", "url": "https://www.kaigokensaku.mhlw.go.jp/26/index.php?action_kouhyou_detail_004_kani=true&JigyosyoCd=2610704260-00&ServiceCd=140&Type=search", "url2": "http://www.kyotominami.or.jp" }, "geometry": { "type": "Point", "coordinates": [ 135.727312455294879, 34.988881571829296 ] } },
{ "type": "Feature", "properties": { "内容": "内田病院　訪問リハビリテーション【訪問リハビリテーション】京都府京都市右京区梅津大縄場町6-9", "url": "https://www.kaigokensaku.mhlw.go.jp/26/index.php?action_kouhyou_detail_004_kani=true&JigyosyoCd=2610706182-00&ServiceCd=140&Type=search", "url2": "http://www.uchida-hospital.jp/" }, "geometry": { "type": "Point", "coordinates": [ 135.691093599999988, 35.0015495 ] } },
{ "type": "Feature", "properties": { "内容": "社会医療法人太秦病院附属うずまさ診療所　指定訪問リハビリテーション事業所【訪問リハビリテーション】京都市右京区太秦帷子ヶ辻町30番地4", "url": "https://www.kaigokensaku.mhlw.go.jp/26/index.php?action_kouhyou_detail_004_kani=true&JigyosyoCd=2610706976-00&ServiceCd=140&Type=search", "url2": "http://www.uzumasa-hp.jp/" }, "geometry": { "type": "Point", "coordinates": [ 135.701686109262027, 35.015135500000021 ] } },
{ "type": "Feature", "properties": { "内容": "さいきょうクリニック訪問リハビリテーション【訪問リハビリテーション】西院北矢掛町39-1", "url": "https://www.kaigokensaku.mhlw.go.jp/26/index.php?action_kouhyou_detail_004_kani=true&JigyosyoCd=2610707156-00&ServiceCd=140&Type=search", "url2": "https://saikyo-clinic.com" }, "geometry": { "type": "Point", "coordinates": [ 135.7302264, 35.0020283 ] } },
{ "type": "Feature", "properties": { "内容": "介護老人保健施設マリアンヌ【訪問リハビリテーション】京都府京都市右京区梅津中倉町10", "url": "https://www.kaigokensaku.mhlw.go.jp/26/index.php?action_kouhyou_detail_004_kani=true&JigyosyoCd=2650780048-00&ServiceCd=140&Type=search", "url2": "http://www.kenshokai.group" }, "geometry": { "type": "Point", "coordinates": [ 135.692011399999956, 35.0025806 ] } },
{ "type": "Feature", "properties": { "内容": "京都府京都市伏見区深草正覚町２７番地【訪問リハビリテーション】京都市伏見区深草正覚町２７番地", "url": "https://www.kaigokensaku.mhlw.go.jp/26/index.php?action_kouhyou_detail_004_kani=true&JigyosyoCd=2610900389-00&ServiceCd=140&Type=search", "url2": "takedahp.or.jp/INARI/index.html" }, "geometry": { "type": "Point", "coordinates": [ 135.772537737434391, 34.973618824659781 ] } },
{ "type": "Feature", "properties": { "内容": "医療法人　健幸会　むかいじま病院【訪問リハビリテーション】京都府京都市伏見区向島四ツ谷池5番地", "url": "https://www.kaigokensaku.mhlw.go.jp/26/index.php?action_kouhyou_detail_004_kani=true&JigyosyoCd=2610907483-00&ServiceCd=140&Type=search", "url2": "http://mukaijima-hospital.or.jp/" }, "geometry": { "type": "Point", "coordinates": [ 135.7740856, 34.9210415 ] } },
{ "type": "Feature", "properties": { "内容": "特定医療法人　桃仁会　老人保健施設　桃寿苑【訪問リハビリテーション】京都府京都市伏見区向島津田町235‐1", "url": "https://www.kaigokensaku.mhlw.go.jp/26/index.php?action_kouhyou_detail_004_kani=true&JigyosyoCd=2650980036-00&ServiceCd=140&Type=search", "url2": "http://www.toujyuen.jp/" }, "geometry": { "type": "Point", "coordinates": [ 135.762381799999957, 34.9179121 ] } },
{ "type": "Feature", "properties": { "内容": "（社会福祉法人　浩照会）　伏見桃山総合病院【訪問リハビリテーション】京都府京都市伏見区下油掛町895", "url": "https://www.kaigokensaku.mhlw.go.jp/26/index.php?action_kouhyou_detail_004_kani=true&JigyosyoCd=2610907574-00&ServiceCd=140&Type=search", "url2": "https://www.ajisai-kosyokai.com" }, "geometry": { "type": "Point", "coordinates": [ 135.7589266, 34.9319549 ] } },
{ "type": "Feature", "properties": { "内容": "医療法人社団淀さんせん会　金井病院訪問リハビリテーション【訪問リハビリテーション】京都市伏見区淀木津町６１２－１２", "url": "https://www.kaigokensaku.mhlw.go.jp/26/index.php?action_kouhyou_detail_004_kani=true&JigyosyoCd=2610906766-00&ServiceCd=140&Type=search", "url2": "http://www.kanaihospital.jp" }, "geometry": { "type": "Point", "coordinates": [ 135.7154021, 34.9040466 ] } },
{ "type": "Feature", "properties": { "内容": "医）森田整形外科【訪問リハビリテーション】京都市伏見区醍醐鍵尾町12-1森田整形外科", "url": "https://www.kaigokensaku.mhlw.go.jp/26/index.php?action_kouhyou_detail_004_kani=true&JigyosyoCd=2610906519-00&ServiceCd=140&Type=search", "url2": null }, "geometry": { "type": "Point", "coordinates": [ 135.8089841, 34.9457491 ] } },
{ "type": "Feature", "properties": { "内容": "医療法人　松寿会　共和病院　訪問リハビリテーション【訪問リハビリテーション】京都府京都市伏見区醍醐川久保町30", "url": "https://www.kaigokensaku.mhlw.go.jp/26/index.php?action_kouhyou_detail_004_kani=true&JigyosyoCd=2610903995-00&ServiceCd=140&Type=search", "url2": "http://wwwkyowa-hp.jp" }, "geometry": { "type": "Point", "coordinates": [ 135.811391500000013, 34.955307 ] } },
{ "type": "Feature", "properties": { "内容": "さわい整形外科内科クリニック【訪問リハビリテーション】京都府京都市伏見区日野馬場出町9番地", "url": "https://www.kaigokensaku.mhlw.go.jp/26/index.php?action_kouhyou_detail_004_kani=true&JigyosyoCd=2610907673-00&ServiceCd=140&Type=search", "url2": "https://www.sawai-seikei.com/index.html" }, "geometry": { "type": "Point", "coordinates": [ 135.8139457, 34.9362 ] } },
{ "type": "Feature", "properties": { "内容": "醍醐の里　訪問リハビリテーション　絆【訪問リハビリテーション】京都府京都市伏見区醍醐内ヶ井戸19番地1", "url": "https://www.kaigokensaku.mhlw.go.jp/26/index.php?action_kouhyou_detail_004_kani=true&JigyosyoCd=2650980085-00&ServiceCd=140&Type=search", "url2": "http://www.daigonosato.or.jp/" }, "geometry": { "type": "Point", "coordinates": [ 135.823045800000045, 34.9636621 ] } },
{ "type": "Feature", "properties": { "内容": "洛和ヴィラウラノス訪問リハビリステーション【訪問リハビリテーション】京都市伏見区淀美豆町1133番地", "url": "https://www.kaigokensaku.mhlw.go.jp/26/index.php?action_kouhyou_detail_004_kani=true&JigyosyoCd=2650980143-00&ServiceCd=140&Type=search", "url2": "www.rakuwa@or.jp" }, "geometry": { "type": "Point", "coordinates": [ 135.706479699999988, 34.8956882 ] } },
{ "type": "Feature", "properties": { "内容": "医療法人高生会　高生会整形外科クリニック【訪問リハビリテーション】京都府京都市伏見区深草直違橋10-157-2", "url": "https://www.kaigokensaku.mhlw.go.jp/26/index.php?action_kouhyou_detail_004_kani=true&JigyosyoCd=2610906014-00&ServiceCd=140&Type=search", "url2": "http://i-kouseikai.com" }, "geometry": { "type": "Point", "coordinates": [ 135.770827899999972, 34.9648404 ] } },
{ "type": "Feature", "properties": { "内容": "医療法人　新生十全会　訪問リハビリテーション　なごみの里【訪問リハビリテーション】京都府京都市伏見区日野西風呂町５番地", "url": "https://www.kaigokensaku.mhlw.go.jp/26/index.php?action_kouhyou_detail_004_kani=true&JigyosyoCd=2610906352-00&ServiceCd=140&Type=search", "url2": null }, "geometry": { "type": "Point", "coordinates": [ 135.8124774, 34.9356883 ] } },
{ "type": "Feature", "properties": { "内容": "蘇生会総合病院【訪問リハビリテーション】下鳥羽広長町１０１番地", "url": "https://www.kaigokensaku.mhlw.go.jp/26/index.php?action_kouhyou_detail_004_kani=true&JigyosyoCd=2610903045-00&ServiceCd=140&Type=search", "url2": "http://www.soseikai.or.jp/" }, "geometry": { "type": "Point", "coordinates": [ 135.745483299999933, 34.9334574 ] } },
{ "type": "Feature", "properties": { "内容": "一般財団法人　仁風会　京都南西病院【訪問リハビリテーション】京都市伏見区久我東町8番地22", "url": "https://www.kaigokensaku.mhlw.go.jp/26/index.php?action_kouhyou_detail_004_kani=true&JigyosyoCd=2610904431-00&ServiceCd=140&Type=search", "url2": "http://www.jinpukai.or.jp" }, "geometry": { "type": "Point", "coordinates": [ 135.727246, 34.9343684 ] } },
{ "type": "Feature", "properties": { "内容": "社会医療法人健康会　伏見診療所【訪問リハビリテーション】京都市伏見区銀座3丁目318", "url": "https://www.kaigokensaku.mhlw.go.jp/26/index.php?action_kouhyou_detail_004_kani=true&JigyosyoCd=2610907525-00&ServiceCd=140&Type=search", "url2": "http://www.kyotominami.or.jp/" }, "geometry": { "type": "Point", "coordinates": [ 135.763876100000061, 34.9360156 ] } },
{ "type": "Feature", "properties": { "内容": "京都リハビリテーション病院訪問リハビリテーション【訪問リハビリテーション】京都府京都市伏見区深草越後屋敷町17番地", "url": "https://www.kaigokensaku.mhlw.go.jp/26/index.php?action_kouhyou_detail_004_kani=true&JigyosyoCd=2610907624-00&ServiceCd=140&Type=search", "url2": "http://www.fushimi-shimizu.jp/" }, "geometry": { "type": "Point", "coordinates": [ 135.763963800000056, 34.9493458 ] } },
{ "type": "Feature", "properties": { "内容": "介護老人保健施設ハーモニーこが　訪問リハビリテーション【訪問リハビリテーション】京都市伏見区久我森の宮町3－6介護老人保健施設ハーモニーこが", "url": "https://www.kaigokensaku.mhlw.go.jp/26/index.php?action_kouhyou_detail_004_kani=true&JigyosyoCd=2650980051-00&ServiceCd=140&Type=search", "url2": "http://kurashino-harmony.or.jp" }, "geometry": { "type": "Point", "coordinates": [ 135.7307434, 34.9415323 ] } },
{ "type": "Feature", "properties": { "内容": "介護老人保健施設あじさいガーデン伏見　訪問リハビリテーション【訪問リハビリテーション】京都市伏見区向島二ノ丸町151番81", "url": "https://www.kaigokensaku.mhlw.go.jp/26/index.php?action_kouhyou_detail_004_kani=true&JigyosyoCd=2650980069-00&ServiceCd=140&Type=search", "url2": "https://koshokai-swc.or.jp" }, "geometry": { "type": "Point", "coordinates": [ 135.77737209999998, 34.9169291 ] } },
{ "type": "Feature", "properties": { "内容": "医療法人社団洛和会　介護老人保健施設　洛和ヴィラアエル【訪問リハビリテーション】京都府京都市山科区小山鎮守町２９番１", "url": "https://www.kaigokensaku.mhlw.go.jp/26/index.php?action_kouhyou_detail_004_kani=true&JigyosyoCd=2654180062-00&ServiceCd=140&Type=search", "url2": "http://www.rakuwa.or.jp/kaigo/rouken/aer/index.html" }, "geometry": { "type": "Point", "coordinates": [ 135.83364046488191, 34.987885380454394 ] } },
{ "type": "Feature", "properties": { "内容": "訪問ﾘﾊﾋﾞﾘﾃｰｼｮﾝ愛生会おおやけの里【訪問リハビリテーション】京都府京都市山科区大宅向山10-5", "url": "https://www.kaigokensaku.mhlw.go.jp/26/index.php?action_kouhyou_detail_004_kani=true&JigyosyoCd=2654180021-00&ServiceCd=140&Type=search", "url2": "http://www.aiseikaihp.or.jp/" }, "geometry": { "type": "Point", "coordinates": [ 135.820746, 34.9646842 ] } },
{ "type": "Feature", "properties": { "内容": "訪問リハビリテーション　香東園やましな【訪問リハビリテーション】京都府京都市山科区西野野色町15-88", "url": "https://www.kaigokensaku.mhlw.go.jp/26/index.php?action_kouhyou_detail_004_kani=true&JigyosyoCd=2654180070-00&ServiceCd=140&Type=search", "url2": "http://www.koutouen.com/yamashina/" }, "geometry": { "type": "Point", "coordinates": [ 135.804711200000014, 34.9854174 ] } },
{ "type": "Feature", "properties": { "内容": "住田内科クリニック【訪問リハビリテーション】京都府京都市山科区竹鼻竹ノ街道町74-1", "url": "https://www.kaigokensaku.mhlw.go.jp/26/index.php?action_kouhyou_detail_004_kani=true&JigyosyoCd=2614103006-00&ServiceCd=140&Type=search", "url2": "http://sumida-clinic.com/" }, "geometry": { "type": "Point", "coordinates": [ 135.81595440000001, 34.9899272 ] } },
{ "type": "Feature", "properties": { "内容": "医療法人稜陽会住田リハビリテーションクリニック【訪問リハビリテーション】京都市山科区安朱南屋敷町3-56", "url": "https://www.kaigokensaku.mhlw.go.jp/26/index.php?action_kouhyou_detail_004_kani=true&JigyosyoCd=2614103113-00&ServiceCd=140&Type=search", "url2": "https://sumida-reha.com/" }, "geometry": { "type": "Point", "coordinates": [ 135.8180491, 34.9904024 ] } },
{ "type": "Feature", "properties": { "内容": "洛和会音羽リハビリテーション病院訪問リハビリテーション【訪問リハビリテーション】京都府京都市山科区小山北溝町32-1", "url": "https://www.kaigokensaku.mhlw.go.jp/26/index.php?action_kouhyou_detail_004_kani=true&JigyosyoCd=2614102784-00&ServiceCd=140&Type=search", "url2": "https://www.rakuwa.or.jp/otowareha/" }, "geometry": { "type": "Point", "coordinates": [ 135.830408214120894, 34.985662347550743 ] } },
{ "type": "Feature", "properties": { "内容": "医療法人医仁会　老人保健施設いわやの里【訪問リハビリテーション】京都府京都市山科区大宅古海道町52番地", "url": "https://www.kaigokensaku.mhlw.go.jp/26/index.php?action_kouhyou_detail_004_kani=true&JigyosyoCd=2654180013-00&ServiceCd=140&Type=search", "url2": "http://www.takedahp.or.jp/" }, "geometry": { "type": "Point", "coordinates": [ 135.826431599999978, 34.9707753 ] } },
{ "type": "Feature", "properties": { "内容": "介護老人保健施設アビイロードやましな　（介護予防）訪問リハビリテーション【訪問リハビリテーション】京都府京都市山科区勧修寺南大日33-1", "url": "https://www.kaigokensaku.mhlw.go.jp/26/index.php?action_kouhyou_detail_004_kani=true&JigyosyoCd=2654180054-00&ServiceCd=140&Type=search", "url2": "http://www.toumonkai.net/" }, "geometry": { "type": "Point", "coordinates": [ 135.802467400000069, 34.9551595 ] } },
{ "type": "Feature", "properties": { "内容": "医療法人啓友会　介護老人保健施設洛西けいゆうの里【訪問リハビリテーション】京都府京都市西京区大枝東長町1-36", "url": "https://www.kaigokensaku.mhlw.go.jp/26/index.php?action_kouhyou_detail_004_kani=true&JigyosyoCd=2654080015-00&ServiceCd=140&Type=search", "url2": "http://www.keiyukai-nakajima.jp" }, "geometry": { "type": "Point", "coordinates": [ 135.679057699999987, 34.967131 ] } },
{ "type": "Feature", "properties": { "内容": "たちいり整形外科　訪問リハビリテーション【訪問リハビリテーション】京都市西京区桂西滝川町52番地", "url": "https://www.kaigokensaku.mhlw.go.jp/26/index.php?action_kouhyou_detail_004_kani=true&JigyosyoCd=2614001184-00&ServiceCd=140&Type=search", "url2": "http://tachiiri.or.jp" }, "geometry": { "type": "Point", "coordinates": [ 135.71304, 34.9774329 ] } },
{ "type": "Feature", "properties": { "内容": "清仁会　洛西ニュータウン病院　訪問リハビリテーション【訪問リハビリテーション】京都市西京区大枝東新林町3丁目6番地", "url": "https://www.kaigokensaku.mhlw.go.jp/26/index.php?action_kouhyou_detail_004_kani=true&JigyosyoCd=2614002539-00&ServiceCd=140&Type=search", "url2": "http://www.shimizu-hospital.or.jp" }, "geometry": { "type": "Point", "coordinates": [ 135.673243100000036, 34.9681448 ] } },
{ "type": "Feature", "properties": { "内容": "西京都病院　訪問リハビリテーション【訪問リハビリテーション】京都市西京区桂畑ヶ田町175番地", "url": "https://www.kaigokensaku.mhlw.go.jp/26/index.php?action_kouhyou_detail_004_kani=true&JigyosyoCd=2614003008-00&ServiceCd=140&Type=search", "url2": "https://hospynkh.jp/" }, "geometry": { "type": "Point", "coordinates": [ 135.704052365081793, 34.991891478002749 ] } },
{ "type": "Feature", "properties": { "内容": "医療法人清仁会介護老人保健施設シミズひまわりの里訪問リハビリテーション【訪問リハビリテーション】京都府京都市西京区大枝沓掛町１３－３６２", "url": "https://www.kaigokensaku.mhlw.go.jp/26/index.php?action_kouhyou_detail_004_kani=true&JigyosyoCd=2654080023-00&ServiceCd=140&Type=search", "url2": "https://www.shimizu-hospital.or.jp/kaigo/care/himawari/index.php" }, "geometry": { "type": "Point", "coordinates": [ 135.665704600000026, 34.974847 ] } },
{ "type": "Feature", "properties": { "内容": "訪問リハビリテーション「さくら苑」【訪問リハビリテーション】京都府福知山市字堀小字大岩谷３３７４番地", "url": "https://www.kaigokensaku.mhlw.go.jp/26/index.php?action_kouhyou_detail_004_kani=true&JigyosyoCd=2652680022-00&ServiceCd=140&Type=search", "url2": "https://fukuchikai.or.jp/sakura/" }, "geometry": { "type": "Point", "coordinates": [ 135.124014066143104, 35.270539612477855 ] } },
{ "type": "Feature", "properties": { "内容": "福冨士会　訪問リハビリテーション【訪問リハビリテーション】末広町4丁目13番地", "url": "https://www.kaigokensaku.mhlw.go.jp/26/index.php?action_kouhyou_detail_004_kani=true&JigyosyoCd=2612600938-00&ServiceCd=140&Type=search", "url2": "http://www.renaiss.jp" }, "geometry": { "type": "Point", "coordinates": [ 144.3869243, 42.9838154 ] } },
{ "type": "Feature", "properties": { "内容": "市立福知山市民病院【訪問リハビリテーション】京都府福知山市厚中町２３１番地", "url": "https://www.kaigokensaku.mhlw.go.jp/26/index.php?action_kouhyou_detail_004_kani=true&JigyosyoCd=2619600212-00&ServiceCd=140&Type=search", "url2": "https://www.city.fukuchiyama.lg.jp/site/hosp/" }, "geometry": { "type": "Point", "coordinates": [ 135.112461400000029, 35.3044932 ] } },
{ "type": "Feature", "properties": { "内容": "医療法人岸本病院　訪問リハビリテーション【訪問リハビリテーション】京都府舞鶴市字浜１１３１番地", "url": "https://www.kaigokensaku.mhlw.go.jp/26/index.php?action_kouhyou_detail_004_kani=true&JigyosyoCd=2612701389-00&ServiceCd=140&Type=search", "url2": "http://www.kisimoto-hp.jp/" }, "geometry": { "type": "Point", "coordinates": [ 135.393576200000012, 35.470022 ] } },
{ "type": "Feature", "properties": { "内容": "医療法人社団　鳥井医院　訪問リハビリテーション【訪問リハビリテーション】京都府舞鶴市字倉谷1675", "url": "https://www.kaigokensaku.mhlw.go.jp/26/index.php?action_kouhyou_detail_004_kani=true&JigyosyoCd=2612701363-00&ServiceCd=140&Type=search", "url2": null }, "geometry": { "type": "Point", "coordinates": [ 135.337590699999964, 35.4470822 ] } },
{ "type": "Feature", "properties": { "内容": "医療法人　荒木クリニック訪問リハビリ【訪問リハビリテーション】京都府舞鶴市字京田小字大角18番地の１", "url": "https://www.kaigokensaku.mhlw.go.jp/26/index.php?action_kouhyou_detail_004_kani=true&JigyosyoCd=2612701751-00&ServiceCd=140&Type=search", "url2": "http://arakiclinic.com" }, "geometry": { "type": "Point", "coordinates": [ 135.328945200000021, 35.4254633 ] } },
{ "type": "Feature", "properties": { "内容": "アザレア舞鶴訪問リハビリテーションセンター【訪問リハビリテーション】京都府舞鶴市大字和田小字中田1055番地1", "url": "https://www.kaigokensaku.mhlw.go.jp/26/index.php?action_kouhyou_detail_004_kani=true&JigyosyoCd=2652780020-00&ServiceCd=140&Type=search", "url2": "https://seihoukai-grp.jp/" }, "geometry": { "type": "Point", "coordinates": [ 135.341725, 35.47214 ] } },
{ "type": "Feature", "properties": { "内容": "介護老人保健施設　京都綾部さくらホーム【訪問リハビリテーション】京都府綾部市高津町遠所1番地611", "url": "https://www.kaigokensaku.mhlw.go.jp/26/index.php?action_kouhyou_detail_004_kani=true&JigyosyoCd=2651880029-00&ServiceCd=140&Type=search", "url2": "http://www.kyototakeda.jp/sakura" }, "geometry": { "type": "Point", "coordinates": [ 135.2170489, 35.3041432 ] } },
{ "type": "Feature", "properties": { "内容": "老人保健施設あやべ【訪問リハビリテーション】京都府綾部市小畑町うずいの98番地の1", "url": "https://www.kaigokensaku.mhlw.go.jp/26/index.php?action_kouhyou_detail_004_kani=true&JigyosyoCd=2651880011-00&ServiceCd=140&Type=search", "url2": null }, "geometry": { "type": "Point", "coordinates": [ 135.203885500000069, 35.344468 ] } },
{ "type": "Feature", "properties": { "内容": "公益社団法人京都保健会京都協立病院【訪問リハビリテーション】京都府綾部市高津町三反田１番地", "url": "https://www.kaigokensaku.mhlw.go.jp/26/index.php?action_kouhyou_detail_004_kani=true&JigyosyoCd=2611801123-00&ServiceCd=140&Type=search", "url2": "https://kyoto-kyoritsu.org" }, "geometry": { "type": "Point", "coordinates": [ 135.2046805, 35.3042845 ] } },
{ "type": "Feature", "properties": { "内容": "医療法人徳洲会　宇治徳洲苑　訪問リハビリステーション【訪問リハビリテーション】槇島町石橋145番地", "url": "https://www.kaigokensaku.mhlw.go.jp/26/index.php?action_kouhyou_detail_004_kani=true&JigyosyoCd=2651280048-00&ServiceCd=140&Type=search", "url2": "http://www.ujitoku.or.jp/md-intro/medical-department/tokusyuuen/" }, "geometry": { "type": "Point", "coordinates": [ 135.78648290000001, 34.9033963 ] } },
{ "type": "Feature", "properties": { "内容": "訪問リハビリテーションいつわ【訪問リハビリテーション】京都府宇治市志津川南詰12番地", "url": "https://www.kaigokensaku.mhlw.go.jp/26/index.php?action_kouhyou_detail_004_kani=true&JigyosyoCd=2651280014-00&ServiceCd=140&Type=search", "url2": "http://ituwanosono.sakura.ne.jp" }, "geometry": { "type": "Point", "coordinates": [ 135.8246384, 34.8866979 ] } },
{ "type": "Feature", "properties": { "内容": "医療法人社団神野医院　じんのクリニック【訪問リハビリテーション】京都府宇治市六地蔵町並39", "url": "https://www.kaigokensaku.mhlw.go.jp/26/index.php?action_kouhyou_detail_004_kani=true&JigyosyoCd=2611203569-00&ServiceCd=140&Type=search", "url2": "http://www.jinno-mg.or.jp" }, "geometry": { "type": "Point", "coordinates": [ 135.799853737434461, 34.933636795670296 ] } },
{ "type": "Feature", "properties": { "内容": "宇治武田病院【訪問リハビリテーション】京都府宇治市宇治里尻36-26", "url": "https://www.kaigokensaku.mhlw.go.jp/26/index.php?action_kouhyou_detail_004_kani=true&JigyosyoCd=2611203262-00&ServiceCd=140&Type=search", "url2": "http://www.takedahp.or.jp/uji/" }, "geometry": { "type": "Point", "coordinates": [ 135.801367570460457, 34.892238358535089 ] } },
{ "type": "Feature", "properties": { "内容": "社会福祉法人あじろぎ会　宇治病院【訪問リハビリテーション】京都府宇治市五ヶ庄芝ノ東54-20774-51-1401", "url": "https://www.kaigokensaku.mhlw.go.jp/26/index.php?action_kouhyou_detail_004_kani=true&JigyosyoCd=2611203650-00&ServiceCd=140&Type=search", "url2": "http://www.uji-hosp.or.jp/" }, "geometry": { "type": "Point", "coordinates": [ 135.801567200000022, 34.9173823 ] } },
{ "type": "Feature", "properties": { "内容": "医療法人せいふう会　宇治脳卒中リハビリテーション病院【訪問リハビリテーション】京都府宇治市大久保町井ノ尻43番1", "url": "https://www.kaigokensaku.mhlw.go.jp/26/index.php?action_kouhyou_detail_004_kani=true&JigyosyoCd=2611204013-00&ServiceCd=140&Type=search", "url2": "https://uji-rh.jp" }, "geometry": { "type": "Point", "coordinates": [ 135.769966399999987, 34.8736472 ] } },
{ "type": "Feature", "properties": { "内容": "医療法人相幸会かどさか内科クリニック地域ケア事業部訪問リハビリ【訪問リハビリテーション】京都府宇治市平尾台4丁目3-2", "url": "https://www.kaigokensaku.mhlw.go.jp/26/index.php?action_kouhyou_detail_004_kani=true&JigyosyoCd=2611203080-00&ServiceCd=140&Type=search", "url2": "http://kadosaka-naika.jp/" }, "geometry": { "type": "Point", "coordinates": [ 135.812119, 34.9246125 ] } },
{ "type": "Feature", "properties": { "内容": "介護老人保健施設リハ・ヴィラなぎさ苑【訪問リハビリテーション】京都府宮津市字須津2268番地の1", "url": "https://www.kaigokensaku.mhlw.go.jp/26/index.php?action_kouhyou_detail_004_kani=true&JigyosyoCd=2652180015-00&ServiceCd=140&Type=search", "url2": "http://www.hokuseikai.or.jp/" }, "geometry": { "type": "Point", "coordinates": [ 135.159919, 35.553471 ] } },
{ "type": "Feature", "properties": { "内容": "医療法人大澤会　訪問リハビリテーション事業所こもれび【訪問リハビリテーション】京都府亀岡市千代川町北ノ庄向条24番地", "url": "https://www.kaigokensaku.mhlw.go.jp/26/index.php?action_kouhyou_detail_004_kani=true&JigyosyoCd=2651680015-00&ServiceCd=140&Type=search", "url2": "http://www.osawa-komorebi.com" }, "geometry": { "type": "Point", "coordinates": [ 135.528935400000023, 35.052202 ] } },
{ "type": "Feature", "properties": { "内容": "医療法人　亀岡病院　訪問リハビリテーション【訪問リハビリテーション】古世町3丁目21番1号", "url": "https://www.kaigokensaku.mhlw.go.jp/26/index.php?action_kouhyou_detail_004_kani=true&JigyosyoCd=2611601838-00&ServiceCd=140&Type=search", "url2": "http://www.kameokahp.com" }, "geometry": { "type": "Point", "coordinates": [ 135.5887937, 35.0066588 ] } },
{ "type": "Feature", "properties": { "内容": "医療法人　清仁会　亀岡シミズ病院【訪問リハビリテーション】篠町広田1-32-15", "url": "https://www.kaigokensaku.mhlw.go.jp/26/index.php?action_kouhyou_detail_004_kani=true&JigyosyoCd=2611601481-00&ServiceCd=140&Type=search", "url2": "https://www.shimizu-hospital.or.jp/kameoka/" }, "geometry": { "type": "Point", "coordinates": [ 135.595476, 35.00334 ] } },
{ "type": "Feature", "properties": { "内容": "医療法人啓信会　京都きづ川病院【訪問リハビリテーション】京都府城陽市平川西六反26-1", "url": "https://www.kaigokensaku.mhlw.go.jp/26/index.php?action_kouhyou_detail_004_kani=true&JigyosyoCd=2612800710-00&ServiceCd=140&Type=search", "url2": "http://www.kyoto-keishinkai.or.jp/kizugawa/index.html" }, "geometry": { "type": "Point", "coordinates": [ 135.760897800000066, 34.8653182 ] } },
{ "type": "Feature", "properties": { "内容": "医療法人社団コクラ医院訪問リハビリテーション【訪問リハビリテーション】城陽市久世下大谷18-111", "url": "https://www.kaigokensaku.mhlw.go.jp/26/index.php?action_kouhyou_detail_004_kani=true&JigyosyoCd=2612801007-00&ServiceCd=140&Type=search", "url2": "http://www.kokura-iin.com/" }, "geometry": { "type": "Point", "coordinates": [ 135.781762599999979, 34.8693678 ] } },
{ "type": "Feature", "properties": { "内容": "乙訓医療生活協同組合医誠会診療所【訪問リハビリテーション】京都府向日市寺戸町殿長37番地", "url": "https://www.kaigokensaku.mhlw.go.jp/26/index.php?action_kouhyou_detail_004_kani=true&JigyosyoCd=2613100656-00&ServiceCd=140&Type=search", "url2": "http://www.otokuni-hcoop.com/" }, "geometry": { "type": "Point", "coordinates": [ 135.700373899999931, 34.9504383 ] } },
{ "type": "Feature", "properties": { "内容": "医療法人真生会訪問リハビリテーション向日かいせい【訪問リハビリテーション】京都府向日市物集女町中海道９２番地の１２", "url": "https://www.kaigokensaku.mhlw.go.jp/26/index.php?action_kouhyou_detail_004_kani=true&JigyosyoCd=2613100987-00&ServiceCd=140&Type=search", "url2": "http://shinseikai.jpn.com/" }, "geometry": { "type": "Point", "coordinates": [ 135.691219499999988, 34.9622926 ] } },
{ "type": "Feature", "properties": { "内容": "医療法人　総心会　長岡京病院　訪問リハビリテーション【訪問リハビリテーション】京都府長岡京市天神1丁目20-10", "url": "https://www.kaigokensaku.mhlw.go.jp/26/index.php?action_kouhyou_detail_004_kani=true&JigyosyoCd=2613000799-00&ServiceCd=140&Type=search", "url2": "http://www.nagaokakyo-hospital.or.jp" }, "geometry": { "type": "Point", "coordinates": [ 135.690654982354744, 34.922824694014167 ] } },
{ "type": "Feature", "properties": { "内容": "せんしゅんかい訪問リハビリテーション西山天王山【訪問リハビリテーション】京都府長岡京市友岡川原25-3", "url": "https://www.kaigokensaku.mhlw.go.jp/26/index.php?action_kouhyou_detail_004_kani=true&JigyosyoCd=2653080040-00&ServiceCd=140&Type=search", "url2": "http://www.senshunkai.or.jp/" }, "geometry": { "type": "Point", "coordinates": [ 135.68786750000001, 34.9136985 ] } },
{ "type": "Feature", "properties": { "内容": "アゼリアガーデン・訪問リハビリセンター【訪問リハビリテーション】京都府長岡京市友岡４丁目１１４番地", "url": "https://www.kaigokensaku.mhlw.go.jp/26/index.php?action_kouhyou_detail_004_kani=true&JigyosyoCd=2653080016-00&ServiceCd=140&Type=search", "url2": "http://www.nagaoka.or.jp" }, "geometry": { "type": "Point", "coordinates": [ 135.690052332794693, 34.913268949453752 ] } },
{ "type": "Feature", "properties": { "内容": "医療法人社団千春会　千春会病院【訪問リハビリテーション】京都府長岡京市開田2丁目14番26号", "url": "https://www.kaigokensaku.mhlw.go.jp/26/index.php?action_kouhyou_detail_004_kani=true&JigyosyoCd=2613000575-00&ServiceCd=140&Type=search", "url2": "http://www.senshunkai.or.jp" }, "geometry": { "type": "Point", "coordinates": [ 135.698279400000047, 34.9239186 ] } },
{ "type": "Feature", "properties": { "内容": "医療法人　山下医院【訪問リハビリテーション】京都府八幡市橋本向山2-3", "url": "https://www.kaigokensaku.mhlw.go.jp/26/index.php?action_kouhyou_detail_004_kani=true&JigyosyoCd=2612900643-00&ServiceCd=140&Type=search", "url2": null }, "geometry": { "type": "Point", "coordinates": [ 135.686578599999962, 34.8746818 ] } },
{ "type": "Feature", "properties": { "内容": "医療法人社団医聖会　八幡中央病院【訪問リハビリテーション】京都府八幡市八幡五反田39番地1", "url": "https://www.kaigokensaku.mhlw.go.jp/26/index.php?action_kouhyou_detail_004_kani=true&JigyosyoCd=2612900411-00&ServiceCd=140&Type=search", "url2": "http://www.iseikai.jp/" }, "geometry": { "type": "Point", "coordinates": [ 135.7066211, 34.871097300000024 ] } },
{ "type": "Feature", "properties": { "内容": "男山病院【訪問リハビリテーション】京都府八幡市男山泉19男山病院", "url": "https://www.kaigokensaku.mhlw.go.jp/26/index.php?action_kouhyou_detail_004_kani=true&JigyosyoCd=2612900809-00&ServiceCd=140&Type=search", "url2": "http://www.misugikai.jp" }, "geometry": { "type": "Point", "coordinates": [ 135.693646, 34.8614598 ] } },
{ "type": "Feature", "properties": { "内容": "医療法人翔隆会　寺島クリニック【訪問リハビリテーション】京都府京田辺市河原御影30-40", "url": "https://www.kaigokensaku.mhlw.go.jp/26/index.php?action_kouhyou_detail_004_kani=true&JigyosyoCd=2613200852-00&ServiceCd=140&Type=search", "url2": "www.terashimaclinic-kyotanabe.com" }, "geometry": { "type": "Point", "coordinates": [ 135.774639849073765, 34.82125990385142 ] } },
{ "type": "Feature", "properties": { "内容": "川東整形外科【訪問リハビリテーション】京田辺市薪茶屋前３１", "url": "https://www.kaigokensaku.mhlw.go.jp/26/index.php?action_kouhyou_detail_004_kani=true&JigyosyoCd=2613200423-00&ServiceCd=140&Type=search", "url2": "http://www.kawahigashi-seikei.com/" }, "geometry": { "type": "Point", "coordinates": [ 135.7576398, 34.8283021 ] } },
{ "type": "Feature", "properties": { "内容": "同志社山手病院訪問リハビリテーション事業所【訪問リハビリテーション】京都府京田辺市同志社山手二丁目2番", "url": "https://www.kaigokensaku.mhlw.go.jp/26/index.php?action_kouhyou_detail_004_kani=true&JigyosyoCd=2613201041-00&ServiceCd=140&Type=search", "url2": "https://doushishayamate.sekitetsukai.kyoto/" }, "geometry": { "type": "Point", "coordinates": [ 135.776289749073783, 34.789377695456736 ] } },
{ "type": "Feature", "properties": { "内容": "公益財団法人丹後中央病院【訪問リハビリテーション】京都府京丹後市峰山町杉谷158番地の1", "url": "https://www.kaigokensaku.mhlw.go.jp/26/index.php?action_kouhyou_detail_004_kani=true&JigyosyoCd=2613300017-00&ServiceCd=140&Type=search", "url2": "https://www.tangohp.com/" }, "geometry": { "type": "Point", "coordinates": [ 135.0602259, 35.6268773 ] } },
{ "type": "Feature", "properties": { "内容": "京丹後市立弥栄病院訪問リハビリテーション事業所【訪問リハビリテーション】京都府京丹後市弥栄町溝谷3452-1", "url": "https://www.kaigokensaku.mhlw.go.jp/26/index.php?action_kouhyou_detail_004_kani=true&JigyosyoCd=2619600253-00&ServiceCd=140&Type=search", "url2": "https：www.city.kyoutango.lg.jp/yasaka_hospital/" }, "geometry": { "type": "Point", "coordinates": [ 135.090651900000012, 35.65818 ] } },
{ "type": "Feature", "properties": { "内容": "医療法人社団菫会園部病院【訪問リハビリテーション】京都府南丹市園部町美園町5号8-7", "url": "https://www.kaigokensaku.mhlw.go.jp/26/index.php?action_kouhyou_detail_004_kani=true&JigyosyoCd=2613400411-00&ServiceCd=140&Type=search", "url2": "https://sonobe-hp.com/index.html" }, "geometry": { "type": "Point", "coordinates": [ 135.474052700000016, 35.1088352 ] } },
{ "type": "Feature", "properties": { "内容": "京都中部総合医療センター【訪問リハビリテーション】京都府南丹市八木町八木上野２５番地", "url": "https://www.kaigokensaku.mhlw.go.jp/26/index.php?action_kouhyou_detail_004_kani=true&JigyosyoCd=2619600063-00&ServiceCd=140&Type=search", "url2": "https://www.kyoto-chubumedc.or.jp" }, "geometry": { "type": "Point", "coordinates": [ 135.530563, 35.0711477 ] } },
{ "type": "Feature", "properties": { "内容": "南丹市国民健康保険南丹みやま診療所【訪問リハビリテーション】京都府南丹市美山町安掛下8番地", "url": "https://www.kaigokensaku.mhlw.go.jp/26/index.php?action_kouhyou_detail_004_kani=true&JigyosyoCd=2613400429-00&ServiceCd=140&Type=search", "url2": "https://www.city.nantan.kyoto.jp/www/index.html" }, "geometry": { "type": "Point", "coordinates": [ 135.5869119, 35.2760941 ] } },
{ "type": "Feature", "properties": { "内容": "はぎの里訪問リハビリテーション事業所【訪問リハビリテーション】京都府南丹市日吉町保野田萩原１番地１", "url": "https://www.kaigokensaku.mhlw.go.jp/26/index.php?action_kouhyou_detail_004_kani=true&JigyosyoCd=2673400277-00&ServiceCd=140&Type=search", "url2": "http://www.cans.zaq.ne.jp/haginosato/" }, "geometry": { "type": "Point", "coordinates": [ 135.487276458721936, 35.183871251498736 ] } },
{ "type": "Feature", "properties": { "内容": "明治国際医療大学附属病院訪問リハビリテーション事業所【訪問リハビリテーション】京都府南丹市日吉町保野田ヒノ谷６－１", "url": "https://www.kaigokensaku.mhlw.go.jp/26/index.php?action_kouhyou_detail_004_kani=true&JigyosyoCd=2613400288-00&ServiceCd=140&Type=search", "url2": "https://www.meiji-u.ac.jp/md-reha/home-reha/" }, "geometry": { "type": "Point", "coordinates": [ 135.489929600000011, 35.182184700000022 ] } },
{ "type": "Feature", "properties": { "内容": "介護老人保健施設　シミズふないの里【訪問リハビリテーション】京都府南丹市八木町西田山崎16", "url": "https://www.kaigokensaku.mhlw.go.jp/26/index.php?action_kouhyou_detail_004_kani=true&JigyosyoCd=2653480018-00&ServiceCd=140&Type=search", "url2": "http://www.shimizu-hospital.or.jp/kaigo/care/funai/index.php" }, "geometry": { "type": "Point", "coordinates": [ 135.539965100000018, 35.077650199999965 ] } },
{ "type": "Feature", "properties": { "内容": "京都山城総合医療センター【訪問リハビリテーション】京都府木津川市木津駅前一丁目27番地", "url": "https://www.kaigokensaku.mhlw.go.jp/26/index.php?action_kouhyou_detail_004_kani=true&JigyosyoCd=2619600154-00&ServiceCd=140&Type=search", "url2": "http://www.yamashiro-hp.jp" }, "geometry": { "type": "Point", "coordinates": [ 135.823820899999987, 34.7365434 ] } },
{ "type": "Feature", "properties": { "内容": "医療法人広和会山下医院訪問リハビリテーション【訪問リハビリテーション】相楽高下46", "url": "https://www.kaigokensaku.mhlw.go.jp/26/index.php?action_kouhyou_detail_004_kani=true&JigyosyoCd=2613500335-00&ServiceCd=140&Type=search", "url2": null }, "geometry": { "type": "Point", "coordinates": [ 135.8040447, 34.7370623 ] } },
{ "type": "Feature", "properties": { "内容": "医療法人啓信会介護老人保健施設ひしの里訪問リハビリテーション【訪問リハビリテーション】佐古内屋敷81番地1", "url": "https://www.kaigokensaku.mhlw.go.jp/26/index.php?action_kouhyou_detail_004_kani=true&JigyosyoCd=2651180016-00&ServiceCd=140&Type=search", "url2": "http://www.kyoto-keishinkai.or.jp/" }, "geometry": { "type": "Point", "coordinates": [ 135.752616799999942, 34.879705 ] } },
{ "type": "Feature", "properties": { "内容": "医療法人　八仁会　久御山南病院訪問リハビリテーション【訪問リハビリテーション】京都府久世郡久御山町坊之池坊村中28", "url": "https://www.kaigokensaku.mhlw.go.jp/26/index.php?action_kouhyou_detail_004_kani=true&JigyosyoCd=2611100484-00&ServiceCd=140&Type=search", "url2": "http://www1.odn.ne.jp/minamihp" }, "geometry": { "type": "Point", "coordinates": [ 135.7319096, 34.8910402 ] } },
{ "type": "Feature", "properties": { "内容": "医療法人社団どろんこ会山口医院【訪問リハビリテーション】京都府綴喜郡宇治田原町銘城台7-1", "url": "https://www.kaigokensaku.mhlw.go.jp/26/index.php?action_kouhyou_detail_004_kani=true&JigyosyoCd=2611301314-00&ServiceCd=140&Type=search", "url2": "http://www.doronko.or.jp" }, "geometry": { "type": "Point", "coordinates": [ 135.844277956483438, 34.846231180628635 ] } },
{ "type": "Feature", "properties": { "内容": "精華町国民健康保険病院【訪問リハビリテーション】京都府相楽郡精華町大字祝園小字砂子田７番地", "url": "https://www.kaigokensaku.mhlw.go.jp/26/index.php?action_kouhyou_detail_004_kani=true&JigyosyoCd=2619600055-00&ServiceCd=140&Type=search", "url2": "http://takedahp.or.jp/group/medical/seikacho/" }, "geometry": { "type": "Point", "coordinates": [ 135.793757300000038, 34.7591671 ] } },
{ "type": "Feature", "properties": { "内容": "国保京丹波町病院訪問リハビリテーション事業所【訪問リハビリテーション】京都府船井郡京丹波町和田大下２８番地", "url": "https://www.kaigokensaku.mhlw.go.jp/26/index.php?action_kouhyou_detail_004_kani=true&JigyosyoCd=2619600287-00&ServiceCd=140&Type=search", "url2": "www.kyotamba-hospital.jp/" }, "geometry": { "type": "Point", "coordinates": [ 135.374036400000023, 35.1807372 ] } },
{ "type": "Feature", "properties": { "内容": "与謝野町立国民健康保険診療所【訪問リハビリテーション】京都府与謝郡与謝野町字石川685-1", "url": "https://www.kaigokensaku.mhlw.go.jp/26/index.php?action_kouhyou_detail_004_kani=true&JigyosyoCd=2612000600-00&ServiceCd=140&Type=search", "url2": "http://www.town-yosano.jp/wwwg/section/detail.jsp?common_id=426" }, "geometry": { "type": "Point", "coordinates": [ 135.12257210000007, 35.5294477 ] } }
]
}
