{
"type": "FeatureCollection",
"name": "geo_26_通所リハビリテーション",
"crs": { "type": "name", "properties": { "name": "urn:ogc:def:crs:OGC:1.3:CRS84" } },
"features": [
{ "type": "Feature", "properties": { "内容": "医療法人　梁山会診療所【通所リハビリテーション】京都府京都市北区大将軍西町163", "url": "https://www.kaigokensaku.mhlw.go.jp/26/index.php?action_kouhyou_detail_004_kani=true&JigyosyoCd=2610105310-00&ServiceCd=160&Type=search", "url2": "http://www.kyoto-reha.jp" }, "geometry": { "type": "Point", "coordinates": [ 135.731301600000052, 35.024365 ] } },
{ "type": "Feature", "properties": { "内容": "原整形外科通所リハビリテーションセンター【通所リハビリテーション】京都府京都市北区紫野大徳寺町23－2", "url": "https://www.kaigokensaku.mhlw.go.jp/26/index.php?action_kouhyou_detail_004_kani=true&JigyosyoCd=2610104347-00&ServiceCd=160&Type=search", "url2": null }, "geometry": { "type": "Point", "coordinates": [ 135.7418653, 35.0422518 ] } },
{ "type": "Feature", "properties": { "内容": "デイケアセンターとみた【通所リハビリテーション】京都市北区小山下内河原町56", "url": "https://www.kaigokensaku.mhlw.go.jp/26/index.php?action_kouhyou_detail_004_kani=true&JigyosyoCd=2610101806-00&ServiceCd=160&Type=search", "url2": "https://www.kyoto-hakuaikai.or.jp/tomita_care/" }, "geometry": { "type": "Point", "coordinates": [ 135.760416334918204, 35.045045142965662 ] } },
{ "type": "Feature", "properties": { "内容": "医療法人葵会紫野協立診療所【通所リハビリテーション】京都府京都市北区紫野西野町60-5", "url": "https://www.kaigokensaku.mhlw.go.jp/26/index.php?action_kouhyou_detail_004_kani=true&JigyosyoCd=2610105518-00&ServiceCd=160&Type=search", "url2": "http://aoikai.net/murasakino-k/rehabili" }, "geometry": { "type": "Point", "coordinates": [ 135.7427864, 35.040786 ] } },
{ "type": "Feature", "properties": { "内容": "介護老人保健施設ライブリィきぬかけ通所リハビリテーション【通所リハビリテーション】京都市北区大北山原谷乾町１２７－１", "url": "https://www.kaigokensaku.mhlw.go.jp/26/index.php?action_kouhyou_detail_004_kani=true&JigyosyoCd=2650180017-00&ServiceCd=160&Type=search", "url2": "http://www.nananokai.com/" }, "geometry": { "type": "Point", "coordinates": [ 135.71878849999996, 35.0443629 ] } },
{ "type": "Feature", "properties": { "内容": "介護老人保健施設「がくさい」通所リハビリテーション【通所リハビリテーション】京都市北区鷹峯土天井町54番地", "url": "https://www.kaigokensaku.mhlw.go.jp/26/index.php?action_kouhyou_detail_004_kani=true&JigyosyoCd=2650180025-00&ServiceCd=160&Type=search", "url2": "https://gakusai.or.jp/rouken" }, "geometry": { "type": "Point", "coordinates": [ 135.732598400000029, 35.0527762 ] } },
{ "type": "Feature", "properties": { "内容": "介護医療院おおみや葵の郷通所リハビリ【通所リハビリテーション】紫竹北大門町56", "url": "https://www.kaigokensaku.mhlw.go.jp/26/index.php?action_kouhyou_detail_004_kani=true&JigyosyoCd=26B0100012-00&ServiceCd=160&Type=search", "url2": "http://kita-hp.aoikai.net/" }, "geometry": { "type": "Point", "coordinates": [ 135.744999799999988, 35.053395 ] } },
{ "type": "Feature", "properties": { "内容": "医療法人　金光診療所【通所リハビリテーション】京都府京都市上京区閻魔前町33-2", "url": "https://www.kaigokensaku.mhlw.go.jp/26/index.php?action_kouhyou_detail_004_kani=true&JigyosyoCd=2610205045-00&ServiceCd=160&Type=search", "url2": "https://www.kanemitsu-clinic.net" }, "geometry": { "type": "Point", "coordinates": [ 135.740926, 35.0356001 ] } },
{ "type": "Feature", "properties": { "内容": "くさかべ整形外科【通所リハビリテーション】京都府京都市上京区蘆山寺通智恵光院西入ル戌亥町150", "url": "https://www.kaigokensaku.mhlw.go.jp/26/index.php?action_kouhyou_detail_004_kani=true&JigyosyoCd=2610204113-00&ServiceCd=160&Type=search", "url2": null }, "geometry": { "type": "Point", "coordinates": [ 135.744413667279218, 35.035251405823644 ] } },
{ "type": "Feature", "properties": { "内容": "医療法人　幸生会　室町病院通所リハビリテーション【通所リハビリテーション】京都府京都市上京区室町通上立売下る裏築地町88医療法人幸生会　室町病院", "url": "https://www.kaigokensaku.mhlw.go.jp/26/index.php?action_kouhyou_detail_004_kani=true&JigyosyoCd=2610202158-00&ServiceCd=160&Type=search", "url2": "http://www.muromachi.or.jp/" }, "geometry": { "type": "Point", "coordinates": [ 135.758164099999988, 35.0310447 ] } },
{ "type": "Feature", "properties": { "内容": "医療法人　相馬病院通所リハビリセンター【通所リハビリテーション】京都市上京区今小路通御前通東入西今小路町797番地上京老人デイサービスセンター2階", "url": "https://www.kaigokensaku.mhlw.go.jp/26/index.php?action_kouhyou_detail_004_kani=true&JigyosyoCd=2610200780-00&ServiceCd=160&Type=search", "url2": "http//www.sohma-hp.or.jp/" }, "geometry": { "type": "Point", "coordinates": [ 135.73692984418031, 35.028291761067649 ] } },
{ "type": "Feature", "properties": { "内容": "医療法人愛寿会同仁病院通所リハビリテーション【通所リハビリテーション】京都府京都市上京区一条通東日野殿町394-1", "url": "https://www.kaigokensaku.mhlw.go.jp/26/index.php?action_kouhyou_detail_004_kani=true&JigyosyoCd=2610203602-00&ServiceCd=160&Type=search", "url2": "http://www.dohjin-hp.com" }, "geometry": { "type": "Point", "coordinates": [ 135.7573444, 35.0264644 ] } },
{ "type": "Feature", "properties": { "内容": "社会医療法人西陣健康会　クリニックほりかわ【通所リハビリテーション】京都府京都市上京区堀川通今出川上る北舟橋町845番地", "url": "https://www.kaigokensaku.mhlw.go.jp/26/index.php?action_kouhyou_detail_004_kani=true&JigyosyoCd=2610204121-00&ServiceCd=160&Type=search", "url2": "http://www.horikawa-hp.or.jp/" }, "geometry": { "type": "Point", "coordinates": [ 135.7523064732178, 35.031115324657982 ] } },
{ "type": "Feature", "properties": { "内容": "(医)敬幸会　垣田医院　通所リハビリテーション【通所リハビリテーション】京都市上京区智恵光院通中立売下ル山里町238-8", "url": "https://www.kaigokensaku.mhlw.go.jp/26/index.php?action_kouhyou_detail_004_kani=true&JigyosyoCd=2610203388-00&ServiceCd=160&Type=search", "url2": "http://kakitaclinic.com" }, "geometry": { "type": "Point", "coordinates": [ 135.749697, 35.0323732 ] } },
{ "type": "Feature", "properties": { "内容": "医療法人寿尚会洛陽病院【通所リハビリテーション】京都府京都市左京区岩倉上蔵町143", "url": "https://www.kaigokensaku.mhlw.go.jp/26/index.php?action_kouhyou_detail_004_kani=true&JigyosyoCd=2610600849-00&ServiceCd=160&Type=search", "url2": "http://www.rakuyohp.or.jp" }, "geometry": { "type": "Point", "coordinates": [ 135.783629900000051, 35.0793151 ] } },
{ "type": "Feature", "properties": { "内容": "医療法人社団　テイ医院　テイ・デイケアセンター【通所リハビリテーション】京都市左京区浄土寺下南田町3-5", "url": "https://www.kaigokensaku.mhlw.go.jp/26/index.php?action_kouhyou_detail_004_kani=true&JigyosyoCd=2610605491-00&ServiceCd=160&Type=search", "url2": "http://www.tei.or.jp" }, "geometry": { "type": "Point", "coordinates": [ 135.793863200000033, 35.0227576 ] } },
{ "type": "Feature", "properties": { "内容": "上原医院【通所リハビリテーション】京都府京都市左京区田中大堰町87", "url": "https://www.kaigokensaku.mhlw.go.jp/26/index.php?action_kouhyou_detail_004_kani=true&JigyosyoCd=2610604536-00&ServiceCd=160&Type=search", "url2": "http://www" }, "geometry": { "type": "Point", "coordinates": [ 135.7766173, 35.030118 ] } },
{ "type": "Feature", "properties": { "内容": "介護老人保健施設　おおはら雅の郷【通所リハビリテーション】京都府京都市左京区大原野村町514", "url": "https://www.kaigokensaku.mhlw.go.jp/26/index.php?action_kouhyou_detail_004_kani=true&JigyosyoCd=2650680073-00&ServiceCd=160&Type=search", "url2": "http://www.kouryokai.jp/" }, "geometry": { "type": "Point", "coordinates": [ 135.819281300000057, 35.1120065 ] } },
{ "type": "Feature", "properties": { "内容": "医療法人稲門会　介護老人保健施設フェアウインドきの【通所リハビリテーション】京都市左京区岩倉幡枝町2250", "url": "https://www.kaigokensaku.mhlw.go.jp/26/index.php?action_kouhyou_detail_004_kani=true&JigyosyoCd=2650680081-00&ServiceCd=160&Type=search", "url2": "http://www:toumonkai.net/" }, "geometry": { "type": "Point", "coordinates": [ 135.77431409999997, 35.0696551 ] } },
{ "type": "Feature", "properties": { "内容": "公益社団法人信和会　川端診療所　通所リハビリテーション【通所リハビリテーション】京都市左京区川端通夷川上ル新生洲町100", "url": "https://www.kaigokensaku.mhlw.go.jp/26/index.php?action_kouhyou_detail_004_kani=true&JigyosyoCd=2610604080-00&ServiceCd=160&Type=search", "url2": "http://www.kawabata.or.jp/" }, "geometry": { "type": "Point", "coordinates": [ 135.778547500000059, 35.0485688 ] } },
{ "type": "Feature", "properties": { "内容": "市田医院デイケア【通所リハビリテーション】京都市左京区下鴨松ノ木町19", "url": "https://www.kaigokensaku.mhlw.go.jp/26/index.php?action_kouhyou_detail_004_kani=true&JigyosyoCd=2610605897-00&ServiceCd=160&Type=search", "url2": "https://ichida-iin.com/" }, "geometry": { "type": "Point", "coordinates": [ 135.769084300000031, 35.0411474 ] } },
{ "type": "Feature", "properties": { "内容": "京都民医連あすかい診療所　通所リハビリテーション【通所リハビリテーション】京都府京都市左京区田中飛鳥井町43-7あすかい診療所", "url": "https://www.kaigokensaku.mhlw.go.jp/26/index.php?action_kouhyou_detail_004_kani=true&JigyosyoCd=2610606432-00&ServiceCd=160&Type=search", "url2": "http://www.shinwakai-min.com/kyoto2hp/kanja/asukai.html" }, "geometry": { "type": "Point", "coordinates": [ 135.779639399999951, 35.0314873 ] } },
{ "type": "Feature", "properties": { "内容": "介護老人保健施設　博寿苑【通所リハビリテーション】京都市左京区大原戸寺町383", "url": "https://www.kaigokensaku.mhlw.go.jp/26/index.php?action_kouhyou_detail_004_kani=true&JigyosyoCd=2650680016-00&ServiceCd=160&Type=search", "url2": "http://www.kouryokai.jp" }, "geometry": { "type": "Point", "coordinates": [ 135.8217588, 35.1044158 ] } },
{ "type": "Feature", "properties": { "内容": "介護老人保健施設　しずはうす【通所リハビリテーション】京都市左京区静市静原町548", "url": "https://www.kaigokensaku.mhlw.go.jp/26/index.php?action_kouhyou_detail_004_kani=true&JigyosyoCd=2650680032-00&ServiceCd=160&Type=search", "url2": "http://www.toumonkai.net/" }, "geometry": { "type": "Point", "coordinates": [ 135.779902399999969, 35.1034372 ] } },
{ "type": "Feature", "properties": { "内容": "友々苑　通所リハビリテーション【通所リハビリテーション】京都市左京区静市市原町447-1", "url": "https://www.kaigokensaku.mhlw.go.jp/26/index.php?action_kouhyou_detail_004_kani=true&JigyosyoCd=2650680040-00&ServiceCd=160&Type=search", "url2": "https://www.yuyuen.or.jp/" }, "geometry": { "type": "Point", "coordinates": [ 135.75624629999993, 35.0835007 ] } },
{ "type": "Feature", "properties": { "内容": "バプテスト老人保健施設【通所リハビリテーション】京都市左京区北白川山ノ元町47", "url": "https://www.kaigokensaku.mhlw.go.jp/26/index.php?action_kouhyou_detail_004_kani=true&JigyosyoCd=2650680057-00&ServiceCd=160&Type=search", "url2": "http://www.jbh.or.jp/roken/" }, "geometry": { "type": "Point", "coordinates": [ 135.796299459150219, 35.033944316112205 ] } },
{ "type": "Feature", "properties": { "内容": "公益社団法人信和会　介護医療院茶山のさと【通所リハビリテーション】京都府京都市左京区田中上大久保町15番地", "url": "https://www.kaigokensaku.mhlw.go.jp/26/index.php?action_kouhyou_detail_004_kani=true&JigyosyoCd=26B0600029-00&ServiceCd=160&Type=search", "url2": "https://shinwakai-min.com/cyayamanosato/" }, "geometry": { "type": "Point", "coordinates": [ 135.782878596434017, 35.038053502113478 ] } },
{ "type": "Feature", "properties": { "内容": "介護老人保健施設紫雲苑　通所リハビリテーション【通所リハビリテーション】京都府京都市左京区岩倉上蔵町303番地", "url": "https://www.kaigokensaku.mhlw.go.jp/26/index.php?action_kouhyou_detail_004_kani=true&JigyosyoCd=2650680024-00&ServiceCd=160&Type=search", "url2": "http://www.sankokai.jp/" }, "geometry": { "type": "Point", "coordinates": [ 135.780827400000021, 35.0800955 ] } },
{ "type": "Feature", "properties": { "内容": "ゆうクリニック【通所リハビリテーション】京都府京都市中京区西ノ京北小路町17-2", "url": "https://www.kaigokensaku.mhlw.go.jp/26/index.php?action_kouhyou_detail_004_kani=true&JigyosyoCd=2610308781-00&ServiceCd=160&Type=search", "url2": "http://www.myclinic.ne.jp/yoo/" }, "geometry": { "type": "Point", "coordinates": [ 135.7338102, 35.0092165 ] } },
{ "type": "Feature", "properties": { "内容": "介護老人保健施設　洛和デイセンターイリオス【通所リハビリテーション】京都市中京区聚楽廻西町186", "url": "https://www.kaigokensaku.mhlw.go.jp/26/index.php?action_kouhyou_detail_004_kani=true&JigyosyoCd=2650380013-00&ServiceCd=160&Type=search", "url2": "http://www.rakuwa.or.jp" }, "geometry": { "type": "Point", "coordinates": [ 135.7394011, 35.0173381 ] } },
{ "type": "Feature", "properties": { "内容": "アンチエイジングリハビリテーション回生【通所リハビリテーション】京都市中京区御幸町通錦小路上ル船屋町382番地", "url": "https://www.kaigokensaku.mhlw.go.jp/26/index.php?action_kouhyou_detail_004_kani=true&JigyosyoCd=2610300705-00&ServiceCd=160&Type=search", "url2": "http://www.kaiseikai.or.jp" }, "geometry": { "type": "Point", "coordinates": [ 135.766152820745873, 35.005543638016874 ] } },
{ "type": "Feature", "properties": { "内容": "医療法人清仁会　シミズ四条大宮クリニック【通所リハビリテーション】京都市中京区壬生賀陽御所町3-1京都幸ビル2階", "url": "https://www.kaigokensaku.mhlw.go.jp/26/index.php?action_kouhyou_detail_004_kani=true&JigyosyoCd=2610306868-00&ServiceCd=160&Type=search", "url2": "http://www.shimizu-hospital.or.jp/" }, "geometry": { "type": "Point", "coordinates": [ 135.746398099999965, 35.003409 ] } },
{ "type": "Feature", "properties": { "内容": "介護老人保健施設西の京通所リハビリテーション【通所リハビリテーション】京都市中京区西ノ京小掘池町16番地", "url": "https://www.kaigokensaku.mhlw.go.jp/26/index.php?action_kouhyou_detail_004_kani=true&JigyosyoCd=2650380021-00&ServiceCd=160&Type=search", "url2": "https://www.hoken-fukushi.or.jp" }, "geometry": { "type": "Point", "coordinates": [ 135.726413211981225, 35.014590334884204 ] } },
{ "type": "Feature", "properties": { "内容": "公益社団法人信和会　東山診療所【通所リハビリテーション】京都市東山区今熊野宝蔵町43", "url": "https://www.kaigokensaku.mhlw.go.jp/26/index.php?action_kouhyou_detail_004_kani=true&JigyosyoCd=2610803013-00&ServiceCd=160&Type=search", "url2": "http://www6.ocn.ne.jp/hgsym43/" }, "geometry": { "type": "Point", "coordinates": [ 135.775292799999988, 34.9845641 ] } },
{ "type": "Feature", "properties": { "内容": "東山診療所　通所リハビリテーション【通所リハビリテーション】京都府東山区今熊野宝蔵町43", "url": "https://www.kaigokensaku.mhlw.go.jp/26/index.php?action_kouhyou_detail_004_kani=true&JigyosyoCd=2610804599-00&ServiceCd=160&Type=search", "url2": "https://shinwakai-min.com/higashiyama/" }, "geometry": { "type": "Point", "coordinates": [ 135.7752965, 34.9845431 ] } },
{ "type": "Feature", "properties": { "内容": "医療法人愛友会　明石病院【通所リハビリテーション】西七条南衣田町９３", "url": "https://www.kaigokensaku.mhlw.go.jp/26/index.php?action_kouhyou_detail_004_kani=true&JigyosyoCd=2610403616-00&ServiceCd=160&Type=search", "url2": "http://www.iyukai.or.jp" }, "geometry": { "type": "Point", "coordinates": [ 135.73275287197464, 34.988606944289735 ] } },
{ "type": "Feature", "properties": { "内容": "医療法人　川口内科医院　デイケア【通所リハビリテーション】京都市下京区七条通油小路東入大黒町253", "url": "https://www.kaigokensaku.mhlw.go.jp/26/index.php?action_kouhyou_detail_004_kani=true&JigyosyoCd=2610405322-00&ServiceCd=160&Type=search", "url2": "https://kawaguchi-naika.jp/" }, "geometry": { "type": "Point", "coordinates": [ 135.7555334, 34.9876552 ] } },
{ "type": "Feature", "properties": { "内容": "医療法人　回生会　京都回生病院デイケアセンター【通所リハビリテーション】京都府京都市下京区中堂寺庄ノ内町8番地の1", "url": "https://www.kaigokensaku.mhlw.go.jp/26/index.php?action_kouhyou_detail_004_kani=true&JigyosyoCd=2610400539-00&ServiceCd=160&Type=search", "url2": "http://www.kaiseikai.or.jp" }, "geometry": { "type": "Point", "coordinates": [ 135.738821069915161, 34.998375746851664 ] } },
{ "type": "Feature", "properties": { "内容": "社会医療法人健康会　内浜診療所【通所リハビリテーション】京都市下京区七条通河原町東入ル材木町460", "url": "https://www.kaigokensaku.mhlw.go.jp/26/index.php?action_kouhyou_detail_004_kani=true&JigyosyoCd=2610402196-00&ServiceCd=160&Type=search", "url2": "http://www.kyotominami.or.jp/" }, "geometry": { "type": "Point", "coordinates": [ 135.76451880019988, 34.989470288790578 ] } },
{ "type": "Feature", "properties": { "内容": "社会医療法人健康会　第二南診療所【通所リハビリテーション】京都市下京区東中筋通花屋町下ル柳町332", "url": "https://www.kaigokensaku.mhlw.go.jp/26/index.php?action_kouhyou_detail_004_kani=true&JigyosyoCd=2610404101-00&ServiceCd=160&Type=search", "url2": "http://www.kyotominami.or.jp/" }, "geometry": { "type": "Point", "coordinates": [ 135.754380050123586, 34.991970914206746 ] } },
{ "type": "Feature", "properties": { "内容": "医療法人社団恵心会　京都武田病院【通所リハビリテーション】京都市下京区西七条南衣田町11番地", "url": "https://www.kaigokensaku.mhlw.go.jp/26/index.php?action_kouhyou_detail_004_kani=true&JigyosyoCd=2610405843-00&ServiceCd=160&Type=search", "url2": "http://www.kyototakeda.jp" }, "geometry": { "type": "Point", "coordinates": [ 135.730793, 34.988638700000031 ] } },
{ "type": "Feature", "properties": { "内容": "社会医療法人健康会　介護老人保健施設ぬくもりの里【通所リハビリテーション】京都市下京区七条御所ノ内西町68", "url": "https://www.kaigokensaku.mhlw.go.jp/26/index.php?action_kouhyou_detail_004_kani=true&JigyosyoCd=2650480029-00&ServiceCd=160&Type=search", "url2": "http://www.kyotominami.or.jp/" }, "geometry": { "type": "Point", "coordinates": [ 135.728205370638989, 34.987355279813634 ] } },
{ "type": "Feature", "properties": { "内容": "介護老人保健施設じゅんぷう【通所リハビリテーション】京都府京都市下京区西堀川通松原下る橋橘町1番地", "url": "https://www.kaigokensaku.mhlw.go.jp/26/index.php?action_kouhyou_detail_004_kani=true&JigyosyoCd=2650480037-00&ServiceCd=160&Type=search", "url2": "http://www.junepooh.com" }, "geometry": { "type": "Point", "coordinates": [ 135.7517890362152, 34.998685748187143 ] } },
{ "type": "Feature", "properties": { "内容": "医療法人天翔会　第二上田リハビリテーション診療所【通所リハビリテーション】京都府京都市南区唐橋堂ノ前町49-2", "url": "https://www.kaigokensaku.mhlw.go.jp/26/index.php?action_kouhyou_detail_004_kani=true&JigyosyoCd=2610503241-00&ServiceCd=160&Type=search", "url2": "http://www.kyoto-reha.jp" }, "geometry": { "type": "Point", "coordinates": [ 135.7391682, 34.9789249 ] } },
{ "type": "Feature", "properties": { "内容": "医療法人社団　健貢会　山田医院【通所リハビリテーション】京都府京都市南区唐橋琵琶町12-4", "url": "https://www.kaigokensaku.mhlw.go.jp/26/index.php?action_kouhyou_detail_004_kani=true&JigyosyoCd=2610503167-00&ServiceCd=160&Type=search", "url2": "yamadaiin.com" }, "geometry": { "type": "Point", "coordinates": [ 135.7387238, 34.977558400000014 ] } },
{ "type": "Feature", "properties": { "内容": "京都九条病院　通所リハビリテーション【通所リハビリテーション】京都府京都市南区唐橋羅城門町１０番地", "url": "https://www.kaigokensaku.mhlw.go.jp/26/index.php?action_kouhyou_detail_004_kani=true&JigyosyoCd=2610500205-00&ServiceCd=160&Type=search", "url2": "https://www.dojinkai.com/kujohp/" }, "geometry": { "type": "Point", "coordinates": [ 135.741168, 34.9784151 ] } },
{ "type": "Feature", "properties": { "内容": "介護老人保健施設マムクオーレ通所リハビリテーション【通所リハビリテーション】京都府京都市南区吉祥院南落合町40番地3", "url": "https://www.kaigokensaku.mhlw.go.jp/26/index.php?action_kouhyou_detail_004_kani=true&JigyosyoCd=2650580018-00&ServiceCd=160&Type=search", "url2": "http://www.dojinkai.com/mam/" }, "geometry": { "type": "Point", "coordinates": [ 135.74043759999995, 34.9729894 ] } },
{ "type": "Feature", "properties": { "内容": "介護老人保健施設マムクオーレⅡ【通所リハビリテーション】唐橋羅城門町38マム・スクエア内", "url": "https://www.kaigokensaku.mhlw.go.jp/26/index.php?action_kouhyou_detail_004_kani=true&JigyosyoCd=2650580026-00&ServiceCd=160&Type=search", "url2": "ｈｔｔｐ：//www.dojinkai.com" }, "geometry": { "type": "Point", "coordinates": [ 135.74043759999995, 34.979238799999983 ] } },
{ "type": "Feature", "properties": { "内容": "医療法人　たけだ診療所　通所リハビリテーション”ほのぼの”【通所リハビリテーション】京都府京都市右京区西京極北大入町65番地　天神川ビル", "url": "https://www.kaigokensaku.mhlw.go.jp/26/index.php?action_kouhyou_detail_004_kani=true&JigyosyoCd=2610706240-00&ServiceCd=160&Type=search", "url2": null }, "geometry": { "type": "Point", "coordinates": [ 135.715239800000063, 34.9990281 ] } },
{ "type": "Feature", "properties": { "内容": "山本クリニック【通所リハビリテーション】京都市右京区京北周山町室谷1の2", "url": "https://www.kaigokensaku.mhlw.go.jp/26/index.php?action_kouhyou_detail_004_kani=true&JigyosyoCd=2610706042-00&ServiceCd=160&Type=search", "url2": "http://www.ukyo.kyoto.med.or.jp/area/keihoku/yamamotoclinic.html" }, "geometry": { "type": "Point", "coordinates": [ 135.6342912, 35.1526497 ] } },
{ "type": "Feature", "properties": { "内容": "京都市京北通所リハビリテーションはなふるさと【通所リハビリテーション】京都市右京区京北下中町鳥谷３番地", "url": "https://www.kaigokensaku.mhlw.go.jp/26/index.php?action_kouhyou_detail_004_kani=true&JigyosyoCd=2619600329-00&ServiceCd=160&Type=search", "url2": "http://www.kch-org.jp/keihoku/" }, "geometry": { "type": "Point", "coordinates": [ 135.634392199999979, 35.1980529 ] } },
{ "type": "Feature", "properties": { "内容": "医療法人社団　小室整形外科医院【通所リハビリテーション】京都市右京区嵯峨野開町21", "url": "https://www.kaigokensaku.mhlw.go.jp/26/index.php?action_kouhyou_detail_004_kani=true&JigyosyoCd=2610704765-00&ServiceCd=160&Type=search", "url2": "http://www.komuro-clinic.com/" }, "geometry": { "type": "Point", "coordinates": [ 135.696718899999951, 35.0145934 ] } },
{ "type": "Feature", "properties": { "内容": "通所リハビリテーションすこやか倶楽部【通所リハビリテーション】京都市右京区太秦一の井町31番地", "url": "https://www.kaigokensaku.mhlw.go.jp/26/index.php?action_kouhyou_detail_004_kani=true&JigyosyoCd=2610705796-00&ServiceCd=160&Type=search", "url2": "https://i-seishin.or.jp/" }, "geometry": { "type": "Point", "coordinates": [ 135.709409400000027, 35.0163683 ] } },
{ "type": "Feature", "properties": { "内容": "daycareS【通所リハビリテーション】梅津堤下町28", "url": "https://www.kaigokensaku.mhlw.go.jp/26/index.php?action_kouhyou_detail_004_kani=true&JigyosyoCd=2610707347-00&ServiceCd=160&Type=search", "url2": "https://www.shikata-iin.com/" }, "geometry": { "type": "Point", "coordinates": [ 135.708493, 34.9999018 ] } },
{ "type": "Feature", "properties": { "内容": "イトウ診療所通所リハビリテーション“ナイスデイ”【通所リハビリテーション】京都市右京区常盤東ノ町22の3", "url": "https://www.kaigokensaku.mhlw.go.jp/26/index.php?action_kouhyou_detail_004_kani=true&JigyosyoCd=2610704252-00&ServiceCd=160&Type=search", "url2": "http://www.myclinic.ne.jp/itoclinic/pc/" }, "geometry": { "type": "Point", "coordinates": [ 135.709176, 35.0202235 ] } },
{ "type": "Feature", "properties": { "内容": "医療法人社団京健会さいきょうクリニック通所リハビリテーション【通所リハビリテーション】西院北矢掛町39-1", "url": "https://www.kaigokensaku.mhlw.go.jp/26/index.php?action_kouhyou_detail_004_kani=true&JigyosyoCd=2610707156-00&ServiceCd=160&Type=search", "url2": "https://saikyo-clinic.com" }, "geometry": { "type": "Point", "coordinates": [ 135.7302264, 35.0020283 ] } },
{ "type": "Feature", "properties": { "内容": "一般財団法人高雄病院指定通所リハビリテーション事業所【通所リハビリテーション】京都市右京区梅ケ畑畑町3", "url": "https://www.kaigokensaku.mhlw.go.jp/26/index.php?action_kouhyou_detail_004_kani=true&JigyosyoCd=26B0700035-00&ServiceCd=160&Type=search", "url2": "http://takao-hospital.jp/" }, "geometry": { "type": "Point", "coordinates": [ 135.694495100000012, 35.037109 ] } },
{ "type": "Feature", "properties": { "内容": "ケア・スポット梅津　通所リハビリテーション【通所リハビリテーション】京都府京都市右京区梅津尻溝町66-1", "url": "https://www.kaigokensaku.mhlw.go.jp/26/index.php?action_kouhyou_detail_004_kani=true&JigyosyoCd=2650780022-00&ServiceCd=160&Type=search", "url2": "http://carespotumezu.jimdo.com/" }, "geometry": { "type": "Point", "coordinates": [ 135.696158200000013, 35.0006169 ] } },
{ "type": "Feature", "properties": { "内容": "介護老人保健施設マリアンヌ【通所リハビリテーション】京都府京都市右京区梅津中倉町10", "url": "https://www.kaigokensaku.mhlw.go.jp/26/index.php?action_kouhyou_detail_004_kani=true&JigyosyoCd=2650780048-00&ServiceCd=160&Type=search", "url2": "http://www.kenshokai.group" }, "geometry": { "type": "Point", "coordinates": [ 135.692011399999956, 35.0025806 ] } },
{ "type": "Feature", "properties": { "内容": "社会福祉法人浩照会伏見桃山総合病院【通所リハビリテーション】京都府京都市伏見区下油掛町895", "url": "https://www.kaigokensaku.mhlw.go.jp/26/index.php?action_kouhyou_detail_004_kani=true&JigyosyoCd=2610907574-00&ServiceCd=160&Type=search", "url2": "http:www.ajisai-kosyokai.com/hospital" }, "geometry": { "type": "Point", "coordinates": [ 135.75893659999997, 34.9318766 ] } },
{ "type": "Feature", "properties": { "内容": "医療法人　古川医院　デイ・ケア【通所リハビリテーション】京都府京都市伏見区桃山町養斎19-22", "url": "https://www.kaigokensaku.mhlw.go.jp/26/index.php?action_kouhyou_detail_004_kani=true&JigyosyoCd=2610905172-00&ServiceCd=160&Type=search", "url2": null }, "geometry": { "type": "Point", "coordinates": [ 135.785112932540869, 34.928405667994816 ] } },
{ "type": "Feature", "properties": { "内容": "デイケアセンターすこやか【通所リハビリテーション】京都市伏見区深草谷口町69-1", "url": "https://www.kaigokensaku.mhlw.go.jp/26/index.php?action_kouhyou_detail_004_kani=true&JigyosyoCd=2610907129-00&ServiceCd=160&Type=search", "url2": "http:/ｗｗｗ.i-kouseikai.com" }, "geometry": { "type": "Point", "coordinates": [ 135.782583299999942, 34.9525203 ] } },
{ "type": "Feature", "properties": { "内容": "医療法人高生会　デイケアセンターほがらか【通所リハビリテーション】京都府京都市伏見区深草直違橋4丁目359番地1医療法人高生会ホームケアクリニック", "url": "https://www.kaigokensaku.mhlw.go.jp/26/index.php?action_kouhyou_detail_004_kani=true&JigyosyoCd=2610907855-00&ServiceCd=160&Type=search", "url2": "http://www.i-kouseikai.com" }, "geometry": { "type": "Point", "coordinates": [ 135.7709171, 34.9578492 ] } },
{ "type": "Feature", "properties": { "内容": "老人保健施設アールそせい【通所リハビリテーション】京都市伏見区中島中道町87", "url": "https://www.kaigokensaku.mhlw.go.jp/26/index.php?action_kouhyou_detail_004_kani=true&JigyosyoCd=2650980010-00&ServiceCd=160&Type=search", "url2": "http://www.soseikai.or.jp/rsosei" }, "geometry": { "type": "Point", "coordinates": [ 135.746639433580185, 34.947004866149207 ] } },
{ "type": "Feature", "properties": { "内容": "医療法人　新生十全会　デイケアなごみの里【通所リハビリテーション】京都府京都市伏見区日野西風呂町5番地", "url": "https://www.kaigokensaku.mhlw.go.jp/26/index.php?action_kouhyou_detail_004_kani=true&JigyosyoCd=26B0900015-00&ServiceCd=160&Type=search", "url2": "http://www.juzenkai.or.jp/nagomi" }, "geometry": { "type": "Point", "coordinates": [ 135.8129104, 34.9356804 ] } },
{ "type": "Feature", "properties": { "内容": "介護老人保健施設　京しみず【通所リハビリテーション】京都市伏見区羽束師古川町177番地", "url": "https://www.kaigokensaku.mhlw.go.jp/26/index.php?action_kouhyou_detail_004_kani=true&JigyosyoCd=2650980044-00&ServiceCd=160&Type=search", "url2": "https://ksmcs.jp/ks/" }, "geometry": { "type": "Point", "coordinates": [ 135.723007199999984, 34.9250334 ] } },
{ "type": "Feature", "properties": { "内容": "老人保健施設　白寿【通所リハビリテーション】京都市伏見区石田森南町9番地", "url": "https://www.kaigokensaku.mhlw.go.jp/26/index.php?action_kouhyou_detail_004_kani=true&JigyosyoCd=2650980119-00&ServiceCd=160&Type=search", "url2": "https://www.takedahp.or.jp/group/welfare/hakuju/index.html" }, "geometry": { "type": "Point", "coordinates": [ 135.805061300000034, 34.9390305 ] } },
{ "type": "Feature", "properties": { "内容": "深草京しみずデイケア【通所リハビリテーション】京都府京都市市伏見区深草越後屋敷町17番地", "url": "https://www.kaigokensaku.mhlw.go.jp/26/index.php?action_kouhyou_detail_004_kani=true&JigyosyoCd=2650980127-00&ServiceCd=160&Type=search", "url2": "http://ksmcs.jp/" }, "geometry": { "type": "Point", "coordinates": [ 135.763945899999953, 34.9493644 ] } },
{ "type": "Feature", "properties": { "内容": "老人保健施設　第2アールそせい【通所リハビリテーション】京都市伏見区下鳥羽上三栖町129番地", "url": "https://www.kaigokensaku.mhlw.go.jp/26/index.php?action_kouhyou_detail_004_kani=true&JigyosyoCd=2650980028-00&ServiceCd=160&Type=search", "url2": "http://www.soseikai.or.jp" }, "geometry": { "type": "Point", "coordinates": [ 135.746219399999973, 34.9332713 ] } },
{ "type": "Feature", "properties": { "内容": "介護老人保健施設　第二京しみず【通所リハビリテーション】京都市伏見区向島清水町45-1", "url": "https://www.kaigokensaku.mhlw.go.jp/26/index.php?action_kouhyou_detail_004_kani=true&JigyosyoCd=2650980077-00&ServiceCd=160&Type=search", "url2": "https://ksmcs.jp/ks2/" }, "geometry": { "type": "Point", "coordinates": [ 135.783441, 34.9198677 ] } },
{ "type": "Feature", "properties": { "内容": "介護老人保健施設ハーモニーこが【通所リハビリテーション】京都市伏見区久我森の宮町3-6", "url": "https://www.kaigokensaku.mhlw.go.jp/26/index.php?action_kouhyou_detail_004_kani=true&JigyosyoCd=2650980051-00&ServiceCd=160&Type=search", "url2": "http://www.kurashino-harmony.or.jp" }, "geometry": { "type": "Point", "coordinates": [ 135.730598699999973, 34.9415231 ] } },
{ "type": "Feature", "properties": { "内容": "介護老人保健施設あじさいガーデン伏見通所リハビリテーション【通所リハビリテーション】京都府京都市伏見区向島ニノ丸町151番81", "url": "https://www.kaigokensaku.mhlw.go.jp/26/index.php?action_kouhyou_detail_004_kani=true&JigyosyoCd=2650980069-00&ServiceCd=160&Type=search", "url2": "https://koshokai-swc.or.jp" }, "geometry": { "type": "Point", "coordinates": [ 135.770852200000036, 34.9144398 ] } },
{ "type": "Feature", "properties": { "内容": "せんしゅんかいデイケアセンター御陵【通所リハビリテーション】京都府京都市伏見区桃山与五郎町1-589", "url": "https://www.kaigokensaku.mhlw.go.jp/26/index.php?action_kouhyou_detail_004_kani=true&JigyosyoCd=2650980135-00&ServiceCd=160&Type=search", "url2": "http://www.senshunkai.or.jp" }, "geometry": { "type": "Point", "coordinates": [ 135.78166340000007, 34.9297195 ] } },
{ "type": "Feature", "properties": { "内容": "介護老人保健施設　醍醐の里【通所リハビリテーション】京都府京都市伏見区醍醐内ケ井戸19番地1", "url": "https://www.kaigokensaku.mhlw.go.jp/26/index.php?action_kouhyou_detail_004_kani=true&JigyosyoCd=2650980085-00&ServiceCd=160&Type=search", "url2": "http://www.daigonosato.or.jp" }, "geometry": { "type": "Point", "coordinates": [ 135.823045800000045, 34.9636621 ] } },
{ "type": "Feature", "properties": { "内容": "洛和デイセンターウラノス【通所リハビリテーション】淀美豆町1133番地", "url": "https://www.kaigokensaku.mhlw.go.jp/26/index.php?action_kouhyou_detail_004_kani=true&JigyosyoCd=2650980143-00&ServiceCd=160&Type=search", "url2": "https://www.rakuwa.or.jp/" }, "geometry": { "type": "Point", "coordinates": [ 135.706479699999988, 34.8956882 ] } },
{ "type": "Feature", "properties": { "内容": "通所リハビリテーション小野【通所リハビリテーション】京都市山科区勧修寺閑林寺83-6", "url": "https://www.kaigokensaku.mhlw.go.jp/26/index.php?action_kouhyou_detail_004_kani=true&JigyosyoCd=2614102172-00&ServiceCd=160&Type=search", "url2": "http://www.kyowa-hp.jp" }, "geometry": { "type": "Point", "coordinates": [ 135.811430400000063, 34.9560403 ] } },
{ "type": "Feature", "properties": { "内容": "一般社団法人愛生会　介護老人保健施設おおやけの里【通所リハビリテーション】京都市山科区大宅向山10番5", "url": "https://www.kaigokensaku.mhlw.go.jp/26/index.php?action_kouhyou_detail_004_kani=true&JigyosyoCd=2654180021-00&ServiceCd=160&Type=search", "url2": "http://www.aiseikaihp.or.jp/" }, "geometry": { "type": "Point", "coordinates": [ 135.82083769999997, 34.9646703 ] } },
{ "type": "Feature", "properties": { "内容": "医療法人稜陽会　住田リハビリテーションクリニック【通所リハビリテーション】京都府京都市山科区安朱南屋敷町3-56", "url": "https://www.kaigokensaku.mhlw.go.jp/26/index.php?action_kouhyou_detail_004_kani=true&JigyosyoCd=2614103113-00&ServiceCd=160&Type=search", "url2": "https://sumida-reha.com/" }, "geometry": { "type": "Point", "coordinates": [ 135.8180491, 34.9904024 ] } },
{ "type": "Feature", "properties": { "内容": "公益社団法人　信和会　大宅診療所【通所リハビリテーション】京都市山科区大宅早稲ノ内町2番地大宅診療所2階", "url": "https://www.kaigokensaku.mhlw.go.jp/26/index.php?action_kouhyou_detail_004_kani=true&JigyosyoCd=2614102230-00&ServiceCd=160&Type=search", "url2": "http://www.shinwakai-min.com/oyake/" }, "geometry": { "type": "Point", "coordinates": [ 135.816238200000043, 34.9683837 ] } },
{ "type": "Feature", "properties": { "内容": "医療法人医仁会　老人保健施設いわやの里【通所リハビリテーション】京都府京都市山科区大宅古海道町52番地", "url": "https://www.kaigokensaku.mhlw.go.jp/26/index.php?action_kouhyou_detail_004_kani=true&JigyosyoCd=2654180013-00&ServiceCd=160&Type=search", "url2": "http://www.takedahp.or.jp/" }, "geometry": { "type": "Point", "coordinates": [ 135.826431599999978, 34.9707753 ] } },
{ "type": "Feature", "properties": { "内容": "アビイロードやましな通所リハビリテーション【通所リハビリテーション】京都府京都市山科区勧修寺南大日33-1", "url": "https://www.kaigokensaku.mhlw.go.jp/26/index.php?action_kouhyou_detail_004_kani=true&JigyosyoCd=2654180054-00&ServiceCd=160&Type=search", "url2": "http://www.toumonkai.net/" }, "geometry": { "type": "Point", "coordinates": [ 135.802467400000069, 34.9551595 ] } },
{ "type": "Feature", "properties": { "内容": "医療法人新生十全会　通所リハビリテーション　はーとふる東山【通所リハビリテーション】京都市山科区日ノ岡夷谷町11番地", "url": "https://www.kaigokensaku.mhlw.go.jp/26/index.php?action_kouhyou_detail_004_kani=true&JigyosyoCd=2654180047-00&ServiceCd=160&Type=search", "url2": "http://www.juzenkai.or.jp" }, "geometry": { "type": "Point", "coordinates": [ 135.7943603, 35.0003876 ] } },
{ "type": "Feature", "properties": { "内容": "デイケアセンター　香東園やましな【通所リハビリテーション】京都府京都市山科区西野野色町15-88", "url": "https://www.kaigokensaku.mhlw.go.jp/26/index.php?action_kouhyou_detail_004_kani=true&JigyosyoCd=2654180070-00&ServiceCd=160&Type=search", "url2": "http://www.koutouen.com/yamashina/" }, "geometry": { "type": "Point", "coordinates": [ 135.804945301852371, 34.986213588535229 ] } },
{ "type": "Feature", "properties": { "内容": "医療法人弘正会　西京都病院【通所リハビリテーション】西京区御陵溝浦町21-7", "url": "https://www.kaigokensaku.mhlw.go.jp/26/index.php?action_kouhyou_detail_004_kani=true&JigyosyoCd=2614002414-00&ServiceCd=160&Type=search", "url2": "http://www.hospynkh.jp" }, "geometry": { "type": "Point", "coordinates": [ 135.693680699999959, 34.9799743 ] } },
{ "type": "Feature", "properties": { "内容": "医療法人啓友会　洛西けいゆうの里【通所リハビリテーション】京都府京都市西京区大枝東長町1-36", "url": "https://www.kaigokensaku.mhlw.go.jp/26/index.php?action_kouhyou_detail_004_kani=true&JigyosyoCd=2654080015-00&ServiceCd=160&Type=search", "url2": "http://www.keiyukai-nakajima.jp" }, "geometry": { "type": "Point", "coordinates": [ 135.67909, 34.9671865 ] } },
{ "type": "Feature", "properties": { "内容": "医療法人たちいり整形外科医院【通所リハビリテーション】京都市西京区桂西滝川町52", "url": "https://www.kaigokensaku.mhlw.go.jp/26/index.php?action_kouhyou_detail_004_kani=true&JigyosyoCd=2614001184-00&ServiceCd=160&Type=search", "url2": "http://tachiiri.or.jp" }, "geometry": { "type": "Point", "coordinates": [ 135.71304, 34.9774329 ] } },
{ "type": "Feature", "properties": { "内容": "医療法人　清仁会　洛西ニュータウン病院　通所リハビリテーション【通所リハビリテーション】大枝東新林町3丁目6番地", "url": "https://www.kaigokensaku.mhlw.go.jp/26/index.php?action_kouhyou_detail_004_kani=true&JigyosyoCd=2614002539-00&ServiceCd=160&Type=search", "url2": "http://www.shimizu-hospital.or.jp/newtown/" }, "geometry": { "type": "Point", "coordinates": [ 135.673243100000036, 34.9681448 ] } },
{ "type": "Feature", "properties": { "内容": "医療法人京都翔医会　西京都病院デイケア【通所リハビリテーション】京都府京都市西京区御陵溝浦町28番地8", "url": "https://www.kaigokensaku.mhlw.go.jp/26/index.php?action_kouhyou_detail_004_kani=true&JigyosyoCd=2614002984-00&ServiceCd=160&Type=search", "url2": "http://www.hospynkh.jp" }, "geometry": { "type": "Point", "coordinates": [ 135.6940329, 34.9791428 ] } },
{ "type": "Feature", "properties": { "内容": "医療法人清仁会　介護老人保健施設シミズひまわりの里【通所リハビリテーション】京都市西京区大枝沓掛町13-362", "url": "https://www.kaigokensaku.mhlw.go.jp/26/index.php?action_kouhyou_detail_004_kani=true&JigyosyoCd=2654080023-00&ServiceCd=160&Type=search", "url2": "https://www.shimizu-hospital.or.jp./" }, "geometry": { "type": "Point", "coordinates": [ 135.665704600000026, 34.974847 ] } },
{ "type": "Feature", "properties": { "内容": "医療法人　翠生会　老人保健施設　第一緑風苑【通所リハビリテーション】福知山市土師宮町2丁目173番地", "url": "https://www.kaigokensaku.mhlw.go.jp/26/index.php?action_kouhyou_detail_004_kani=true&JigyosyoCd=2652680014-00&ServiceCd=160&Type=search", "url2": "http://www.suiseikai-group.org/" }, "geometry": { "type": "Point", "coordinates": [ 135.144250199999988, 35.2918679 ] } },
{ "type": "Feature", "properties": { "内容": "ふくちやま協立診療所通所リハビリテーションきずな【通所リハビリテーション】京都府福知山市字土１番地", "url": "https://www.kaigokensaku.mhlw.go.jp/26/index.php?action_kouhyou_detail_004_kani=true&JigyosyoCd=2612602256-00&ServiceCd=160&Type=search", "url2": "https://www.kyoto-hokenkai.or.jp/" }, "geometry": { "type": "Point", "coordinates": [ 135.163176199999953, 35.296937100000015 ] } },
{ "type": "Feature", "properties": { "内容": "通所リハビリテーション「あすろ」【通所リハビリテーション】京都府福知山市字堀小字大岩谷３３７４番地", "url": "https://www.kaigokensaku.mhlw.go.jp/26/index.php?action_kouhyou_detail_004_kani=true&JigyosyoCd=2612600375-00&ServiceCd=160&Type=search", "url2": "https://www.fukuchikai.or.jp/asuro/index.php" }, "geometry": { "type": "Point", "coordinates": [ 135.124052252362048, 35.270925331158629 ] } },
{ "type": "Feature", "properties": { "内容": "介護老人保健施設　さくら苑【通所リハビリテーション】京都府福知山市字堀小字大岩谷3374番地", "url": "https://www.kaigokensaku.mhlw.go.jp/26/index.php?action_kouhyou_detail_004_kani=true&JigyosyoCd=2652680022-00&ServiceCd=160&Type=search", "url2": "http://www.fukuchikai.or.jp/sakura/" }, "geometry": { "type": "Point", "coordinates": [ 135.123977150509631, 35.27053553908506 ] } },
{ "type": "Feature", "properties": { "内容": "医療法人　岸本病院【通所リハビリテーション】字浜1131", "url": "https://www.kaigokensaku.mhlw.go.jp/26/index.php?action_kouhyou_detail_004_kani=true&JigyosyoCd=2612701389-00&ServiceCd=160&Type=search", "url2": "http://www.myclinic.ne.jp/kishimoto/pc/index.html" }, "geometry": { "type": "Point", "coordinates": [ 132.708208900000045, 33.7824236 ] } },
{ "type": "Feature", "properties": { "内容": "舞鶴赤十字病院【通所リハビリテーション】字倉谷４２７", "url": "https://www.kaigokensaku.mhlw.go.jp/26/index.php?action_kouhyou_detail_004_kani=true&JigyosyoCd=2619700061-00&ServiceCd=160&Type=search", "url2": "http://maizuru.jrc.or.jp" }, "geometry": { "type": "Point", "coordinates": [ 135.338102400000025, 35.443903 ] } },
{ "type": "Feature", "properties": { "内容": "荒木クリニック　通所リハビリセンター【通所リハビリテーション】京都府舞鶴市字京田小字大角18番地の1", "url": "https://www.kaigokensaku.mhlw.go.jp/26/index.php?action_kouhyou_detail_004_kani=true&JigyosyoCd=2612701751-00&ServiceCd=160&Type=search", "url2": "http://arakiclinic.com" }, "geometry": { "type": "Point", "coordinates": [ 135.328945200000021, 35.4254633 ] } },
{ "type": "Feature", "properties": { "内容": "介護老人保健施設　すこやかの森【通所リハビリテーション】京都府舞鶴市字引土630番地", "url": "https://www.kaigokensaku.mhlw.go.jp/26/index.php?action_kouhyou_detail_004_kani=true&JigyosyoCd=2652780012-00&ServiceCd=160&Type=search", "url2": "http://www.sukoyakanomori.com" }, "geometry": { "type": "Point", "coordinates": [ 135.3235929, 35.4364508 ] } },
{ "type": "Feature", "properties": { "内容": "介護老人保健施設エスペラル東舞鶴【通所リハビリテーション】京都府舞鶴市字大波下小字前田765番16", "url": "https://www.kaigokensaku.mhlw.go.jp/26/index.php?action_kouhyou_detail_004_kani=true&JigyosyoCd=2652780038-00&ServiceCd=160&Type=search", "url2": "https://esp.iseikaihp.com/fcl/esp-hm/" }, "geometry": { "type": "Point", "coordinates": [ 135.4032225, 35.5040746 ] } },
{ "type": "Feature", "properties": { "内容": "介護老人保健施設アザレア舞鶴【通所リハビリテーション】京都府舞鶴市大字和田小字中田１０５５－１", "url": "https://www.kaigokensaku.mhlw.go.jp/26/index.php?action_kouhyou_detail_004_kani=true&JigyosyoCd=2652780020-00&ServiceCd=160&Type=search", "url2": "https://seihoukai-grp.jp/facility_post/maizuru" }, "geometry": { "type": "Point", "coordinates": [ 135.341665613819941, 35.472132194095423 ] } },
{ "type": "Feature", "properties": { "内容": "医療法人　弘愛会　西村内科　さくらプラザ　通所リハビリテーション【通所リハビリテーション】京都府舞鶴市字浜７８２番地", "url": "https://www.kaigokensaku.mhlw.go.jp/26/index.php?action_kouhyou_detail_004_kani=true&JigyosyoCd=2612701447-00&ServiceCd=160&Type=search", "url2": "http://www.eonet.ne.jp/~sakuraplaza/" }, "geometry": { "type": "Point", "coordinates": [ 135.395033980950956, 35.472256281631751 ] } },
{ "type": "Feature", "properties": { "内容": "小谷整形外科医院　通所リハビリテーション【通所リハビリテーション】舞鶴市字伊佐津51-3", "url": "https://www.kaigokensaku.mhlw.go.jp/26/index.php?action_kouhyou_detail_004_kani=true&JigyosyoCd=2612701702-00&ServiceCd=160&Type=search", "url2": "http://www" }, "geometry": { "type": "Point", "coordinates": [ 135.333622399999967, 35.440995 ] } },
{ "type": "Feature", "properties": { "内容": "介護老人保健施設　京都綾部さくらホーム　デイケアセンター【通所リハビリテーション】綾部市高津町遠所1番地611", "url": "https://www.kaigokensaku.mhlw.go.jp/26/index.php?action_kouhyou_detail_004_kani=true&JigyosyoCd=2651880029-00&ServiceCd=160&Type=search", "url2": "http://ayabesakura.jp/" }, "geometry": { "type": "Point", "coordinates": [ 135.2170489, 35.3041432 ] } },
{ "type": "Feature", "properties": { "内容": "老人保健施設あやべ【通所リハビリテーション】綾部市小畑町うずいの98番地の1", "url": "https://www.kaigokensaku.mhlw.go.jp/26/index.php?action_kouhyou_detail_004_kani=true&JigyosyoCd=2651880011-00&ServiceCd=160&Type=search", "url2": "http://ninokunifukusikai.com/" }, "geometry": { "type": "Point", "coordinates": [ 135.203885500000069, 35.344468 ] } },
{ "type": "Feature", "properties": { "内容": "医療法人鉢嶺医院【通所リハビリテーション】京都府宇治市小倉町山際1-3", "url": "https://www.kaigokensaku.mhlw.go.jp/26/index.php?action_kouhyou_detail_004_kani=true&JigyosyoCd=2611202611-00&ServiceCd=160&Type=search", "url2": "https://hatimine-clinic.com/" }, "geometry": { "type": "Point", "coordinates": [ 135.781045, 34.8914474 ] } },
{ "type": "Feature", "properties": { "内容": "社会福祉法人あじろぎ会　宇治病院通所リハビリセンター【通所リハビリテーション】京都府宇治市五ケ庄芝ノ東５４－２", "url": "https://www.kaigokensaku.mhlw.go.jp/26/index.php?action_kouhyou_detail_004_kani=true&JigyosyoCd=2651280030-00&ServiceCd=160&Type=search", "url2": "http://www.uji-hosp.or.jp/" }, "geometry": { "type": "Point", "coordinates": [ 135.801567200000022, 34.917382300000014 ] } },
{ "type": "Feature", "properties": { "内容": "やましろ健康医療生活協同組合【通所リハビリテーション】宇治市大久保町山ノ内19-1", "url": "https://www.kaigokensaku.mhlw.go.jp/26/index.php?action_kouhyou_detail_004_kani=true&JigyosyoCd=2611202348-00&ServiceCd=160&Type=search", "url2": "http://www.iryouseikyou.jp" }, "geometry": { "type": "Point", "coordinates": [ 135.773691099999951, 34.8709815 ] } },
{ "type": "Feature", "properties": { "内容": "おかもとクリニック通所リハビリテーションセンター【通所リハビリテーション】京都府宇治市神明石塚54-18", "url": "https://www.kaigokensaku.mhlw.go.jp/26/index.php?action_kouhyou_detail_004_kani=true&JigyosyoCd=2611203171-00&ServiceCd=160&Type=search", "url2": "https://www.okamoto-hp.or.jp/clinic/riha/" }, "geometry": { "type": "Point", "coordinates": [ 135.78365740000001, 34.8847602 ] } },
{ "type": "Feature", "properties": { "内容": "医療法人社団神野医院　じんのクリニック　デイケアじんの【通所リハビリテーション】京都府宇治市六地蔵町並３９番地じんのクリニック　２階", "url": "https://www.kaigokensaku.mhlw.go.jp/26/index.php?action_kouhyou_detail_004_kani=true&JigyosyoCd=2611203569-00&ServiceCd=160&Type=search", "url2": "http://www.jinno-mg.or.jp" }, "geometry": { "type": "Point", "coordinates": [ 135.7999062, 34.9336086 ] } },
{ "type": "Feature", "properties": { "内容": "志津川五和の園老人保健施設【通所リハビリテーション】京都府宇治市志津川南詰12番地", "url": "https://www.kaigokensaku.mhlw.go.jp/26/index.php?action_kouhyou_detail_004_kani=true&JigyosyoCd=2651280014-00&ServiceCd=160&Type=search", "url2": "http://ituwanosono.sakura.ne.jp" }, "geometry": { "type": "Point", "coordinates": [ 135.8246656, 34.8867468 ] } },
{ "type": "Feature", "properties": { "内容": "介護老人保健施設リハ・ヴィラなぎさ苑【通所リハビリテーション】京都府宮津市字須津2268番地の1", "url": "https://www.kaigokensaku.mhlw.go.jp/26/index.php?action_kouhyou_detail_004_kani=true&JigyosyoCd=2652180015-00&ServiceCd=160&Type=search", "url2": "http://www.hokuseikai.or.jp/nagisaen/" }, "geometry": { "type": "Point", "coordinates": [ 135.159832899999969, 35.5534904 ] } },
{ "type": "Feature", "properties": { "内容": "陽生苑　通所リハビリテーション【通所リハビリテーション】京都府亀岡市篠町篠洗川47番地1", "url": "https://www.kaigokensaku.mhlw.go.jp/26/index.php?action_kouhyou_detail_004_kani=true&JigyosyoCd=2651680023-00&ServiceCd=160&Type=search", "url2": "https://youseien.sakura.ne.jp/" }, "geometry": { "type": "Point", "coordinates": [ 135.603348, 34.9989933 ] } },
{ "type": "Feature", "properties": { "内容": "介護老人保健施設こもれび【通所リハビリテーション】京都府亀岡市千代川町北ノ庄向条24番地", "url": "https://www.kaigokensaku.mhlw.go.jp/26/index.php?action_kouhyou_detail_004_kani=true&JigyosyoCd=2651680015-00&ServiceCd=160&Type=search", "url2": "http://www.osawa-komorebi.com" }, "geometry": { "type": "Point", "coordinates": [ 135.528977, 35.052152 ] } },
{ "type": "Feature", "properties": { "内容": "医療法人清仁会　亀岡シミズ病院通所リハビリテーション【通所リハビリテーション】亀岡市篠町広田1-3２-１５", "url": "https://www.kaigokensaku.mhlw.go.jp/26/index.php?action_kouhyou_detail_004_kani=true&JigyosyoCd=2611601481-00&ServiceCd=160&Type=search", "url2": "http://www.shimizu-hospital.or.jp" }, "geometry": { "type": "Point", "coordinates": [ 135.5954916171967, 35.003327959663103 ] } },
{ "type": "Feature", "properties": { "内容": "はたごまち通所リハビリセンター【通所リハビリテーション】京都府亀岡市旅籠町29", "url": "https://www.kaigokensaku.mhlw.go.jp/26/index.php?action_kouhyou_detail_004_kani=true&JigyosyoCd=26B1600010-00&ServiceCd=160&Type=search", "url2": "https://kameokahp.com/" }, "geometry": { "type": "Point", "coordinates": [ 135.5811612, 35.0101268 ] } },
{ "type": "Feature", "properties": { "内容": "医療法人社団　鎌田整形外科医院【通所リハビリテーション】京都府亀岡市突抜町４４－１", "url": "https://www.kaigokensaku.mhlw.go.jp/26/index.php?action_kouhyou_detail_004_kani=true&JigyosyoCd=2611601820-00&ServiceCd=160&Type=search", "url2": "http://kamada-seikei.com/" }, "geometry": { "type": "Point", "coordinates": [ 135.586191099999951, 35.0095308 ] } },
{ "type": "Feature", "properties": { "内容": "医療法人啓信会　京都きづ川病院【通所リハビリテーション】京都府城陽市平川西六反26-1", "url": "https://www.kaigokensaku.mhlw.go.jp/26/index.php?action_kouhyou_detail_004_kani=true&JigyosyoCd=2612800710-00&ServiceCd=160&Type=search", "url2": "http://www.kyoto-keishinkai.or.jp/t_rihabiricenter/index.html" }, "geometry": { "type": "Point", "coordinates": [ 135.760897800000066, 34.8653182 ] } },
{ "type": "Feature", "properties": { "内容": "医療法人啓信会介護老人保健施設萌木の村【通所リハビリテーション】京都府城陽市寺田奥山1-6", "url": "https://www.kaigokensaku.mhlw.go.jp/26/index.php?action_kouhyou_detail_004_kani=true&JigyosyoCd=2652880010-00&ServiceCd=160&Type=search", "url2": "https://www.kyoto-keishinkai.or.jp/rouken_moegi/index.html" }, "geometry": { "type": "Point", "coordinates": [ 135.802052199999906, 34.8570274 ] } },
{ "type": "Feature", "properties": { "内容": "医療法人社団　コクラ医院　通所リハビリテーション【通所リハビリテーション】京都府城陽市久世下大谷18-111", "url": "https://www.kaigokensaku.mhlw.go.jp/26/index.php?action_kouhyou_detail_004_kani=true&JigyosyoCd=2612801007-00&ServiceCd=160&Type=search", "url2": "http://www.kokura-iin.com/" }, "geometry": { "type": "Point", "coordinates": [ 135.781762599999979, 34.8693678 ] } },
{ "type": "Feature", "properties": { "内容": "介護老人保健施設　煌　通所リハビリテーション【通所リハビリテーション】京都府城陽市長池五社ヶ谷14-1", "url": "https://www.kaigokensaku.mhlw.go.jp/26/index.php?action_kouhyou_detail_004_kani=true&JigyosyoCd=2652880028-00&ServiceCd=160&Type=search", "url2": "http://minamiyamashiro.com/senior/daycare/" }, "geometry": { "type": "Point", "coordinates": [ 135.798688800000036, 34.8405679 ] } },
{ "type": "Feature", "properties": { "内容": "医療法人真生会　向日回生病院デイケアセンター【通所リハビリテーション】京都府向日市物集女町中海道92-12", "url": "https://www.kaigokensaku.mhlw.go.jp/26/index.php?action_kouhyou_detail_004_kani=true&JigyosyoCd=2613100987-00&ServiceCd=160&Type=search", "url2": "http://shinseikai.jpn.com/" }, "geometry": { "type": "Point", "coordinates": [ 135.690919799999961, 34.962021100000015 ] } },
{ "type": "Feature", "properties": { "内容": "介護老人保健施設ケアセンター回生【通所リハビリテーション】京都府向日市物集女町中海道19番地の5", "url": "https://www.kaigokensaku.mhlw.go.jp/26/index.php?action_kouhyou_detail_004_kani=true&JigyosyoCd=2653180014-00&ServiceCd=160&Type=search", "url2": "http://www.kaiseikai.or.jp" }, "geometry": { "type": "Point", "coordinates": [ 135.691264, 34.9627287 ] } },
{ "type": "Feature", "properties": { "内容": "医療法人　総心会　長岡京病院　通所リハビリテーション【通所リハビリテーション】京都府長岡京市天神1丁目20-10", "url": "https://www.kaigokensaku.mhlw.go.jp/26/index.php?action_kouhyou_detail_004_kani=true&JigyosyoCd=2613000799-00&ServiceCd=160&Type=search", "url2": "http://www.nagaokakyo-hospital.or.jp" }, "geometry": { "type": "Point", "coordinates": [ 135.690642256591786, 34.922823056686092 ] } },
{ "type": "Feature", "properties": { "内容": "医療法人同仁会（社団）介護老人保健施設マムフローラ【通所リハビリテーション】長岡京市奥海印寺奥ノ院25-2", "url": "https://www.kaigokensaku.mhlw.go.jp/26/index.php?action_kouhyou_detail_004_kani=true&JigyosyoCd=2653080024-00&ServiceCd=160&Type=search", "url2": "https://www.dojinkai.com/mam/brands/mam_flora.html" }, "geometry": { "type": "Point", "coordinates": [ 135.6752732, 34.9284259 ] } },
{ "type": "Feature", "properties": { "内容": "介護老人保健施設春風デイケアセンター(あお空、そよ風、せせらぎ)【通所リハビリテーション】京都府長岡京市久貝1-6-23", "url": "https://www.kaigokensaku.mhlw.go.jp/26/index.php?action_kouhyou_detail_004_kani=true&JigyosyoCd=2653080032-00&ServiceCd=160&Type=search", "url2": "http://www.senshunkai.or.jp/" }, "geometry": { "type": "Point", "coordinates": [ 135.696682600000031, 34.9120919 ] } },
{ "type": "Feature", "properties": { "内容": "医療法人なかじま整形外科・リウマチクリニック【通所リハビリテーション】京都府八幡市欽明台中央55番地3", "url": "https://www.kaigokensaku.mhlw.go.jp/26/index.php?action_kouhyou_detail_004_kani=true&JigyosyoCd=2612901013-00&ServiceCd=160&Type=search", "url2": "https://www.nakajima-ra.com" }, "geometry": { "type": "Point", "coordinates": [ 135.7195661, 34.8346156 ] } },
{ "type": "Feature", "properties": { "内容": "医療法人社団医聖会　介護老人保健施設梨の里【通所リハビリテーション】京都府八幡市八幡柿木垣内25番地1", "url": "https://www.kaigokensaku.mhlw.go.jp/26/index.php?action_kouhyou_detail_004_kani=true&JigyosyoCd=2652980026-00&ServiceCd=160&Type=search", "url2": "http://www.iseikai.jp" }, "geometry": { "type": "Point", "coordinates": [ 135.707444714016674, 34.870492456175995 ] } },
{ "type": "Feature", "properties": { "内容": "医療法人社団医聖会　八幡中央病院【通所リハビリテーション】京都府八幡市八幡五反田39番地1", "url": "https://www.kaigokensaku.mhlw.go.jp/26/index.php?action_kouhyou_detail_004_kani=true&JigyosyoCd=2612900411-00&ServiceCd=160&Type=search", "url2": "http://www.iseikai.jp/yawatachuo" }, "geometry": { "type": "Point", "coordinates": [ 135.706768600000032, 34.871127 ] } },
{ "type": "Feature", "properties": { "内容": "社会医療法人　美杉会　みのやま病院　デイケアセンター【通所リハビリテーション】京都府八幡市欽明台北４－２", "url": "https://www.kaigokensaku.mhlw.go.jp/26/index.php?action_kouhyou_detail_004_kani=true&JigyosyoCd=2612900973-00&ServiceCd=160&Type=search", "url2": "http://www.misugikai.jp" }, "geometry": { "type": "Point", "coordinates": [ 135.715935100000024, 34.8414033 ] } },
{ "type": "Feature", "properties": { "内容": "男山病院【通所リハビリテーション】京都府八幡市男山泉19男山病院", "url": "https://www.kaigokensaku.mhlw.go.jp/26/index.php?action_kouhyou_detail_004_kani=true&JigyosyoCd=2612900809-00&ServiceCd=160&Type=search", "url2": "http://www.misugikai.jp" }, "geometry": { "type": "Point", "coordinates": [ 135.693830899999966, 34.8617918 ] } },
{ "type": "Feature", "properties": { "内容": "医療法人翔隆会　デイケアかんなび【通所リハビリテーション】京都府京田辺市河原御影30-40", "url": "https://www.kaigokensaku.mhlw.go.jp/26/index.php?action_kouhyou_detail_004_kani=true&JigyosyoCd=2613200852-00&ServiceCd=160&Type=search", "url2": "http://kannabi.exblog.jp/" }, "geometry": { "type": "Point", "coordinates": [ 135.774668495770243, 34.821282734658162 ] } },
{ "type": "Feature", "properties": { "内容": "デイケア　あおぞら【通所リハビリテーション】京都府京田辺市飯岡南原55", "url": "https://www.kaigokensaku.mhlw.go.jp/26/index.php?action_kouhyou_detail_004_kani=true&JigyosyoCd=2613200084-00&ServiceCd=160&Type=search", "url2": "http://www.kyotanabe-hosp.or.jp" }, "geometry": { "type": "Point", "coordinates": [ 135.794445600000017, 34.8041322 ] } },
{ "type": "Feature", "properties": { "内容": "川東整形外科デイケアセンター【通所リハビリテーション】京田辺市薪茶屋前31", "url": "https://www.kaigokensaku.mhlw.go.jp/26/index.php?action_kouhyou_detail_004_kani=true&JigyosyoCd=2613200423-00&ServiceCd=160&Type=search", "url2": "http://www.kawahigashi-seikei.com/" }, "geometry": { "type": "Point", "coordinates": [ 135.7576398, 34.8283021 ] } },
{ "type": "Feature", "properties": { "内容": "医療法人社団　石鎚会　通所リハビリテーション　ゆきわりそう【通所リハビリテーション】京都府京田辺市同志社山手二丁目2番", "url": "https://www.kaigokensaku.mhlw.go.jp/26/index.php?action_kouhyou_detail_004_kani=true&JigyosyoCd=2653280012-00&ServiceCd=160&Type=search", "url2": "http://www.sekitetsukai.kyoto" }, "geometry": { "type": "Point", "coordinates": [ 135.7760557, 34.7896966 ] } },
{ "type": "Feature", "properties": { "内容": "京丹後市国民健康保険直営宇川診療所【通所リハビリテーション】京都府京丹後市丹後町久僧417", "url": "https://www.kaigokensaku.mhlw.go.jp/26/index.php?action_kouhyou_detail_004_kani=true&JigyosyoCd=2613300355-00&ServiceCd=160&Type=search", "url2": "http://www.ichigaoen.com/" }, "geometry": { "type": "Point", "coordinates": [ 135.171689169311549, 35.754429727045817 ] } },
{ "type": "Feature", "properties": { "内容": "京丹後市やさか老人保健施設ふくじゅ【通所リハビリテーション】京都府京丹後市弥栄町溝谷5422番地の1", "url": "https://www.kaigokensaku.mhlw.go.jp/26/index.php?action_kouhyou_detail_004_kani=true&JigyosyoCd=2653380010-00&ServiceCd=160&Type=search", "url2": "https://yasaka-fukujyu.jp/" }, "geometry": { "type": "Point", "coordinates": [ 135.089611600000012, 35.6579286 ] } },
{ "type": "Feature", "properties": { "内容": "京丹後市立久美浜病院通所リハビリテーション事業所【通所リハビリテーション】京都府京丹後市久美浜町161番地", "url": "https://www.kaigokensaku.mhlw.go.jp/26/index.php?action_kouhyou_detail_004_kani=true&JigyosyoCd=2619600246-00&ServiceCd=160&Type=search", "url2": "http://www.city.kyotango.kyoto.jp/shisei/kikan/hospital/kumihama/index.html" }, "geometry": { "type": "Point", "coordinates": [ 134.901251499999944, 35.5999644 ] } },
{ "type": "Feature", "properties": { "内容": "老人保健施設はぎの里【通所リハビリテーション】京都府南丹市日吉町保野田萩原1番地1", "url": "https://www.kaigokensaku.mhlw.go.jp/26/index.php?action_kouhyou_detail_004_kani=true&JigyosyoCd=2653480026-00&ServiceCd=160&Type=search", "url2": "http://web1.kcn.jp/haginosato/" }, "geometry": { "type": "Point", "coordinates": [ 135.487266, 35.1838936 ] } },
{ "type": "Feature", "properties": { "内容": "介護老人保健施設　シミズふないの里【通所リハビリテーション】京都府南丹市八木町西田山崎16", "url": "https://www.kaigokensaku.mhlw.go.jp/26/index.php?action_kouhyou_detail_004_kani=true&JigyosyoCd=2653480018-00&ServiceCd=160&Type=search", "url2": "http://www.shimizu-hospital.or.jp/kaigo/care/funai/index.php" }, "geometry": { "type": "Point", "coordinates": [ 135.539965100000018, 35.077650199999965 ] } },
{ "type": "Feature", "properties": { "内容": "南丹市国民健康保険南丹みやま診療所【通所リハビリテーション】京都府南丹市美山町安掛下8番地", "url": "https://www.kaigokensaku.mhlw.go.jp/26/index.php?action_kouhyou_detail_004_kani=true&JigyosyoCd=2613400429-00&ServiceCd=160&Type=search", "url2": "https://www.city.nantan.kyoto.jp/www/life/109/013/000/index_83024.html" }, "geometry": { "type": "Point", "coordinates": [ 135.5869119, 35.2760941 ] } },
{ "type": "Feature", "properties": { "内容": "中島整形外科通所リハビリテーション【通所リハビリテーション】京都府木津川市吐師南中条１５番地デイケア　あおいとり", "url": "https://www.kaigokensaku.mhlw.go.jp/26/index.php?action_kouhyou_detail_004_kani=true&JigyosyoCd=2613500509-00&ServiceCd=160&Type=search", "url2": "http://nakajimaseikeigeka.com/" }, "geometry": { "type": "Point", "coordinates": [ 135.794124300000021, 34.7482879 ] } },
{ "type": "Feature", "properties": { "内容": "介護老人保健施設　やましろ【通所リハビリテーション】京都府木津川市木津駅前一丁目27番地", "url": "https://www.kaigokensaku.mhlw.go.jp/26/index.php?action_kouhyou_detail_004_kani=true&JigyosyoCd=2653580015-00&ServiceCd=160&Type=search", "url2": "http://www.yamashiro-hp.jp" }, "geometry": { "type": "Point", "coordinates": [ 135.823636773541239, 34.736052307662753 ] } },
{ "type": "Feature", "properties": { "内容": "医療法人広和会山下医院通所リハビリテーション【通所リハビリテーション】京都府木津川市相楽高下46", "url": "https://www.kaigokensaku.mhlw.go.jp/26/index.php?action_kouhyou_detail_004_kani=true&JigyosyoCd=2613500335-00&ServiceCd=160&Type=search", "url2": null }, "geometry": { "type": "Point", "coordinates": [ 135.8040447, 34.7370623 ] } },
{ "type": "Feature", "properties": { "内容": "医療法人啓信会介護老人保健施設ひしの里【通所リハビリテーション】京都府久世郡久御山町佐古内屋敷81-1", "url": "https://www.kaigokensaku.mhlw.go.jp/26/index.php?action_kouhyou_detail_004_kani=true&JigyosyoCd=2651180016-00&ServiceCd=160&Type=search", "url2": "http://www.kyoto-keishinkai.or.jp/rouken_hishinosato/index.html" }, "geometry": { "type": "Point", "coordinates": [ 135.753031299999947, 34.8787639 ] } },
{ "type": "Feature", "properties": { "内容": "医療法人社団どろんこ会山口医院デイケアセンター【通所リハビリテーション】京都府綴喜郡宇治田原町銘城台7-2,7-19", "url": "https://www.kaigokensaku.mhlw.go.jp/26/index.php?action_kouhyou_detail_004_kani=true&JigyosyoCd=2611301314-00&ServiceCd=160&Type=search", "url2": "http://www.doronko.or.jp/" }, "geometry": { "type": "Point", "coordinates": [ 135.8446123, 34.8433905 ] } },
{ "type": "Feature", "properties": { "内容": "医療法人　社団　医聖会　介護老人保健施設　とちのき【通所リハビリテーション】京都府相楽郡精華町精華台7丁目４－１", "url": "https://www.kaigokensaku.mhlw.go.jp/26/index.php?action_kouhyou_detail_004_kani=true&JigyosyoCd=2651480010-00&ServiceCd=160&Type=search", "url2": "https://iseikai.jp/" }, "geometry": { "type": "Point", "coordinates": [ 135.785874623803693, 34.748989160821644 ] } },
{ "type": "Feature", "properties": { "内容": "医療法人　丹笠会　丹波笠次病院　たんば通所リハビリテーション【通所リハビリテーション】京都府船井郡京丹波町須知町裏13番地7及び14番地1", "url": "https://www.kaigokensaku.mhlw.go.jp/26/index.php?action_kouhyou_detail_004_kani=true&JigyosyoCd=2611500923-00&ServiceCd=160&Type=search", "url2": "http://www" }, "geometry": { "type": "Point", "coordinates": [ 135.427056665220675, 35.152849186735203 ] } },
{ "type": "Feature", "properties": { "内容": "与謝野町立国民健康保険診療所【通所リハビリテーション】京都府与謝郡与謝野町字石川685番地1", "url": "https://www.kaigokensaku.mhlw.go.jp/26/index.php?action_kouhyou_detail_004_kani=true&JigyosyoCd=2612000600-00&ServiceCd=160&Type=search", "url2": null }, "geometry": { "type": "Point", "coordinates": [ 135.122563, 35.5294796 ] } }
]
}
