{
"type": "FeatureCollection",
"name": "geo_26_地域密着型特定施設入居者生活介護（有料老人ホーム）",
"crs": { "type": "name", "properties": { "name": "urn:ogc:def:crs:OGC:1.3:CRS84" } },
"features": [
{ "type": "Feature", "properties": { "内容": "アーバンヴィラ西賀茂【地域密着型特定施設入居者生活介護（有料老人ホーム）】京都府京都市北区西賀茂南大栗町11番地", "url": "https://www.kaigokensaku.mhlw.go.jp/26/index.php?action_kouhyou_detail_004_kani=true&JigyosyoCd=2690100165-00&ServiceCd=361&Type=search", "url2": "http://www.urban-stylecare.co.jp" }, "geometry": { "type": "Point", "coordinates": [ 135.746097030024657, 35.060584929858472 ] } },
{ "type": "Feature", "properties": { "内容": "カノン北山　レジデンス【地域密着型特定施設入居者生活介護（有料老人ホーム）】京都府京都市北区上賀茂松本町96-1", "url": "https://www.kaigokensaku.mhlw.go.jp/26/index.php?action_kouhyou_detail_004_kani=true&JigyosyoCd=2690100272-00&ServiceCd=361&Type=search", "url2": "https://www.canonkitayama.com/" }, "geometry": { "type": "Point", "coordinates": [ 135.7669361, 35.0534874 ] } },
{ "type": "Feature", "properties": { "内容": "アーバンヴィラ　千本笹屋町【地域密着型特定施設入居者生活介護（有料老人ホーム）】京都市上京区笹屋町通千本東入笹屋町三丁目６２２番地", "url": "https://www.kaigokensaku.mhlw.go.jp/26/index.php?action_kouhyou_detail_004_kani=true&JigyosyoCd=2690200031-00&ServiceCd=361&Type=search", "url2": "http://www.urban-stylecare.co.jp" }, "geometry": { "type": "Point", "coordinates": [ 135.743219847221383, 35.027945966289991 ] } },
{ "type": "Feature", "properties": { "内容": "アーバンヴィラ四条大宮【地域密着型特定施設入居者生活介護（有料老人ホーム）】京都市下京区大宮通綾小路下る綾大宮町５２番地", "url": "https://www.kaigokensaku.mhlw.go.jp/26/index.php?action_kouhyou_detail_004_kani=true&JigyosyoCd=2690400045-00&ServiceCd=361&Type=search", "url2": "http://www.urban-stylecare.co.jp" }, "geometry": { "type": "Point", "coordinates": [ 135.749174509902389, 35.002047333524203 ] } },
{ "type": "Feature", "properties": { "内容": "京北山国ふるさと園【地域密着型特定施設入居者生活介護（有料老人ホーム）】京北辻町藤ノ野元39番地1", "url": "https://www.kaigokensaku.mhlw.go.jp/26/index.php?action_kouhyou_detail_004_kani=true&JigyosyoCd=2690700147-00&ServiceCd=361&Type=search", "url2": "http://www.hurusatoen.or.jp" }, "geometry": { "type": "Point", "coordinates": [ 135.6597892, 35.1677946 ] } },
{ "type": "Feature", "properties": { "内容": "グランメゾン迎賓館京都鳴滝【地域密着型特定施設入居者生活介護（有料老人ホーム）】京都府京都市右京区鳴滝松本町20-1", "url": "https://www.kaigokensaku.mhlw.go.jp/26/index.php?action_kouhyou_detail_004_kani=true&JigyosyoCd=2690700337-00&ServiceCd=361&Type=search", "url2": "https://grand-maison.jp/" }, "geometry": { "type": "Point", "coordinates": [ 135.699704200000042, 35.0337195 ] } },
{ "type": "Feature", "properties": { "内容": "介護付有料老人ホーム　御所ノ内ときわ【地域密着型特定施設入居者生活介護（有料老人ホーム）】京都府京都市右京区太秦青木ケ原町7－2", "url": "https://www.kaigokensaku.mhlw.go.jp/26/index.php?action_kouhyou_detail_004_kani=true&JigyosyoCd=2690700279-00&ServiceCd=361&Type=search", "url2": "http://goshonouchi.com/tokiwa/" }, "geometry": { "type": "Point", "coordinates": [ 135.703482099999974, 35.0190986 ] } },
{ "type": "Feature", "properties": { "内容": "そうごうケアホーム高雄【地域密着型特定施設入居者生活介護（有料老人ホーム）】京都府京都市右京区梅ケ畑畑町5-1", "url": "https://www.kaigokensaku.mhlw.go.jp/26/index.php?action_kouhyou_detail_004_kani=true&JigyosyoCd=2690700394-00&ServiceCd=361&Type=search", "url2": "https://www.sogo-care.co.jp/" }, "geometry": { "type": "Point", "coordinates": [ 135.6933397, 35.0373507 ] } },
{ "type": "Feature", "properties": { "内容": "ハーモニーこがなの家【地域密着型特定施設入居者生活介護（有料老人ホーム）】京都市伏見区久我石原町1-41", "url": "https://www.kaigokensaku.mhlw.go.jp/26/index.php?action_kouhyou_detail_004_kani=true&JigyosyoCd=2690900101-00&ServiceCd=361&Type=search", "url2": "http://www.kurashino-harmony.or.jp/facility/facility02.html" }, "geometry": { "type": "Point", "coordinates": [ 135.732927979623383, 34.946282309138866 ] } },
{ "type": "Feature", "properties": { "内容": "有料老人ホーム　マイスイートホーム【地域密着型特定施設入居者生活介護（有料老人ホーム）】京都市伏見区日野奥出21", "url": "https://www.kaigokensaku.mhlw.go.jp/26/index.php?action_kouhyou_detail_004_kani=true&JigyosyoCd=2690900192-00&ServiceCd=361&Type=search", "url2": "http://my-sweethome.jp" }, "geometry": { "type": "Point", "coordinates": [ 135.816057499999943, 34.9301983 ] } },
{ "type": "Feature", "properties": { "内容": "そうごうケアホーム小栗栖【地域密着型特定施設入居者生活介護（有料老人ホーム）】京都府京都市伏見区小栗栖小阪町41", "url": "https://www.kaigokensaku.mhlw.go.jp/26/index.php?action_kouhyou_detail_004_kani=true&JigyosyoCd=2690900572-00&ServiceCd=361&Type=search", "url2": "https://www.sogo-care.co.jp/" }, "geometry": { "type": "Point", "coordinates": [ 135.801824217790994, 34.945875491536981 ] } },
{ "type": "Feature", "properties": { "内容": "リヤンド（絆）・京都伏見【地域密着型特定施設入居者生活介護（有料老人ホーム）】京都府京都市伏見区日野奥出21番地", "url": "https://www.kaigokensaku.mhlw.go.jp/26/index.php?action_kouhyou_detail_004_kani=true&JigyosyoCd=2690900796-00&ServiceCd=361&Type=search", "url2": "https://liende-kizuna.jp/kyoto-fushimi/" }, "geometry": { "type": "Point", "coordinates": [ 135.816054452114884, 34.930035909534546 ] } },
{ "type": "Feature", "properties": { "内容": "アーバンヴィラ上桂【地域密着型特定施設入居者生活介護（有料老人ホーム）】京都府京都市西京区上桂北村町114番地高齢者総合施設上桂", "url": "https://www.kaigokensaku.mhlw.go.jp/26/index.php?action_kouhyou_detail_004_kani=true&JigyosyoCd=2694000064-00&ServiceCd=361&Type=search", "url2": "http://www.urban-stylecare.co.jp" }, "geometry": { "type": "Point", "coordinates": [ 135.699827300000038, 34.992401 ] } },
{ "type": "Feature", "properties": { "内容": "エクセレント桂【地域密着型特定施設入居者生活介護（有料老人ホーム）】牛ヶ瀬西柿町75", "url": "https://www.kaigokensaku.mhlw.go.jp/26/index.php?action_kouhyou_detail_004_kani=true&JigyosyoCd=2694000098-00&ServiceCd=361&Type=search", "url2": "http://excare.co.jp" }, "geometry": { "type": "Point", "coordinates": [ 135.716141590213027, 34.971080158237157 ] } },
{ "type": "Feature", "properties": { "内容": "はるかぜガーデン桂川【地域密着型特定施設入居者生活介護（有料老人ホーム）】京都市西京区桂上野西町234はるかぜガーデン桂川", "url": "https://www.kaigokensaku.mhlw.go.jp/26/index.php?action_kouhyou_detail_004_kani=true&JigyosyoCd=2694000270-00&ServiceCd=361&Type=search", "url2": "http://www.harukaze-garden.or.jp/" }, "geometry": { "type": "Point", "coordinates": [ 135.700971699999968, 34.9953618 ] } }
]
}
