{
"type": "FeatureCollection",
"name": "geo_26_福祉用具貸与",
"crs": { "type": "name", "properties": { "name": "urn:ogc:def:crs:OGC:1.3:CRS84" } },
"features": [
{ "type": "Feature", "properties": { "内容": "アリス株式会社【福祉用具貸与】京都府京都市北区衣笠総門町31-1フレーズ３", "url": "https://www.kaigokensaku.mhlw.go.jp/26/index.php?action_kouhyou_detail_004_kani=true&JigyosyoCd=2670100805-00&ServiceCd=170&Type=search", "url2": null }, "geometry": { "type": "Point", "coordinates": [ 135.729723599999943, 35.036425 ] } },
{ "type": "Feature", "properties": { "内容": "ハイビスカス福祉用具事業所【福祉用具貸与】紫竹東大門町５１-１ハイビスカス北山１Ｆ", "url": "https://www.kaigokensaku.mhlw.go.jp/26/index.php?action_kouhyou_detail_004_kani=true&JigyosyoCd=2670100516-00&ServiceCd=170&Type=search", "url2": null }, "geometry": { "type": "Point", "coordinates": [ 135.74682449947511, 35.051553609419102 ] } },
{ "type": "Feature", "properties": { "内容": "有限会社　アーク【福祉用具貸与】京都市北区紫竹上緑町29-5", "url": "https://www.kaigokensaku.mhlw.go.jp/26/index.php?action_kouhyou_detail_004_kani=true&JigyosyoCd=2670100144-00&ServiceCd=170&Type=search", "url2": "http://www." }, "geometry": { "type": "Point", "coordinates": [ 135.748497790985084, 35.051892269519882 ] } },
{ "type": "Feature", "properties": { "内容": "(有)いわしや酒井医科器械店【福祉用具貸与】京都市北区鷹峯南鷹峯町16", "url": "https://www.kaigokensaku.mhlw.go.jp/26/index.php?action_kouhyou_detail_004_kani=true&JigyosyoCd=2670100177-00&ServiceCd=170&Type=search", "url2": "http://iwashiya-sakai.com" }, "geometry": { "type": "Point", "coordinates": [ 135.732976099999973, 35.0529762 ] } },
{ "type": "Feature", "properties": { "内容": "株式会社ヤマシタ京都北営業所【福祉用具貸与】京都府京都市北区上賀茂岩ヶ垣内町98-2戸田ビル3階", "url": "https://www.kaigokensaku.mhlw.go.jp/26/index.php?action_kouhyou_detail_004_kani=true&JigyosyoCd=2670101506-00&ServiceCd=170&Type=search", "url2": "https://www.yco.co.jp/" }, "geometry": { "type": "Point", "coordinates": [ 135.7650385, 35.0514089 ] } },
{ "type": "Feature", "properties": { "内容": "ゴトウライフクリエイション【福祉用具貸与】新椹木町通丸太町下る東土御門町345番地", "url": "https://www.kaigokensaku.mhlw.go.jp/26/index.php?action_kouhyou_detail_004_kani=true&JigyosyoCd=2670200787-00&ServiceCd=170&Type=search", "url2": "https://gotolifecreation.com/" }, "geometry": { "type": "Point", "coordinates": [ 135.76859605152049, 35.016853874152844 ] } },
{ "type": "Feature", "properties": { "内容": "フランスベッド株式会社　メディカル京都営業所【福祉用具貸与】京都府京都市上京区革堂西町５２９－１", "url": "https://www.kaigokensaku.mhlw.go.jp/26/index.php?action_kouhyou_detail_004_kani=true&JigyosyoCd=2670200613-00&ServiceCd=170&Type=search", "url2": "http://www.francebed.co.jp/" }, "geometry": { "type": "Point", "coordinates": [ 135.753710599999977, 35.0273627 ] } },
{ "type": "Feature", "properties": { "内容": "パナソニックエイジフリーショップ京都【福祉用具貸与】京都市上京区下長者町通新町東入　西鷹司町4", "url": "https://www.kaigokensaku.mhlw.go.jp/26/index.php?action_kouhyou_detail_004_kani=true&JigyosyoCd=2670200233-00&ServiceCd=170&Type=search", "url2": "http://www.net-kaigo.com" }, "geometry": { "type": "Point", "coordinates": [ 135.756987244102447, 35.022660728576369 ] } },
{ "type": "Feature", "properties": { "内容": "シルバークロス株式会社【福祉用具貸与】京都市上京区荒神口通寺町東入荒神町110－1レインボービル１Ｆ", "url": "https://www.kaigokensaku.mhlw.go.jp/26/index.php?action_kouhyou_detail_004_kani=true&JigyosyoCd=2670200142-00&ServiceCd=170&Type=search", "url2": "https://silver-cross.co.jp" }, "geometry": { "type": "Point", "coordinates": [ 135.769177884075134, 35.021483380897678 ] } },
{ "type": "Feature", "properties": { "内容": "まどかプランニング【福祉用具貸与】京都府京都市中京区西ノ京西中合町7番地", "url": "https://www.kaigokensaku.mhlw.go.jp/26/index.php?action_kouhyou_detail_004_kani=true&JigyosyoCd=2670300322-00&ServiceCd=170&Type=search", "url2": "http://homepage3.nifty.com/madoka-cp/" }, "geometry": { "type": "Point", "coordinates": [ 135.72872719999998, 35.0134354 ] } },
{ "type": "Feature", "properties": { "内容": "LinkHope【福祉用具貸与】京都府京都市中京区西ノ京中保町8ハートランド久保207", "url": "https://www.kaigokensaku.mhlw.go.jp/26/index.php?action_kouhyou_detail_004_kani=true&JigyosyoCd=2670401070-00&ServiceCd=170&Type=search", "url2": null }, "geometry": { "type": "Point", "coordinates": [ 135.730521399999986, 35.0212888 ] } },
{ "type": "Feature", "properties": { "内容": "ダスキンヘルスレント京都中京ステーション【福祉用具貸与】京都府京都市中京区西ノ京原町１０５番地２", "url": "https://www.kaigokensaku.mhlw.go.jp/26/index.php?action_kouhyou_detail_004_kani=true&JigyosyoCd=2670200944-00&ServiceCd=170&Type=search", "url2": "https://healthrent.duskin.jp/" }, "geometry": { "type": "Point", "coordinates": [ 135.73393303890569, 35.011595164069604 ] } },
{ "type": "Feature", "properties": { "内容": "グランユニライフ・レンタルサービス【福祉用具貸与】京都府京都市下京区中堂寺庄ノ内町46-7メディカルグランメゾン京都五条御前", "url": "https://www.kaigokensaku.mhlw.go.jp/26/index.php?action_kouhyou_detail_004_kani=true&JigyosyoCd=2670400916-00&ServiceCd=170&Type=search", "url2": null }, "geometry": { "type": "Point", "coordinates": [ 135.7368851, 34.996826 ] } },
{ "type": "Feature", "properties": { "内容": "エクセレント福祉用具【福祉用具貸与】京都市下京区松原通富小路東入松原中之町494リーガル京都河原町1階", "url": "https://www.kaigokensaku.mhlw.go.jp/26/index.php?action_kouhyou_detail_004_kani=true&JigyosyoCd=2670401088-00&ServiceCd=170&Type=search", "url2": "https://excare-s.co.jp/" }, "geometry": { "type": "Point", "coordinates": [ 135.765257999969521, 34.998898682923489 ] } },
{ "type": "Feature", "properties": { "内容": "ＳＯＭＰＯケア　京都　福祉用具【福祉用具貸与】京都市下京区五条通河原町西入本覚寺前町801損保ジャパン京都ビル7F", "url": "https://www.kaigokensaku.mhlw.go.jp/26/index.php?action_kouhyou_detail_004_kani=true&JigyosyoCd=2670401237-00&ServiceCd=170&Type=search", "url2": "https://corporate.sompocare.com/" }, "geometry": { "type": "Point", "coordinates": [ 135.7649458, 34.9963594 ] } },
{ "type": "Feature", "properties": { "内容": "アスケア福祉用具センター京都【福祉用具貸与】京都府京都市下京区間之町通上珠数屋町下る打越町320番地8", "url": "https://www.kaigokensaku.mhlw.go.jp/26/index.php?action_kouhyou_detail_004_kani=true&JigyosyoCd=2670500756-00&ServiceCd=170&Type=search", "url2": "https://www.as-care.co.jp/" }, "geometry": { "type": "Point", "coordinates": [ 135.761968216576264, 34.991986029419394 ] } },
{ "type": "Feature", "properties": { "内容": "株式会社セリオ京都営業所【福祉用具貸与】京都市南区吉祥院嶋野間詰町１１", "url": "https://www.kaigokensaku.mhlw.go.jp/26/index.php?action_kouhyou_detail_004_kani=true&JigyosyoCd=2670500475-00&ServiceCd=170&Type=search", "url2": "http://serio888.net/" }, "geometry": { "type": "Point", "coordinates": [ 135.734147799999988, 34.9620544 ] } },
{ "type": "Feature", "properties": { "内容": "てらこや【福祉用具貸与】上鳥羽高畠町101-2", "url": "https://www.kaigokensaku.mhlw.go.jp/26/index.php?action_kouhyou_detail_004_kani=true&JigyosyoCd=2670500806-00&ServiceCd=170&Type=search", "url2": "info@sansyou.jp" }, "geometry": { "type": "Point", "coordinates": [ 135.745789899999977, 34.9714702 ] } },
{ "type": "Feature", "properties": { "内容": "あやとり福祉用具貸与事業所【福祉用具貸与】京都市南区東九条宇賀辺町8番地京都府電気工事技術会館１階", "url": "https://www.kaigokensaku.mhlw.go.jp/26/index.php?action_kouhyou_detail_004_kani=true&JigyosyoCd=2670500434-00&ServiceCd=170&Type=search", "url2": "http://www." }, "geometry": { "type": "Point", "coordinates": [ 135.765296400000011, 34.9792478 ] } },
{ "type": "Feature", "properties": { "内容": "フランスベッド株式会社メディカル京都西営業所【福祉用具貸与】京都府京都市南区久世上久世町530-41", "url": "https://www.kaigokensaku.mhlw.go.jp/26/index.php?action_kouhyou_detail_004_kani=true&JigyosyoCd=2670500772-00&ServiceCd=170&Type=search", "url2": "http://www.francebed.co.jp/" }, "geometry": { "type": "Point", "coordinates": [ 135.718361700000059, 34.9670866 ] } },
{ "type": "Feature", "properties": { "内容": "株式会社　三笑堂【福祉用具貸与】京都市南区上鳥羽北塔ノ本町2番地SMGビル4F", "url": "https://www.kaigokensaku.mhlw.go.jp/26/index.php?action_kouhyou_detail_004_kani=true&JigyosyoCd=2670500186-00&ServiceCd=170&Type=search", "url2": "http://www.sanshodoh.co.jp" }, "geometry": { "type": "Point", "coordinates": [ 135.749714400000016, 34.9670013 ] } },
{ "type": "Feature", "properties": { "内容": "合同会社こころ【福祉用具貸与】吉祥院西浦町121番地エスポワール洛陽103号", "url": "https://www.kaigokensaku.mhlw.go.jp/26/index.php?action_kouhyou_detail_004_kani=true&JigyosyoCd=2670501200-00&ServiceCd=170&Type=search", "url2": "http://www.cocoro1.jp" }, "geometry": { "type": "Point", "coordinates": [ 135.731134401852444, 34.97387518335136 ] } },
{ "type": "Feature", "properties": { "内容": "株式会社トーカイ　京都営業所【福祉用具貸与】京都府京都市南区上鳥羽南花名町４０番地", "url": "https://www.kaigokensaku.mhlw.go.jp/26/index.php?action_kouhyou_detail_004_kani=true&JigyosyoCd=2674000456-00&ServiceCd=170&Type=search", "url2": "http://www.tokai-corp.com/" }, "geometry": { "type": "Point", "coordinates": [ 135.748397159104911, 34.964972529233115 ] } },
{ "type": "Feature", "properties": { "内容": "八千代ケアサポート株式会社　京都西京極店【福祉用具貸与】京都府京都市右京区西京極佃田町13ラセットアベニュー1F", "url": "https://www.kaigokensaku.mhlw.go.jp/26/index.php?action_kouhyou_detail_004_kani=true&JigyosyoCd=2670702717-00&ServiceCd=170&Type=search", "url2": "http://yachiyo-c-s.co.jp/" }, "geometry": { "type": "Point", "coordinates": [ 135.725230399999987, 34.9886316 ] } },
{ "type": "Feature", "properties": { "内容": "オーツーTILコンシェルジュ【福祉用具貸与】京都府京都市右京区梅津石灘町41-1", "url": "https://www.kaigokensaku.mhlw.go.jp/26/index.php?action_kouhyou_detail_004_kani=true&JigyosyoCd=2670702543-00&ServiceCd=170&Type=search", "url2": "http://www.o2co.jp/" }, "geometry": { "type": "Point", "coordinates": [ 135.708892028836061, 35.001122480190091 ] } },
{ "type": "Feature", "properties": { "内容": "ダスキンヘルスレント京都西ステーション【福祉用具貸与】西院安塚町72", "url": "https://www.kaigokensaku.mhlw.go.jp/26/index.php?action_kouhyou_detail_004_kani=true&JigyosyoCd=2670701750-00&ServiceCd=170&Type=search", "url2": "http://healthrent.duskin.jp/" }, "geometry": { "type": "Point", "coordinates": [ 135.720397700000035, 35.000528 ] } },
{ "type": "Feature", "properties": { "内容": "センゴクアテンダントサービス【福祉用具貸与】京都府京都市西京区上桂宮ノ後町5番地", "url": "https://www.kaigokensaku.mhlw.go.jp/26/index.php?action_kouhyou_detail_004_kani=true&JigyosyoCd=2670701354-00&ServiceCd=170&Type=search", "url2": null }, "geometry": { "type": "Point", "coordinates": [ 135.697467860534317, 34.99032106893965 ] } },
{ "type": "Feature", "properties": { "内容": "有限会社らくらく堂【福祉用具貸与】京都市右京区西京極東池田町9", "url": "https://www.kaigokensaku.mhlw.go.jp/26/index.php?action_kouhyou_detail_004_kani=true&JigyosyoCd=2670700133-00&ServiceCd=170&Type=search", "url2": "http://www." }, "geometry": { "type": "Point", "coordinates": [ 135.721022599999969, 34.9923121 ] } },
{ "type": "Feature", "properties": { "内容": "ユウコム【福祉用具貸与】京都府京都市右京区西京極南大入町76番地3", "url": "https://www.kaigokensaku.mhlw.go.jp/26/index.php?action_kouhyou_detail_004_kani=true&JigyosyoCd=2670702675-00&ServiceCd=170&Type=search", "url2": "https://ucom-ucom.com" }, "geometry": { "type": "Point", "coordinates": [ 135.716130643516522, 34.996561294273242 ] } },
{ "type": "Feature", "properties": { "内容": "株式会社ウエルネット丸太町支店【福祉用具貸与】京都府京都市右京区花園薮ノ下町5番地プロバーⅡ1階", "url": "https://www.kaigokensaku.mhlw.go.jp/26/index.php?action_kouhyou_detail_004_kani=true&JigyosyoCd=2670702881-00&ServiceCd=170&Type=search", "url2": "http://www.welnet.co.jp/" }, "geometry": { "type": "Point", "coordinates": [ 135.724155211072542, 35.0196252843607 ] } },
{ "type": "Feature", "properties": { "内容": "有限会社スガワメディカルサービス【福祉用具貸与】京都市右京区梅津南上田町5番地3", "url": "https://www.kaigokensaku.mhlw.go.jp/26/index.php?action_kouhyou_detail_004_kani=true&JigyosyoCd=2670700513-00&ServiceCd=170&Type=search", "url2": "http://www.sugawa-kyoto.net/" }, "geometry": { "type": "Point", "coordinates": [ 135.70416309999996, 35.0026584 ] } },
{ "type": "Feature", "properties": { "内容": "ソーケンメディカル株式会社【福祉用具貸与】京都府京都市右京区西院東貝川町4番地5", "url": "https://www.kaigokensaku.mhlw.go.jp/26/index.php?action_kouhyou_detail_004_kani=true&JigyosyoCd=2670500160-00&ServiceCd=170&Type=search", "url2": "http://www.soken-md.co.jp/" }, "geometry": { "type": "Point", "coordinates": [ 135.717663439299201, 35.003257390616326 ] } },
{ "type": "Feature", "properties": { "内容": "有限会社スマイルケア　右京営業所【福祉用具貸与】京都府京都市右京区西京極浜ノ本町64番地ハイラーク西京極110号", "url": "https://www.kaigokensaku.mhlw.go.jp/26/index.php?action_kouhyou_detail_004_kani=true&JigyosyoCd=2670702691-00&ServiceCd=170&Type=search", "url2": "https://smilecare.company/" }, "geometry": { "type": "Point", "coordinates": [ 135.7117189, 34.99376620000001 ] } },
{ "type": "Feature", "properties": { "内容": "株式会社　三笑堂　右京営業所【福祉用具貸与】京都市右京区常盤御池町21番9", "url": "https://www.kaigokensaku.mhlw.go.jp/26/index.php?action_kouhyou_detail_004_kani=true&JigyosyoCd=2670701321-00&ServiceCd=170&Type=search", "url2": "http://www.sanshodoh.co.jp" }, "geometry": { "type": "Point", "coordinates": [ 135.7108452, 35.0240648 ] } },
{ "type": "Feature", "properties": { "内容": "介護ショップほわいえ四條【福祉用具貸与】京都市右京区西院四条畑町1-3", "url": "https://www.kaigokensaku.mhlw.go.jp/26/index.php?action_kouhyou_detail_004_kani=true&JigyosyoCd=2670701487-00&ServiceCd=170&Type=search", "url2": "http://www.foyer4.JP" }, "geometry": { "type": "Point", "coordinates": [ 135.724094599999944, 35.0040555 ] } },
{ "type": "Feature", "properties": { "内容": "ラ・ケア【福祉用具貸与】京都市右京区西京極中町３７番地１", "url": "https://www.kaigokensaku.mhlw.go.jp/26/index.php?action_kouhyou_detail_004_kani=true&JigyosyoCd=2670702063-00&ServiceCd=170&Type=search", "url2": "http://www.la-care.jp" }, "geometry": { "type": "Point", "coordinates": [ 135.719653046627087, 34.98914319818266 ] } },
{ "type": "Feature", "properties": { "内容": "株式会社アート・ドゥビブレ【福祉用具貸与】京都市右京区西京極南大入町86-1", "url": "https://www.kaigokensaku.mhlw.go.jp/26/index.php?action_kouhyou_detail_004_kani=true&JigyosyoCd=2670700356-00&ServiceCd=170&Type=search", "url2": null }, "geometry": { "type": "Point", "coordinates": [ 135.7163842, 34.996645 ] } },
{ "type": "Feature", "properties": { "内容": "有限会社アットホーム　京都支店【福祉用具貸与】竹田西内畑町2", "url": "https://www.kaigokensaku.mhlw.go.jp/26/index.php?action_kouhyou_detail_004_kani=true&JigyosyoCd=2670916804-00&ServiceCd=170&Type=search", "url2": "http://www.kaigo-club.net/recruit201910/" }, "geometry": { "type": "Point", "coordinates": [ 135.750419532130479, 34.955276710294541 ] } },
{ "type": "Feature", "properties": { "内容": "たまるや【福祉用具貸与】久我東町210番地　久我の杜個店棟Ａ-4号", "url": "https://www.kaigokensaku.mhlw.go.jp/26/index.php?action_kouhyou_detail_004_kani=true&JigyosyoCd=2670901129-00&ServiceCd=170&Type=search", "url2": null }, "geometry": { "type": "Point", "coordinates": [ 135.727943200000027, 34.9350822 ] } },
{ "type": "Feature", "properties": { "内容": "福祉用具貸与・販売事業所　テイクケアリース【福祉用具貸与】京都府京都市伏見区石田内里町80-2", "url": "https://www.kaigokensaku.mhlw.go.jp/26/index.php?action_kouhyou_detail_004_kani=true&JigyosyoCd=2674101056-00&ServiceCd=170&Type=search", "url2": "http://hp.kaipoke.biz/sab/" }, "geometry": { "type": "Point", "coordinates": [ 135.806751, 34.938253 ] } },
{ "type": "Feature", "properties": { "内容": "福祉用具ボヌール【福祉用具貸与】竹田浄菩提院町127第一コーポ森崎103", "url": "https://www.kaigokensaku.mhlw.go.jp/26/index.php?action_kouhyou_detail_004_kani=true&JigyosyoCd=2670918636-00&ServiceCd=170&Type=search", "url2": null }, "geometry": { "type": "Point", "coordinates": [ 135.7561355, 34.950787100000021 ] } },
{ "type": "Feature", "properties": { "内容": "ユニック株式会社【福祉用具貸与】下鳥羽中円面田町40番地ﾄﾞｴﾙﾂｸﾏ1階", "url": "https://www.kaigokensaku.mhlw.go.jp/26/index.php?action_kouhyou_detail_004_kani=true&JigyosyoCd=2670901079-00&ServiceCd=170&Type=search", "url2": null }, "geometry": { "type": "Point", "coordinates": [ 135.741991703403386, 34.932705775940335 ] } },
{ "type": "Feature", "properties": { "内容": "株式会社ヤマシタ京都南営業所【福祉用具貸与】京都市伏見区竹田西内畑町145番地", "url": "https://www.kaigokensaku.mhlw.go.jp/26/index.php?action_kouhyou_detail_004_kani=true&JigyosyoCd=2670900550-00&ServiceCd=170&Type=search", "url2": "http://www.yco.co.jp/" }, "geometry": { "type": "Point", "coordinates": [ 135.750064, 34.9534137 ] } },
{ "type": "Feature", "properties": { "内容": "ウエジメディカル株式会社【福祉用具貸与】京都市伏見区醍醐和泉町12番地", "url": "https://www.kaigokensaku.mhlw.go.jp/26/index.php?action_kouhyou_detail_004_kani=true&JigyosyoCd=2670900279-00&ServiceCd=170&Type=search", "url2": "https://ueji-medical.com/" }, "geometry": { "type": "Point", "coordinates": [ 135.816426760049438, 34.947317514682844 ] } },
{ "type": "Feature", "properties": { "内容": "石黒メディカルシステム株式会社【福祉用具貸与】京都市伏見区竹田中川原町381番地", "url": "https://www.kaigokensaku.mhlw.go.jp/26/index.php?action_kouhyou_detail_004_kani=true&JigyosyoCd=2670900758-00&ServiceCd=170&Type=search", "url2": "www.ishiguro-medical.jp" }, "geometry": { "type": "Point", "coordinates": [ 135.759716, 34.957683 ] } },
{ "type": "Feature", "properties": { "内容": "安心ライフ株式会社【福祉用具貸与】京都市伏見区中島前山町55-2", "url": "https://www.kaigokensaku.mhlw.go.jp/26/index.php?action_kouhyou_detail_004_kani=true&JigyosyoCd=2670900071-00&ServiceCd=170&Type=search", "url2": "https://www.ansin-s.co.jp" }, "geometry": { "type": "Point", "coordinates": [ 135.744839299999967, 34.9470476 ] } },
{ "type": "Feature", "properties": { "内容": "ユーヒナファイナンス【福祉用具貸与】京都府京都市伏見区納所町586番150", "url": "https://www.kaigokensaku.mhlw.go.jp/26/index.php?action_kouhyou_detail_004_kani=true&JigyosyoCd=2670917604-00&ServiceCd=170&Type=search", "url2": null }, "geometry": { "type": "Point", "coordinates": [ 135.724431699999968, 34.9090714 ] } },
{ "type": "Feature", "properties": { "内容": "株式会社ヤサカ　京都支店【福祉用具貸与】京都府京都市伏見区竹田浄菩提院町110", "url": "https://www.kaigokensaku.mhlw.go.jp/26/index.php?action_kouhyou_detail_004_kani=true&JigyosyoCd=2674100652-00&ServiceCd=170&Type=search", "url2": "http://www.daisuki-kaigo.com/" }, "geometry": { "type": "Point", "coordinates": [ 135.755346799999984, 34.9518417 ] } },
{ "type": "Feature", "properties": { "内容": "アイライフ【福祉用具貸与】京都市伏見区深草飯食町832第49長栄ウィステリアヒルズ2F4号", "url": "https://www.kaigokensaku.mhlw.go.jp/26/index.php?action_kouhyou_detail_004_kani=true&JigyosyoCd=2670901202-00&ServiceCd=170&Type=search", "url2": "http://ilife-kyoto.com/" }, "geometry": { "type": "Point", "coordinates": [ 135.76904049999996, 34.9544116 ] } },
{ "type": "Feature", "properties": { "内容": "川村義肢株式会社　京滋営業所【福祉用具貸与】下鳥羽上三栖町143", "url": "https://www.kaigokensaku.mhlw.go.jp/26/index.php?action_kouhyou_detail_004_kani=true&JigyosyoCd=2670900329-00&ServiceCd=170&Type=search", "url2": "http://www.kawamura-gishi.co.jp" }, "geometry": { "type": "Point", "coordinates": [ 135.746605245963366, 34.932573285775803 ] } },
{ "type": "Feature", "properties": { "内容": "ダスキンヘルスレント京都東ステーション【福祉用具貸与】京都府京都市山科区大宅中小路町31-1", "url": "https://www.kaigokensaku.mhlw.go.jp/26/index.php?action_kouhyou_detail_004_kani=true&JigyosyoCd=2674102005-00&ServiceCd=170&Type=search", "url2": "https://healthrent.duskin.jp/station/kyoto/kyotohigashi.html" }, "geometry": { "type": "Point", "coordinates": [ 135.823143400663781, 34.970254041303555 ] } },
{ "type": "Feature", "properties": { "内容": "ふくしん介護サービスセンター【福祉用具貸与】京都府京都市山科区御陵下御廟野町７－１グランシャリオ御陵１０１", "url": "https://www.kaigokensaku.mhlw.go.jp/26/index.php?action_kouhyou_detail_004_kani=true&JigyosyoCd=2674101262-00&ServiceCd=170&Type=search", "url2": "http://www.fukushinn.com/kaigo/" }, "geometry": { "type": "Point", "coordinates": [ 135.804972200000094, 34.993588700000011 ] } },
{ "type": "Feature", "properties": { "内容": "株式会社ブリッジサポート【福祉用具貸与】川田清水焼団地町6-2", "url": "https://www.kaigokensaku.mhlw.go.jp/26/index.php?action_kouhyou_detail_004_kani=true&JigyosyoCd=2670901525-00&ServiceCd=170&Type=search", "url2": "http://bridge-s.co.jp" }, "geometry": { "type": "Point", "coordinates": [ 135.79588774857541, 34.980262211873878 ] } },
{ "type": "Feature", "properties": { "内容": "株式会社ウエルネット【福祉用具貸与】京都市山科区椥辻西潰21番地2", "url": "https://www.kaigokensaku.mhlw.go.jp/26/index.php?action_kouhyou_detail_004_kani=true&JigyosyoCd=2674100017-00&ServiceCd=170&Type=search", "url2": "http://www.welnet.co.jp/" }, "geometry": { "type": "Point", "coordinates": [ 135.811160325264296, 34.971535500041341 ] } },
{ "type": "Feature", "properties": { "内容": "ケアサポートアニモ【福祉用具貸与】京都府京都市山科区大宅御供田町1番地サントスクエアガーデンウエスト１階", "url": "https://www.kaigokensaku.mhlw.go.jp/26/index.php?action_kouhyou_detail_004_kani=true&JigyosyoCd=2674101742-00&ServiceCd=170&Type=search", "url2": null }, "geometry": { "type": "Point", "coordinates": [ 135.824358499999988, 34.9744654 ] } },
{ "type": "Feature", "properties": { "内容": "株式会社しまだ【福祉用具貸与】京都府京都市山科区椥辻池尻町19番地の1", "url": "https://www.kaigokensaku.mhlw.go.jp/26/index.php?action_kouhyou_detail_004_kani=true&JigyosyoCd=2674100140-00&ServiceCd=170&Type=search", "url2": "https://www.kaigo-shimada.co.jp" }, "geometry": { "type": "Point", "coordinates": [ 135.813694371163933, 34.97315127001319 ] } },
{ "type": "Feature", "properties": { "内容": "やおよろず【福祉用具貸与】京都市西京区大枝塚原町9－15第一レジデンス春田117号室", "url": "https://www.kaigokensaku.mhlw.go.jp/26/index.php?action_kouhyou_detail_004_kani=true&JigyosyoCd=2674001629-00&ServiceCd=170&Type=search", "url2": null }, "geometry": { "type": "Point", "coordinates": [ 135.6698604, 34.9729842 ] } },
{ "type": "Feature", "properties": { "内容": "株式会社ワンズライフ【福祉用具貸与】京都府京都市西京区御陵北山下町55番地1-6", "url": "https://www.kaigokensaku.mhlw.go.jp/26/index.php?action_kouhyou_detail_004_kani=true&JigyosyoCd=2670500681-00&ServiceCd=170&Type=search", "url2": "https://peraichi.com/landing_pages/view/ones-life1126" }, "geometry": { "type": "Point", "coordinates": [ 135.690327857111413, 34.979868857656214 ] } },
{ "type": "Feature", "properties": { "内容": "有限会社　博英社【福祉用具貸与】京都市西京区大原野西境谷町2丁目14-15", "url": "https://www.kaigokensaku.mhlw.go.jp/26/index.php?action_kouhyou_detail_004_kani=true&JigyosyoCd=2674000118-00&ServiceCd=170&Type=search", "url2": "http://www.onyx.dti.ne.jp/~hakueisa/" }, "geometry": { "type": "Point", "coordinates": [ 135.669554400000038, 34.9620425 ] } },
{ "type": "Feature", "properties": { "内容": "株式会社　三笑堂洛西営業所【福祉用具貸与】西京区大枝北福西町三丁目2-5", "url": "https://www.kaigokensaku.mhlw.go.jp/26/index.php?action_kouhyou_detail_004_kani=true&JigyosyoCd=2674000860-00&ServiceCd=170&Type=search", "url2": "http://www.sanshodoh.co.jp/" }, "geometry": { "type": "Point", "coordinates": [ 135.684289237573239, 34.959741857072679 ] } },
{ "type": "Feature", "properties": { "内容": "おたっしゃ本舗【福祉用具貸与】京都府京都市西京区桂畑ケ田町102", "url": "https://www.kaigokensaku.mhlw.go.jp/26/index.php?action_kouhyou_detail_004_kani=true&JigyosyoCd=2674001397-00&ServiceCd=170&Type=search", "url2": "https://cny.kyoto.jp/" }, "geometry": { "type": "Point", "coordinates": [ 135.704326900000012, 34.9935562 ] } },
{ "type": "Feature", "properties": { "内容": "株式会社ヤマシタ西京営業所【福祉用具貸与】京都市西京区桂河田町95番地", "url": "https://www.kaigokensaku.mhlw.go.jp/26/index.php?action_kouhyou_detail_004_kani=true&JigyosyoCd=2674001553-00&ServiceCd=170&Type=search", "url2": "https://www.yco.co.jp/" }, "geometry": { "type": "Point", "coordinates": [ 135.705341393553084, 34.987648307236491 ] } },
{ "type": "Feature", "properties": { "内容": "ダスキンヘルスレント福知山ステーション【福祉用具貸与】和久市町195番地", "url": "https://www.kaigokensaku.mhlw.go.jp/26/index.php?action_kouhyou_detail_004_kani=true&JigyosyoCd=2672600711-00&ServiceCd=170&Type=search", "url2": "https://healthrent.duskin.jp/index.html?link=phead" }, "geometry": { "type": "Point", "coordinates": [ 135.1138197, 35.3096664 ] } },
{ "type": "Feature", "properties": { "内容": "株式会社三笑堂福知山営業所【福祉用具貸与】京都府福知山市字前田小字池部43番14", "url": "https://www.kaigokensaku.mhlw.go.jp/26/index.php?action_kouhyou_detail_004_kani=true&JigyosyoCd=2672600471-00&ServiceCd=170&Type=search", "url2": "http://www.sanshodoh.co.jp/" }, "geometry": { "type": "Point", "coordinates": [ 135.152660948607263, 35.297091992496327 ] } },
{ "type": "Feature", "properties": { "内容": "株式会社　石坪【福祉用具貸与】京都府福知山市篠尾新町2丁目88番地", "url": "https://www.kaigokensaku.mhlw.go.jp/26/index.php?action_kouhyou_detail_004_kani=true&JigyosyoCd=2672600166-00&ServiceCd=170&Type=search", "url2": "http://www.ishitsubo.co.jp" }, "geometry": { "type": "Point", "coordinates": [ 135.113272400000028, 35.3017963 ] } },
{ "type": "Feature", "properties": { "内容": "コスモライフ北京都【福祉用具貸与】京都府福知山市東羽合173", "url": "https://www.kaigokensaku.mhlw.go.jp/26/index.php?action_kouhyou_detail_004_kani=true&JigyosyoCd=2672600463-00&ServiceCd=170&Type=search", "url2": "http://cosmo-cosmolife.com" }, "geometry": { "type": "Point", "coordinates": [ 135.1134892, 35.2954583 ] } },
{ "type": "Feature", "properties": { "内容": "オリエンタル株式会社【福祉用具貸与】京都府舞鶴市字行永2036番地2", "url": "https://www.kaigokensaku.mhlw.go.jp/26/index.php?action_kouhyou_detail_004_kani=true&JigyosyoCd=2672700073-00&ServiceCd=170&Type=search", "url2": null }, "geometry": { "type": "Point", "coordinates": [ 135.402335099999959, 35.46046 ] } },
{ "type": "Feature", "properties": { "内容": "株式会社三笑堂　舞鶴支店【福祉用具貸与】京都府舞鶴市溝尻1121-1", "url": "https://www.kaigokensaku.mhlw.go.jp/26/index.php?action_kouhyou_detail_004_kani=true&JigyosyoCd=2672700180-00&ServiceCd=170&Type=search", "url2": "http://www.sanshodoh.co.jp" }, "geometry": { "type": "Point", "coordinates": [ 135.410403699999961, 35.4639985 ] } },
{ "type": "Feature", "properties": { "内容": "イン・ザ・ルーム舞鶴店【福祉用具貸与】京都府舞鶴市行永東町12-9", "url": "https://www.kaigokensaku.mhlw.go.jp/26/index.php?action_kouhyou_detail_004_kani=true&JigyosyoCd=2672700750-00&ServiceCd=170&Type=search", "url2": null }, "geometry": { "type": "Point", "coordinates": [ 135.400582402103595, 35.463914457220625 ] } },
{ "type": "Feature", "properties": { "内容": "スマイル・サポート【福祉用具貸与】井倉町東１２番地の１", "url": "https://www.kaigokensaku.mhlw.go.jp/26/index.php?action_kouhyou_detail_004_kani=true&JigyosyoCd=2671800288-00&ServiceCd=170&Type=search", "url2": null }, "geometry": { "type": "Point", "coordinates": [ 135.247863709786998, 35.305056433489995 ] } },
{ "type": "Feature", "properties": { "内容": "イン・ザ・ルーム　綾部店【福祉用具貸与】京都府綾部市若松町14", "url": "https://www.kaigokensaku.mhlw.go.jp/26/index.php?action_kouhyou_detail_004_kani=true&JigyosyoCd=2671800361-00&ServiceCd=170&Type=search", "url2": null }, "geometry": { "type": "Point", "coordinates": [ 135.258175200000011, 35.2989035 ] } },
{ "type": "Feature", "properties": { "内容": "(有)パスカル【福祉用具貸与】宇治市菟道丸山37-8　　ピックアップビル3F", "url": "https://www.kaigokensaku.mhlw.go.jp/26/index.php?action_kouhyou_detail_004_kani=true&JigyosyoCd=2671200356-00&ServiceCd=170&Type=search", "url2": "http://www." }, "geometry": { "type": "Point", "coordinates": [ 135.806232300000033, 34.8979781 ] } },
{ "type": "Feature", "properties": { "内容": "パナソニックエイジフリーショップ京都南【福祉用具貸与】京都府宇治市槇島町一丁田13番地", "url": "https://www.kaigokensaku.mhlw.go.jp/26/index.php?action_kouhyou_detail_004_kani=true&JigyosyoCd=2671200380-00&ServiceCd=170&Type=search", "url2": "http://www.k-kinki.com" }, "geometry": { "type": "Point", "coordinates": [ 135.793737599999986, 34.8983784 ] } },
{ "type": "Feature", "properties": { "内容": "ダスキンヘルスレント洛南【福祉用具貸与】宇治市小倉町蓮池168-1", "url": "https://www.kaigokensaku.mhlw.go.jp/26/index.php?action_kouhyou_detail_004_kani=true&JigyosyoCd=2671200661-00&ServiceCd=170&Type=search", "url2": "https://healthrent.duskin.jp/" }, "geometry": { "type": "Point", "coordinates": [ 135.780296257781885, 34.897265886676912 ] } },
{ "type": "Feature", "properties": { "内容": "新日本ケアレンタル【福祉用具貸与】宇治野神65", "url": "https://www.kaigokensaku.mhlw.go.jp/26/index.php?action_kouhyou_detail_004_kani=true&JigyosyoCd=2671200158-00&ServiceCd=170&Type=search", "url2": "https://www.snservice.jp/" }, "geometry": { "type": "Point", "coordinates": [ 135.7934754, 34.8809559 ] } },
{ "type": "Feature", "properties": { "内容": "有限会社スマイルケア宇治営業所【福祉用具貸与】京都府宇治市五ケ庄西川原32-13", "url": "https://www.kaigokensaku.mhlw.go.jp/26/index.php?action_kouhyou_detail_004_kani=true&JigyosyoCd=2671201594-00&ServiceCd=170&Type=search", "url2": "https://smilecare.company/" }, "geometry": { "type": "Point", "coordinates": [ 135.7911138, 34.9200089 ] } },
{ "type": "Feature", "properties": { "内容": "株式会社　三笑堂　宇治営業所【福祉用具貸与】宇治市槇島町吹前56-1", "url": "https://www.kaigokensaku.mhlw.go.jp/26/index.php?action_kouhyou_detail_004_kani=true&JigyosyoCd=2671200679-00&ServiceCd=170&Type=search", "url2": "http://www.sanshodoh.co.jp" }, "geometry": { "type": "Point", "coordinates": [ 135.770921700000031, 34.8728813 ] } },
{ "type": "Feature", "properties": { "内容": "宇治病院福祉用具サービス【福祉用具貸与】五ケ庄芝ノ東28-3", "url": "https://www.kaigokensaku.mhlw.go.jp/26/index.php?action_kouhyou_detail_004_kani=true&JigyosyoCd=2671200901-00&ServiceCd=170&Type=search", "url2": "http://www.uji-hosp.or.jp/" }, "geometry": { "type": "Point", "coordinates": [ 135.801859299999933, 34.9167783 ] } },
{ "type": "Feature", "properties": { "内容": "㈱三笑堂　宮津営業所【福祉用具貸与】京都府宮津市須津2665番地8", "url": "https://www.kaigokensaku.mhlw.go.jp/26/index.php?action_kouhyou_detail_004_kani=true&JigyosyoCd=2672100126-00&ServiceCd=170&Type=search", "url2": null }, "geometry": { "type": "Point", "coordinates": [ 135.1531695, 35.5523655 ] } },
{ "type": "Feature", "properties": { "内容": "株式会社チロル　介護事業部ひまわり【福祉用具貸与】京都府宮津市字本町797", "url": "https://www.kaigokensaku.mhlw.go.jp/26/index.php?action_kouhyou_detail_004_kani=true&JigyosyoCd=2672100076-00&ServiceCd=170&Type=search", "url2": null }, "geometry": { "type": "Point", "coordinates": [ 135.195335071163925, 35.536128128944839 ] } },
{ "type": "Feature", "properties": { "内容": "ハーモニカ【福祉用具貸与】京都府亀岡市追分町八ノ坪２９－１８", "url": "https://www.kaigokensaku.mhlw.go.jp/26/index.php?action_kouhyou_detail_004_kani=true&JigyosyoCd=2671600514-00&ServiceCd=170&Type=search", "url2": "http://www.asada-kk.co.jp/" }, "geometry": { "type": "Point", "coordinates": [ 135.579330700000014, 35.0173301 ] } },
{ "type": "Feature", "properties": { "内容": "八千代ケアサポート株式会社　京都亀岡店【福祉用具貸与】京都府亀岡市余部町天神又104-1", "url": "https://www.kaigokensaku.mhlw.go.jp/26/index.php?action_kouhyou_detail_004_kani=true&JigyosyoCd=2671600597-00&ServiceCd=170&Type=search", "url2": "http://www.yachiyo-c-s.co.jp" }, "geometry": { "type": "Point", "coordinates": [ 135.5673875, 35.015483 ] } },
{ "type": "Feature", "properties": { "内容": "イン・ザ・ルーム亀岡店【福祉用具貸与】京都府亀岡市大井町小金岐4-12", "url": "https://www.kaigokensaku.mhlw.go.jp/26/index.php?action_kouhyou_detail_004_kani=true&JigyosyoCd=2671600761-00&ServiceCd=170&Type=search", "url2": null }, "geometry": { "type": "Point", "coordinates": [ 135.5468109, 35.0333853 ] } },
{ "type": "Feature", "properties": { "内容": "株式会社ウエルネット京都南支店【福祉用具貸与】京都府城陽市長池北清水48番地1", "url": "https://www.kaigokensaku.mhlw.go.jp/26/index.php?action_kouhyou_detail_004_kani=true&JigyosyoCd=2672800568-00&ServiceCd=170&Type=search", "url2": "http://www.welnet.co.jp" }, "geometry": { "type": "Point", "coordinates": [ 135.787856863636677, 34.841484662408845 ] } },
{ "type": "Feature", "properties": { "内容": "ポライト福祉用具サービス【福祉用具貸与】京都府城陽市久世下大谷15番地99平屋群北2号室", "url": "https://www.kaigokensaku.mhlw.go.jp/26/index.php?action_kouhyou_detail_004_kani=true&JigyosyoCd=2672800634-00&ServiceCd=170&Type=search", "url2": null }, "geometry": { "type": "Point", "coordinates": [ 135.780454099999986, 34.8690768 ] } },
{ "type": "Feature", "properties": { "内容": "株式会社　鈴宏【福祉用具貸与】寺戸町初田12-15", "url": "https://www.kaigokensaku.mhlw.go.jp/26/index.php?action_kouhyou_detail_004_kani=true&JigyosyoCd=2673100356-00&ServiceCd=170&Type=search", "url2": null }, "geometry": { "type": "Point", "coordinates": [ 135.7020374, 34.95227 ] } },
{ "type": "Feature", "properties": { "内容": "パナソニックエイジフリーショップ京都乙訓【福祉用具貸与】京都府長岡京市城の里１５－６", "url": "https://www.kaigokensaku.mhlw.go.jp/26/index.php?action_kouhyou_detail_004_kani=true&JigyosyoCd=2673000242-00&ServiceCd=170&Type=search", "url2": null }, "geometry": { "type": "Point", "coordinates": [ 135.706851502331602, 34.916166559992085 ] } },
{ "type": "Feature", "properties": { "内容": "株式会社ウエルネット京都西支店【福祉用具貸与】京都府長岡京市友岡4丁目21-3", "url": "https://www.kaigokensaku.mhlw.go.jp/26/index.php?action_kouhyou_detail_004_kani=true&JigyosyoCd=2673000614-00&ServiceCd=170&Type=search", "url2": "http://www.welnet.co.jp" }, "geometry": { "type": "Point", "coordinates": [ 135.689222400000062, 34.9141219 ] } },
{ "type": "Feature", "properties": { "内容": "有限会社スマイルケア【福祉用具貸与】京都府長岡京市神足麦生11", "url": "https://www.kaigokensaku.mhlw.go.jp/26/index.php?action_kouhyou_detail_004_kani=true&JigyosyoCd=2673000143-00&ServiceCd=170&Type=search", "url2": "https://www.smilecare.company" }, "geometry": { "type": "Point", "coordinates": [ 135.710253100000045, 34.923372 ] } },
{ "type": "Feature", "properties": { "内容": "株式会社Lipsライオンホームケア【福祉用具貸与】京都府長岡京市今里庄ノ渕30番地", "url": "https://www.kaigokensaku.mhlw.go.jp/26/index.php?action_kouhyou_detail_004_kani=true&JigyosyoCd=2673000796-00&ServiceCd=170&Type=search", "url2": null }, "geometry": { "type": "Point", "coordinates": [ 135.6920591, 34.9368818 ] } },
{ "type": "Feature", "properties": { "内容": "株式会社ケアショップはな【福祉用具貸与】野添2丁目2番14号", "url": "https://www.kaigokensaku.mhlw.go.jp/26/index.php?action_kouhyou_detail_004_kani=true&JigyosyoCd=2673000424-00&ServiceCd=170&Type=search", "url2": null }, "geometry": { "type": "Point", "coordinates": [ 135.69415749999996, 34.9336203 ] } },
{ "type": "Feature", "properties": { "内容": "株式会社　サンてらす【福祉用具貸与】京都府八幡市八幡科手30番4", "url": "https://www.kaigokensaku.mhlw.go.jp/26/index.php?action_kouhyou_detail_004_kani=true&JigyosyoCd=2672900129-00&ServiceCd=170&Type=search", "url2": "http://santerasu.com/" }, "geometry": { "type": "Point", "coordinates": [ 135.698949299999981, 34.8865088 ] } },
{ "type": "Feature", "properties": { "内容": "株式会社　フロンティア京田辺営業所【福祉用具貸与】薪西沢１２－３リアネスビル１階", "url": "https://www.kaigokensaku.mhlw.go.jp/26/index.php?action_kouhyou_detail_004_kani=true&JigyosyoCd=2673200362-00&ServiceCd=170&Type=search", "url2": "http://www.frontier-ph.com/homecare/" }, "geometry": { "type": "Point", "coordinates": [ 135.760761799999955, 34.8240858 ] } },
{ "type": "Feature", "properties": { "内容": "株式会社愛安住　京都営業所【福祉用具貸与】京都府京田辺市田辺蕪木22番地17", "url": "https://www.kaigokensaku.mhlw.go.jp/26/index.php?action_kouhyou_detail_004_kani=true&JigyosyoCd=2673200305-00&ServiceCd=170&Type=search", "url2": "https://www.aianju.co.jp" }, "geometry": { "type": "Point", "coordinates": [ 135.770205499999946, 34.823883 ] } },
{ "type": "Feature", "properties": { "内容": "株式会社　相弥【福祉用具貸与】京都府京丹後市大宮町周枳680番地の1", "url": "https://www.kaigokensaku.mhlw.go.jp/26/index.php?action_kouhyou_detail_004_kani=true&JigyosyoCd=2673300105-00&ServiceCd=170&Type=search", "url2": "http://www." }, "geometry": { "type": "Point", "coordinates": [ 135.103376300000036, 35.5894675 ] } },
{ "type": "Feature", "properties": { "内容": "ケアタイムズ【福祉用具貸与】京都府京丹後市峰山町長岡738-7", "url": "https://www.kaigokensaku.mhlw.go.jp/26/index.php?action_kouhyou_detail_004_kani=true&JigyosyoCd=2673300212-00&ServiceCd=170&Type=search", "url2": null }, "geometry": { "type": "Point", "coordinates": [ 135.0623051, 35.6082027 ] } },
{ "type": "Feature", "properties": { "内容": "ケア・すぎけん【福祉用具貸与】京都府京丹後大宮町三坂129-1", "url": "https://www.kaigokensaku.mhlw.go.jp/26/index.php?action_kouhyou_detail_004_kani=true&JigyosyoCd=2672000219-00&ServiceCd=170&Type=search", "url2": "http.//www.sugiken.ocn.ne.jp/" }, "geometry": { "type": "Point", "coordinates": [ 135.121213799999964, 35.531300300000034 ] } },
{ "type": "Feature", "properties": { "内容": "株式会社石坪　京丹後営業所【福祉用具貸与】京都府京丹後市峰山町富貴屋３５", "url": "https://www.kaigokensaku.mhlw.go.jp/26/index.php?action_kouhyou_detail_004_kani=true&JigyosyoCd=2673300253-00&ServiceCd=170&Type=search", "url2": null }, "geometry": { "type": "Point", "coordinates": [ 135.0571835, 35.624744 ] } },
{ "type": "Feature", "properties": { "内容": "有限会社　クローバー【福祉用具貸与】京都府南丹市園部町上木崎町岩崎4-1", "url": "https://www.kaigokensaku.mhlw.go.jp/26/index.php?action_kouhyou_detail_004_kani=true&JigyosyoCd=2671500235-00&ServiceCd=170&Type=search", "url2": "http://www." }, "geometry": { "type": "Point", "coordinates": [ 135.466118100000017, 35.1118874 ] } },
{ "type": "Feature", "properties": { "内容": "有限会社いなふ【福祉用具貸与】京都府南丹市園部町小山東町水無12", "url": "https://www.kaigokensaku.mhlw.go.jp/26/index.php?action_kouhyou_detail_004_kani=true&JigyosyoCd=2671500227-00&ServiceCd=170&Type=search", "url2": "https://www.t-enough.com" }, "geometry": { "type": "Point", "coordinates": [ 135.4854752, 35.1020917 ] } },
{ "type": "Feature", "properties": { "内容": "株式会社歩ビリス【福祉用具貸与】京都府木津川市相楽神後原57-1ブルグ藪内２号館１階", "url": "https://www.kaigokensaku.mhlw.go.jp/26/index.php?action_kouhyou_detail_004_kani=true&JigyosyoCd=2673500191-00&ServiceCd=170&Type=search", "url2": null }, "geometry": { "type": "Point", "coordinates": [ 135.797542079762252, 34.735768018922457 ] } },
{ "type": "Feature", "properties": { "内容": "あるる【福祉用具貸与】京都府久世郡久御山町森村東238", "url": "https://www.kaigokensaku.mhlw.go.jp/26/index.php?action_kouhyou_detail_004_kani=true&JigyosyoCd=2671100051-00&ServiceCd=170&Type=search", "url2": "https://a-lu-ru.com/" }, "geometry": { "type": "Point", "coordinates": [ 135.740997800000059, 34.8924067 ] } },
{ "type": "Feature", "properties": { "内容": "マツダメディカルマーケット【福祉用具貸与】京都府久世郡久御山町佐山双置82-3マツダメディカルタワー1F", "url": "https://www.kaigokensaku.mhlw.go.jp/26/index.php?action_kouhyou_detail_004_kani=true&JigyosyoCd=2671100168-00&ServiceCd=170&Type=search", "url2": "https://matsuda-medical.jp/" }, "geometry": { "type": "Point", "coordinates": [ 135.7536776, 34.8755494 ] } },
{ "type": "Feature", "properties": { "内容": "ニック株式会社　京都営業所【福祉用具貸与】京都府久世郡久御山町島田堤外22", "url": "https://www.kaigokensaku.mhlw.go.jp/26/index.php?action_kouhyou_detail_004_kani=true&JigyosyoCd=2671100044-00&ServiceCd=170&Type=search", "url2": "http://www.nick-corp.com" }, "geometry": { "type": "Point", "coordinates": [ 135.735229299999986, 34.882919 ] } },
{ "type": "Feature", "properties": { "内容": "株式会社サンてらす　精華営業所【福祉用具貸与】京都府相楽郡精華町祝園西1丁目22番地5寺島ビル1階102号室", "url": "https://www.kaigokensaku.mhlw.go.jp/26/index.php?action_kouhyou_detail_004_kani=true&JigyosyoCd=2671400519-00&ServiceCd=170&Type=search", "url2": "http://santerasu.com/" }, "geometry": { "type": "Point", "coordinates": [ 135.7908143, 34.7609334 ] } },
{ "type": "Feature", "properties": { "内容": "株式会社ケアネット【福祉用具貸与】京都府与謝郡与謝野町字算所100", "url": "https://www.kaigokensaku.mhlw.go.jp/26/index.php?action_kouhyou_detail_004_kani=true&JigyosyoCd=2672000037-00&ServiceCd=170&Type=search", "url2": "http://www.carenet-y.co.jp" }, "geometry": { "type": "Point", "coordinates": [ 135.095044599999937, 35.5084475 ] } }
]
}
