{
"type": "FeatureCollection",
"name": "geo_26_介護老人福祉施設",
"crs": { "type": "name", "properties": { "name": "urn:ogc:def:crs:OGC:1.3:CRS84" } },
"features": [
{ "type": "Feature", "properties": { "内容": "京都市柊野特別養護老人ホーム【介護老人福祉施設】京都市北区上賀茂馬ノ目町１０－１", "url": "https://www.kaigokensaku.mhlw.go.jp/26/index.php?action_kouhyou_detail_004_kani=true&JigyosyoCd=2670100037-00&ServiceCd=510&Type=search", "url2": "http://www.hiragino.or.jp" }, "geometry": { "type": "Point", "coordinates": [ 135.747552600000063, 35.0668888 ] } },
{ "type": "Feature", "properties": { "内容": "特別養護老人ホーム「ヴィラ上賀茂」【介護老人福祉施設】京都市北区上賀茂中ノ河原町22-1", "url": "https://www.kaigokensaku.mhlw.go.jp/26/index.php?action_kouhyou_detail_004_kani=true&JigyosyoCd=2670100128-00&ServiceCd=510&Type=search", "url2": "https://www.hiragino.or.jp/project/kamigamo-villa.html" }, "geometry": { "type": "Point", "coordinates": [ 135.747480399999972, 35.0664416 ] } },
{ "type": "Feature", "properties": { "内容": "特別養護老人ホーム　原谷こぶしの里【介護老人福祉施設】京都市北区大北山長谷町5-36", "url": "https://www.kaigokensaku.mhlw.go.jp/26/index.php?action_kouhyou_detail_004_kani=true&JigyosyoCd=2670100060-00&ServiceCd=510&Type=search", "url2": "http://www.nananokai.com" }, "geometry": { "type": "Point", "coordinates": [ 135.719349599999987, 35.0451156 ] } },
{ "type": "Feature", "properties": { "内容": "特別養護老人ホーム紫野【介護老人福祉施設】京都市北区紫野西野町15番地", "url": "https://www.kaigokensaku.mhlw.go.jp/26/index.php?action_kouhyou_detail_004_kani=true&JigyosyoCd=2670100433-00&ServiceCd=510&Type=search", "url2": "http://www.e-caretown.com/26/kyoto-murasakino/index.html" }, "geometry": { "type": "Point", "coordinates": [ 135.741553100000033, 35.0413943 ] } },
{ "type": "Feature", "properties": { "内容": "特別養護老人ホーム和順の里【介護老人福祉施設】京都市北区大北山原谷乾町102－1", "url": "https://www.kaigokensaku.mhlw.go.jp/26/index.php?action_kouhyou_detail_004_kani=true&JigyosyoCd=2670100508-00&ServiceCd=510&Type=search", "url2": "http://www.wajun.sakura.ne.jp" }, "geometry": { "type": "Point", "coordinates": [ 135.71560820000002, 35.0434436 ] } },
{ "type": "Feature", "properties": { "内容": "特別養護老人ホームユーカリの里【介護老人福祉施設】京都市北区上賀茂ケシ山１-４３", "url": "https://www.kaigokensaku.mhlw.go.jp/26/index.php?action_kouhyou_detail_004_kani=true&JigyosyoCd=2670100219-00&ServiceCd=510&Type=search", "url2": "https://www.kyoto-jinkeikai.com/" }, "geometry": { "type": "Point", "coordinates": [ 135.769589600000018, 35.0603618 ] } },
{ "type": "Feature", "properties": { "内容": "介護老人福祉施設にしがも舟山庵【介護老人福祉施設】京都市北区大宮西山ノ前町3番地1", "url": "https://www.kaigokensaku.mhlw.go.jp/26/index.php?action_kouhyou_detail_004_kani=true&JigyosyoCd=2670100813-00&ServiceCd=510&Type=search", "url2": "http://funayamaan.com/" }, "geometry": { "type": "Point", "coordinates": [ 135.740522700000042, 35.0587118 ] } },
{ "type": "Feature", "properties": { "内容": "介護老人福祉施設　つきかげ苑【介護老人福祉施設】京都市上京区寺町通清和院口上ル二丁目北ノ辺町395番地20", "url": "https://www.kaigokensaku.mhlw.go.jp/26/index.php?action_kouhyou_detail_004_kani=true&JigyosyoCd=2670200431-00&ServiceCd=510&Type=search", "url2": "http://jozankai.jp/" }, "geometry": { "type": "Point", "coordinates": [ 135.749697, 35.0323732 ] } },
{ "type": "Feature", "properties": { "内容": "京都市小川特別養護老人ホーム【介護老人福祉施設】京都市上京区小川通今出川下る西入東今町375番地", "url": "https://www.kaigokensaku.mhlw.go.jp/26/index.php?action_kouhyou_detail_004_kani=true&JigyosyoCd=2670200894-00&ServiceCd=510&Type=search", "url2": "https://www.kyoto-fukushi.org/office/detail/oga/" }, "geometry": { "type": "Point", "coordinates": [ 135.753629590737916, 35.028916598660182 ] } },
{ "type": "Feature", "properties": { "内容": "特別養護老人ホーム西陣憩いの郷【介護老人福祉施設】桐木町885番1", "url": "https://www.kaigokensaku.mhlw.go.jp/26/index.php?action_kouhyou_detail_004_kani=true&JigyosyoCd=2670200498-00&ServiceCd=510&Type=search", "url2": "http://nishijin.kitano-kenjukai.or.jp/" }, "geometry": { "type": "Point", "coordinates": [ 135.7424254, 35.0317369 ] } },
{ "type": "Feature", "properties": { "内容": "特別養護老人ホーム　洛翠園【介護老人福祉施設】京都市左京区岩倉村松町203番地", "url": "https://www.kaigokensaku.mhlw.go.jp/26/index.php?action_kouhyou_detail_004_kani=true&JigyosyoCd=2670600283-00&ServiceCd=510&Type=search", "url2": "https://www.iwakuranosato.jp" }, "geometry": { "type": "Point", "coordinates": [ 135.781655099999966, 35.088414 ] } },
{ "type": "Feature", "properties": { "内容": "特別養護老人ホーム　静原寮【介護老人福祉施設】京都府京都市左京区静市静原町582番地の1", "url": "https://www.kaigokensaku.mhlw.go.jp/26/index.php?action_kouhyou_detail_004_kani=true&JigyosyoCd=2670600150-00&ServiceCd=510&Type=search", "url2": "https://www.shizuhararyo.com" }, "geometry": { "type": "Point", "coordinates": [ 135.783340899999985, 35.1071424 ] } },
{ "type": "Feature", "properties": { "内容": "介護老人福祉施設市原寮【介護老人福祉施設】京都府京都市左京区静市市原町1278番地", "url": "https://www.kaigokensaku.mhlw.go.jp/26/index.php?action_kouhyou_detail_004_kani=true&JigyosyoCd=2670600010-00&ServiceCd=510&Type=search", "url2": "http://www.itihara.or.jp/" }, "geometry": { "type": "Point", "coordinates": [ 135.761518, 35.0906859 ] } },
{ "type": "Feature", "properties": { "内容": "介護老人福祉施設花友しらかわ【介護老人福祉施設】京都府京都市左京区浄土寺真如町155-3", "url": "https://www.kaigokensaku.mhlw.go.jp/26/index.php?action_kouhyou_detail_004_kani=true&JigyosyoCd=2670600267-00&ServiceCd=510&Type=search", "url2": "http://www.itihara.or.jp/" }, "geometry": { "type": "Point", "coordinates": [ 135.791701118385248, 35.020539418658352 ] } },
{ "type": "Feature", "properties": { "内容": "介護老人福祉施設　花友いちはら【介護老人福祉施設】京都市左京区静市市原町1300番地1", "url": "https://www.kaigokensaku.mhlw.go.jp/26/index.php?action_kouhyou_detail_004_kani=true&JigyosyoCd=2670601109-00&ServiceCd=510&Type=search", "url2": "http://www.itihara.or.jp/" }, "geometry": { "type": "Point", "coordinates": [ 135.761225597518518, 35.089861654480394 ] } },
{ "type": "Feature", "properties": { "内容": "特別養護老人ホーム大原ホーム【介護老人福祉施設】京都市左京区大原戸寺町380", "url": "https://www.kaigokensaku.mhlw.go.jp/26/index.php?action_kouhyou_detail_004_kani=true&JigyosyoCd=2670600051-00&ServiceCd=510&Type=search", "url2": "https://kyotoohara.or.jp/facilityservice/oharahome_sn/" }, "geometry": { "type": "Point", "coordinates": [ 135.822444899999937, 35.1046547 ] } },
{ "type": "Feature", "properties": { "内容": "特別養護老人ホーム　バプテスト・ホーム【介護老人福祉施設】京都市左京区北白川山ノ元町47-2", "url": "https://www.kaigokensaku.mhlw.go.jp/26/index.php?action_kouhyou_detail_004_kani=true&JigyosyoCd=2670600101-00&ServiceCd=510&Type=search", "url2": "http://www.baptist-megumikai.com" }, "geometry": { "type": "Point", "coordinates": [ 135.796012900000051, 35.0345399 ] } },
{ "type": "Feature", "properties": { "内容": "特別養護老人ホーム　壬生老人ホーム【介護老人福祉施設】京都市中京区壬生梛ノ宮町２７", "url": "https://www.kaigokensaku.mhlw.go.jp/26/index.php?action_kouhyou_detail_004_kani=true&JigyosyoCd=2670300025-00&ServiceCd=510&Type=search", "url2": "http://www.mibuhomu.com/" }, "geometry": { "type": "Point", "coordinates": [ 135.744028899999989, 35.0013536 ] } },
{ "type": "Feature", "properties": { "内容": "介護老人福祉施設　ライトハウス朱雀【介護老人福祉施設】京都府京都市中京区西ノ京新建町3番地", "url": "https://www.kaigokensaku.mhlw.go.jp/26/index.php?action_kouhyou_detail_004_kani=true&JigyosyoCd=2670301056-00&ServiceCd=510&Type=search", "url2": "www.kyoto-lighthouse.or.jp" }, "geometry": { "type": "Point", "coordinates": [ 135.732593599999973, 35.0095331 ] } },
{ "type": "Feature", "properties": { "内容": "京都市本能特別養護老人ホーム【介護老人福祉施設】京都市中京区蛸薬師通油小路東入元本能寺南町346番地", "url": "https://www.kaigokensaku.mhlw.go.jp/26/index.php?action_kouhyou_detail_004_kani=true&JigyosyoCd=2670300553-00&ServiceCd=510&Type=search", "url2": "https://www.kyoto-fukushi.org/" }, "geometry": { "type": "Point", "coordinates": [ 135.753816197156112, 35.006023179751551 ] } },
{ "type": "Feature", "properties": { "内容": "特別養護老人ホーム洛東園【介護老人福祉施設】京都府京都市東山区本町15丁目794番地", "url": "https://www.kaigokensaku.mhlw.go.jp/26/index.php?action_kouhyou_detail_004_kani=true&JigyosyoCd=2670800032-00&ServiceCd=510&Type=search", "url2": "http://www.wf-rakutouen.com" }, "geometry": { "type": "Point", "coordinates": [ 135.7731652, 34.9798535 ] } },
{ "type": "Feature", "properties": { "内容": "特別養護老人ホーム修道洛東園【介護老人福祉施設】京都府京都市東山区渋谷通本町東入三丁目上新シ町358番地", "url": "https://www.kaigokensaku.mhlw.go.jp/26/index.php?action_kouhyou_detail_004_kani=true&JigyosyoCd=2670800271-00&ServiceCd=510&Type=search", "url2": "http://www.wf-rakutouen.com/" }, "geometry": { "type": "Point", "coordinates": [ 135.773340173849419, 34.993853269841317 ] } },
{ "type": "Feature", "properties": { "内容": "特別養護老人ホーム西七条【介護老人福祉施設】京都市下京区西七条八幡町29番地", "url": "https://www.kaigokensaku.mhlw.go.jp/26/index.php?action_kouhyou_detail_004_kani=true&JigyosyoCd=2670400205-00&ServiceCd=510&Type=search", "url2": null }, "geometry": { "type": "Point", "coordinates": [ 135.728960799999982, 34.9924401 ] } },
{ "type": "Feature", "properties": { "内容": "京都市修徳特別養護老人ホーム【介護老人福祉施設】京都市下京区富永町110-1", "url": "https://www.kaigokensaku.mhlw.go.jp/26/index.php?action_kouhyou_detail_004_kani=true&JigyosyoCd=2670400296-00&ServiceCd=510&Type=search", "url2": "http://www.kyoto-fukushi.org/" }, "geometry": { "type": "Point", "coordinates": [ 135.756890597761526, 34.997934311814952 ] } },
{ "type": "Feature", "properties": { "内容": "特別養護老人ホーム　京都五条ひまわりの郷【介護老人福祉施設】京都府京都市下京区中堂寺前田町26番地特別養護老人ホーム　京都五条ひまわりの郷", "url": "https://www.kaigokensaku.mhlw.go.jp/26/index.php?action_kouhyou_detail_004_kani=true&JigyosyoCd=2670400932-00&ServiceCd=510&Type=search", "url2": "www.shinseifukushikai.jp/himawari" }, "geometry": { "type": "Point", "coordinates": [ 135.7466671, 34.9957173 ] } },
{ "type": "Feature", "properties": { "内容": "特別養護老人ホーム京・みやこ【介護老人福祉施設】京都府京都市下京区西七条八幡町31", "url": "https://www.kaigokensaku.mhlw.go.jp/26/index.php?action_kouhyou_detail_004_kani=true&JigyosyoCd=2670401286-00&ServiceCd=510&Type=search", "url2": "https://yamabikokai-kyoto.com" }, "geometry": { "type": "Point", "coordinates": [ 135.729615, 34.9923342 ] } },
{ "type": "Feature", "properties": { "内容": "京都市菊浜特別養護老人ホーム【介護老人福祉施設】京都府京都市下京区西木屋町通上ノ口上る梅湊町83番地1ひとまち交流館京都4・5階", "url": "https://www.kaigokensaku.mhlw.go.jp/26/index.php?action_kouhyou_detail_004_kani=true&JigyosyoCd=2670401302-00&ServiceCd=510&Type=search", "url2": "http://www.wf-rakutouen.com" }, "geometry": { "type": "Point", "coordinates": [ 135.7651265, 34.9931917 ] } },
{ "type": "Feature", "properties": { "内容": "特別養護老人ホーム故郷の家・京都【介護老人福祉施設】京都市南区東九条南松ノ木町４７", "url": "https://www.kaigokensaku.mhlw.go.jp/26/index.php?action_kouhyou_detail_004_kani=true&JigyosyoCd=2670500442-00&ServiceCd=510&Type=search", "url2": "http://www.kokorono.or.jp/" }, "geometry": { "type": "Point", "coordinates": [ 135.76645469999994, 34.9767675 ] } },
{ "type": "Feature", "properties": { "内容": "特別養護老人ホーム塔南の園【介護老人福祉施設】京都市南区西九条菅田町4番地の2総合福祉施設　塔南の園", "url": "https://www.kaigokensaku.mhlw.go.jp/26/index.php?action_kouhyou_detail_004_kani=true&JigyosyoCd=2670500046-00&ServiceCd=510&Type=search", "url2": "https://www.kyoto-fukushi.org/" }, "geometry": { "type": "Point", "coordinates": [ 135.746873100000016, 34.9740395 ] } },
{ "type": "Feature", "properties": { "内容": "京都市久世特別養護老人ホーム【介護老人福祉施設】京都市南区久世築山町328", "url": "https://www.kaigokensaku.mhlw.go.jp/26/index.php?action_kouhyou_detail_004_kani=true&JigyosyoCd=2670500012-00&ServiceCd=510&Type=search", "url2": "http://www.seiwaen.or.jp" }, "geometry": { "type": "Point", "coordinates": [ 135.724863464763985, 34.957814604954443 ] } },
{ "type": "Feature", "properties": { "内容": "東九条のぞみ特別養護老人ホーム【介護老人福祉施設】京都市南区東九条西岩本町1-1", "url": "https://www.kaigokensaku.mhlw.go.jp/26/index.php?action_kouhyou_detail_004_kani=true&JigyosyoCd=2670500061-00&ServiceCd=510&Type=search", "url2": "https://www.nozominosono.net/" }, "geometry": { "type": "Point", "coordinates": [ 135.76306610000006, 34.9821308 ] } },
{ "type": "Feature", "properties": { "内容": "特別養護老人ホームビハーラ十条【介護老人福祉施設】京都市南区吉祥院南落合町40-4", "url": "https://www.kaigokensaku.mhlw.go.jp/26/index.php?action_kouhyou_detail_004_kani=true&JigyosyoCd=2670500350-00&ServiceCd=510&Type=search", "url2": "http://www.vhr10.jp" }, "geometry": { "type": "Point", "coordinates": [ 135.740709596295119, 34.972982695724504 ] } },
{ "type": "Feature", "properties": { "内容": "特別養護老人ホーム吉祥ホーム【介護老人福祉施設】京都市南区吉祥院石原橋上1-4", "url": "https://www.kaigokensaku.mhlw.go.jp/26/index.php?action_kouhyou_detail_004_kani=true&JigyosyoCd=2670500020-00&ServiceCd=510&Type=search", "url2": "http://www.seiwaen.or.jp" }, "geometry": { "type": "Point", "coordinates": [ 135.723936200000026, 34.968156 ] } },
{ "type": "Feature", "properties": { "内容": "特別養護老人ホーム嵐山寮【介護老人福祉施設】京都市右京区嵯峨天龍寺北造路町17番地", "url": "https://www.kaigokensaku.mhlw.go.jp/26/index.php?action_kouhyou_detail_004_kani=true&JigyosyoCd=2670700059-00&ServiceCd=510&Type=search", "url2": "http://www.arashiyamaryo.or.jp" }, "geometry": { "type": "Point", "coordinates": [ 135.677838169500092, 35.016603440291199 ] } },
{ "type": "Feature", "properties": { "内容": "特別養護老人ホーム　うずまさ共生の郷【介護老人福祉施設】京都府京都市右京区太秦蜂岡町31番", "url": "https://www.kaigokensaku.mhlw.go.jp/26/index.php?action_kouhyou_detail_004_kani=true&JigyosyoCd=2670701891-00&ServiceCd=510&Type=search", "url2": "http://shimei-f.net" }, "geometry": { "type": "Point", "coordinates": [ 135.706763584130869, 35.013940501889309 ] } },
{ "type": "Feature", "properties": { "内容": "特別養護老人ホーム　すないの家　太秦【介護老人福祉施設】京都府京都市右京区常盤森町12番１", "url": "https://www.kaigokensaku.mhlw.go.jp/26/index.php?action_kouhyou_detail_004_kani=true&JigyosyoCd=2670702642-00&ServiceCd=510&Type=search", "url2": "https://kanae-gr.or.jp/kaigo/sunai/uzumasa/" }, "geometry": { "type": "Point", "coordinates": [ 135.712726800000013, 35.0182354 ] } },
{ "type": "Feature", "properties": { "内容": "特別養護老人ホーム健光園あらしやま【介護老人福祉施設】京都市右京区嵯峨柳田町36-5", "url": "https://www.kaigokensaku.mhlw.go.jp/26/index.php?action_kouhyou_detail_004_kani=true&JigyosyoCd=2660790052-00&ServiceCd=510&Type=search", "url2": "http://www.kenkouen.jp/" }, "geometry": { "type": "Point", "coordinates": [ 135.6879884, 35.011851200000024 ] } },
{ "type": "Feature", "properties": { "内容": "特別養護老人ホーム　梅津富士園【介護老人福祉施設】京都市右京区梅津尻溝町28番地", "url": "https://www.kaigokensaku.mhlw.go.jp/26/index.php?action_kouhyou_detail_004_kani=true&JigyosyoCd=2670700026-00&ServiceCd=510&Type=search", "url2": "https://fujien.jp/" }, "geometry": { "type": "Point", "coordinates": [ 135.693858399999954, 35.0012196 ] } },
{ "type": "Feature", "properties": { "内容": "特別養護老人ホームアムールうずまさ【介護老人福祉施設】京都府京都市右京区太秦一ノ井町39番地8", "url": "https://www.kaigokensaku.mhlw.go.jp/26/index.php?action_kouhyou_detail_004_kani=true&JigyosyoCd=2670700042-00&ServiceCd=510&Type=search", "url2": "https://nanasekai.or.jp" }, "geometry": { "type": "Point", "coordinates": [ 135.710353700000041, 35.017757 ] } },
{ "type": "Feature", "properties": { "内容": "介護老人福祉施設　花友にしこうじ【介護老人福祉施設】京都府京都市右京区西京極南庄境町6番地", "url": "https://www.kaigokensaku.mhlw.go.jp/26/index.php?action_kouhyou_detail_004_kani=true&JigyosyoCd=2670700398-00&ServiceCd=510&Type=search", "url2": "http://www.itihara.or.jp/" }, "geometry": { "type": "Point", "coordinates": [ 135.726052699999968, 34.99159 ] } },
{ "type": "Feature", "properties": { "内容": "特別養護老人ホーム　豊和園【介護老人福祉施設】京都市右京区京北上中町宮ノ下22番地", "url": "https://www.kaigokensaku.mhlw.go.jp/26/index.php?action_kouhyou_detail_004_kani=true&JigyosyoCd=2670700463-00&ServiceCd=510&Type=search", "url2": "http://www.hokusoukai.com" }, "geometry": { "type": "Point", "coordinates": [ 135.6369449, 35.2022886 ] } },
{ "type": "Feature", "properties": { "内容": "特別養護老人ホームはなぞの【介護老人福祉施設】京都市右京区花園鷹司町1-1", "url": "https://www.kaigokensaku.mhlw.go.jp/26/index.php?action_kouhyou_detail_004_kani=true&JigyosyoCd=2670700703-00&ServiceCd=510&Type=search", "url2": "http://www.kenkouen.jp/" }, "geometry": { "type": "Point", "coordinates": [ 135.725191099999961, 35.025212 ] } },
{ "type": "Feature", "properties": { "内容": "嵐山寮特別養護老人ホームうたの【介護老人福祉施設】京都市右京区太秦中山町１５番地嵐山寮特別養護老人ホームうたの", "url": "https://www.kaigokensaku.mhlw.go.jp/26/index.php?action_kouhyou_detail_004_kani=true&JigyosyoCd=2670701057-00&ServiceCd=510&Type=search", "url2": "http://www.arashiyamaryo.or.jp" }, "geometry": { "type": "Point", "coordinates": [ 135.701446, 35.0258146 ] } },
{ "type": "Feature", "properties": { "内容": "特別養護老人ホーム　同和園【介護老人福祉施設】京都市伏見区醍醐上ノ山町11番地", "url": "https://www.kaigokensaku.mhlw.go.jp/26/index.php?action_kouhyou_detail_004_kani=true&JigyosyoCd=2670900188-00&ServiceCd=510&Type=search", "url2": "https://dowaen.jp/" }, "geometry": { "type": "Point", "coordinates": [ 135.814693900000066, 34.9570819 ] } },
{ "type": "Feature", "properties": { "内容": "特別養護老人ホームみやびのその【介護老人福祉施設】京都市伏見区深草泓ノ壺町35-1", "url": "https://www.kaigokensaku.mhlw.go.jp/26/index.php?action_kouhyou_detail_004_kani=true&JigyosyoCd=2670900162-00&ServiceCd=510&Type=search", "url2": "https://www.fujinokai.jp" }, "geometry": { "type": "Point", "coordinates": [ 135.7598074, 34.9491699 ] } },
{ "type": "Feature", "properties": { "内容": "特別養護老人ホームすばる醍醐【介護老人福祉施設】京都府京都市伏見区醍醐川久保町18番地1", "url": "https://www.kaigokensaku.mhlw.go.jp/26/index.php?action_kouhyou_detail_004_kani=true&JigyosyoCd=2670917547-00&ServiceCd=510&Type=search", "url2": "https://yukyukai-hikaruen.or.jp" }, "geometry": { "type": "Point", "coordinates": [ 135.8118823, 34.9537374 ] } },
{ "type": "Feature", "properties": { "内容": "特別養護老人ホーム洛和ヴィラ桃山【介護老人福祉施設】京都府京都市伏見区桃山町大島38-528", "url": "https://www.kaigokensaku.mhlw.go.jp/26/index.php?action_kouhyou_detail_004_kani=true&JigyosyoCd=2670900022-00&ServiceCd=510&Type=search", "url2": "https://kaigo.rakuwa.or.jp/service/station/tokuyou-momoyama/" }, "geometry": { "type": "Point", "coordinates": [ 135.790532100000064, 34.9254563 ] } },
{ "type": "Feature", "properties": { "内容": "特別養護老人ホームヴィラ端山【介護老人福祉施設】京都市伏見区醍醐下端山町36", "url": "https://www.kaigokensaku.mhlw.go.jp/26/index.php?action_kouhyou_detail_004_kani=true&JigyosyoCd=2670900055-00&ServiceCd=510&Type=search", "url2": "https://www.villa.or.jp" }, "geometry": { "type": "Point", "coordinates": [ 135.81981559999997, 34.9478801 ] } },
{ "type": "Feature", "properties": { "内容": "特別養護老人ホーム　ヴィラ向島【介護老人福祉施設】京都市伏見区向島新上林町16", "url": "https://www.kaigokensaku.mhlw.go.jp/26/index.php?action_kouhyou_detail_004_kani=true&JigyosyoCd=2670900121-00&ServiceCd=510&Type=search", "url2": "https://www.mukaijima.jp" }, "geometry": { "type": "Point", "coordinates": [ 135.763473400000066, 34.9156207 ] } },
{ "type": "Feature", "properties": { "内容": "特別養護老人ホーム　京都老人ホーム【介護老人福祉施設】京都市伏見区深草大亀谷東古御香町59番地・60番合地", "url": "https://www.kaigokensaku.mhlw.go.jp/26/index.php?action_kouhyou_detail_004_kani=true&JigyosyoCd=2670900139-00&ServiceCd=510&Type=search", "url2": "http://www.kyoro.or.jp" }, "geometry": { "type": "Point", "coordinates": [ 135.7869048, 34.9432184 ] } },
{ "type": "Feature", "properties": { "内容": "特別養護老人ホーム日野しみずの里【介護老人福祉施設】京都市伏見区日野田頬町７２番地１", "url": "https://www.kaigokensaku.mhlw.go.jp/26/index.php?action_kouhyou_detail_004_kani=true&JigyosyoCd=2670901434-00&ServiceCd=510&Type=search", "url2": "https://ksmcs.jp/" }, "geometry": { "type": "Point", "coordinates": [ 135.813052299999981, 34.9298899 ] } },
{ "type": "Feature", "properties": { "内容": "特別養護老人ホームそせい苑【介護老人福祉施設】京都市伏見区下鳥羽但馬町150番地", "url": "https://www.kaigokensaku.mhlw.go.jp/26/index.php?action_kouhyou_detail_004_kani=true&JigyosyoCd=2670900113-00&ServiceCd=510&Type=search", "url2": "http://www.soseien.jp" }, "geometry": { "type": "Point", "coordinates": [ 135.7500938, 34.9320774 ] } },
{ "type": "Feature", "properties": { "内容": "特別養護老人ホームフジの園【介護老人福祉施設】京都市伏見区深草泓ノ壺町37－1", "url": "https://www.kaigokensaku.mhlw.go.jp/26/index.php?action_kouhyou_detail_004_kani=true&JigyosyoCd=2670900246-00&ServiceCd=510&Type=search", "url2": "https://www.fujinokai.jp" }, "geometry": { "type": "Point", "coordinates": [ 135.760382400000026, 34.9490282 ] } },
{ "type": "Feature", "properties": { "内容": "特別養護老人ホーム　　　城南ホーム【介護老人福祉施設】京都市伏見区竹田中内畑町53", "url": "https://www.kaigokensaku.mhlw.go.jp/26/index.php?action_kouhyou_detail_004_kani=true&JigyosyoCd=2670900261-00&ServiceCd=510&Type=search", "url2": "http://www.seiwaen.or.jp/" }, "geometry": { "type": "Point", "coordinates": [ 135.7536609, 34.9534582 ] } },
{ "type": "Feature", "properties": { "内容": "特別養護老人ホームももやま【介護老人福祉施設】京都市伏見区桃山町立売1-6", "url": "https://www.kaigokensaku.mhlw.go.jp/26/index.php?action_kouhyou_detail_004_kani=true&JigyosyoCd=2670900444-00&ServiceCd=510&Type=search", "url2": "http://www.kenkouen.jp/" }, "geometry": { "type": "Point", "coordinates": [ 135.77078110000005, 34.932032899999989 ] } },
{ "type": "Feature", "properties": { "内容": "特別養護老人ホームあじさい苑【介護老人福祉施設】京都市伏見区向島二ノ丸町151番53", "url": "https://www.kaigokensaku.mhlw.go.jp/26/index.php?action_kouhyou_detail_004_kani=true&JigyosyoCd=2670900790-00&ServiceCd=510&Type=search", "url2": "https://koshokai-swc.or.jp" }, "geometry": { "type": "Point", "coordinates": [ 135.77642220000007, 34.9167568 ] } },
{ "type": "Feature", "properties": { "内容": "特別養護老人ホームヴィラ稲荷山【介護老人福祉施設】京都市伏見区深草正覚町23番", "url": "https://www.kaigokensaku.mhlw.go.jp/26/index.php?action_kouhyou_detail_004_kani=true&JigyosyoCd=2670900899-00&ServiceCd=510&Type=search", "url2": "https://www.takedahp.or.jp/group/welfare/villa_i/index.html" }, "geometry": { "type": "Point", "coordinates": [ 135.773112399999945, 34.9733236 ] } },
{ "type": "Feature", "properties": { "内容": "特別養護老人ホーム深草しみずの里【介護老人福祉施設】京都府京都市伏見区深草越後屋敷町17番地の5", "url": "https://www.kaigokensaku.mhlw.go.jp/26/index.php?action_kouhyou_detail_004_kani=true&JigyosyoCd=2670917232-00&ServiceCd=510&Type=search", "url2": "http://www.fushimi-shimizu.jp/" }, "geometry": { "type": "Point", "coordinates": [ 135.764574723556507, 34.949400078350607 ] } },
{ "type": "Feature", "properties": { "内容": "特別養護老人ホーム　京都指月あさがおの郷1号館【介護老人福祉施設】京都府京都市伏見区常磐町40番の3", "url": "https://www.kaigokensaku.mhlw.go.jp/26/index.php?action_kouhyou_detail_004_kani=true&JigyosyoCd=2670917539-00&ServiceCd=510&Type=search", "url2": "http://shinseifukushikai.jp/asagao/" }, "geometry": { "type": "Point", "coordinates": [ 135.7491556, 34.940455 ] } },
{ "type": "Feature", "properties": { "内容": "特別養護老人ホーム宝生苑西館【介護老人福祉施設】京都市伏見区桃山町山ノ下66－38", "url": "https://www.kaigokensaku.mhlw.go.jp/26/index.php?action_kouhyou_detail_004_kani=true&JigyosyoCd=2670918586-00&ServiceCd=510&Type=search", "url2": "https://yamato-fukushi.com/" }, "geometry": { "type": "Point", "coordinates": [ 135.795290099999988, 34.9413578 ] } },
{ "type": "Feature", "properties": { "内容": "特別養護老人ホーム　淀の里【介護老人福祉施設】京都市伏見区淀美豆町1055番地", "url": "https://www.kaigokensaku.mhlw.go.jp/26/index.php?action_kouhyou_detail_004_kani=true&JigyosyoCd=2670900436-00&ServiceCd=510&Type=search", "url2": "https://yodosato.life.coocan.jp/" }, "geometry": { "type": "Point", "coordinates": [ 135.712252799999987, 34.8976555 ] } },
{ "type": "Feature", "properties": { "内容": "特別養護老人ホーム　山科積慶園【介護老人福祉施設】京都市山科区北花山大林町３４番地", "url": "https://www.kaigokensaku.mhlw.go.jp/26/index.php?action_kouhyou_detail_004_kani=true&JigyosyoCd=2674100579-00&ServiceCd=510&Type=search", "url2": "http://www.sekkeien.or.jp/" }, "geometry": { "type": "Point", "coordinates": [ 135.79872649999993, 34.9820927 ] } },
{ "type": "Feature", "properties": { "内容": "特別養護老人ホーム東旺苑【介護老人福祉施設】京都市山科区川田岩ヶ谷町1番地の3", "url": "https://www.kaigokensaku.mhlw.go.jp/26/index.php?action_kouhyou_detail_004_kani=true&JigyosyoCd=2674100132-00&ServiceCd=510&Type=search", "url2": "https://eikoukaikyoto.jp/" }, "geometry": { "type": "Point", "coordinates": [ 135.792502084364315, 34.980968815887081 ] } },
{ "type": "Feature", "properties": { "内容": "特別養護老人ホーム　ヴィラ山科【介護老人福祉施設】京都市山科区大宅御所田町115番地１", "url": "https://www.kaigokensaku.mhlw.go.jp/26/index.php?action_kouhyou_detail_004_kani=true&JigyosyoCd=2674100041-00&ServiceCd=510&Type=search", "url2": "http://www.takedahp.or.jp/" }, "geometry": { "type": "Point", "coordinates": [ 135.825856700000031, 34.9710253 ] } },
{ "type": "Feature", "properties": { "内容": "特別養護老人ホーム御陵洛東園【介護老人福祉施設】御陵岡町１番地2", "url": "https://www.kaigokensaku.mhlw.go.jp/26/index.php?action_kouhyou_detail_004_kani=true&JigyosyoCd=2674101809-00&ServiceCd=510&Type=search", "url2": "http://www.wf-rakutouen.com/" }, "geometry": { "type": "Point", "coordinates": [ 135.8027626, 34.9937736 ] } },
{ "type": "Feature", "properties": { "内容": "特別養護老人ホーム山科すみれ園【介護老人福祉施設】京都府京都市山科区四ノ宮芝畑町23番地1", "url": "https://www.kaigokensaku.mhlw.go.jp/26/index.php?action_kouhyou_detail_004_kani=true&JigyosyoCd=2674102104-00&ServiceCd=510&Type=search", "url2": "https://yamashina-sumire-en.com/" }, "geometry": { "type": "Point", "coordinates": [ 135.834197100000011, 34.9903483 ] } },
{ "type": "Feature", "properties": { "内容": "特別養護老人ホーム香東園やましな【介護老人福祉施設】京都府京都市山科区西野野色町15-88", "url": "https://www.kaigokensaku.mhlw.go.jp/26/index.php?action_kouhyou_detail_004_kani=true&JigyosyoCd=2654180070-00&ServiceCd=510&Type=search", "url2": "http://www.koutouen.com/" }, "geometry": { "type": "Point", "coordinates": [ 135.8050649, 34.986211 ] } },
{ "type": "Feature", "properties": { "内容": "特別養護老人ホーム　山科苑【介護老人福祉施設】京都市山科区大塚野溝町3番地", "url": "https://www.kaigokensaku.mhlw.go.jp/26/index.php?action_kouhyou_detail_004_kani=true&JigyosyoCd=2674100025-00&ServiceCd=510&Type=search", "url2": "http://ryokujukai.com/toku_yamashina/" }, "geometry": { "type": "Point", "coordinates": [ 135.833489399999962, 34.9834406 ] } },
{ "type": "Feature", "properties": { "内容": "特別養護老人ホーム長楽園【介護老人福祉施設】京都市山科区勧修寺仁王堂町13番地3", "url": "https://www.kaigokensaku.mhlw.go.jp/26/index.php?action_kouhyou_detail_004_kani=true&JigyosyoCd=2674100108-00&ServiceCd=510&Type=search", "url2": "http://care-netbiz/26/kanshu1985/" }, "geometry": { "type": "Point", "coordinates": [ 135.8085668, 34.9613786 ] } },
{ "type": "Feature", "properties": { "内容": "特別養護老人ホームそらの木【介護老人福祉施設】大宅打明町15番地", "url": "https://www.kaigokensaku.mhlw.go.jp/26/index.php?action_kouhyou_detail_004_kani=true&JigyosyoCd=2674100975-00&ServiceCd=510&Type=search", "url2": "http://www.toumonkai.net/" }, "geometry": { "type": "Point", "coordinates": [ 135.821979199999987, 34.9735472 ] } },
{ "type": "Feature", "properties": { "内容": "特別養護老人ホーム　山科積慶園【介護老人福祉施設】京都府京都市山科区北花山大林町３４番地", "url": "https://www.kaigokensaku.mhlw.go.jp/26/index.php?action_kouhyou_detail_004_kani=true&JigyosyoCd=2674102211-00&ServiceCd=510&Type=search", "url2": "http://yamashinasekkeien.com/" }, "geometry": { "type": "Point", "coordinates": [ 135.798682139422226, 34.981790742751194 ] } },
{ "type": "Feature", "properties": { "内容": "特別養護老人ホームまほろば【介護老人福祉施設】京都市西京区大原野上羽町39-1", "url": "https://www.kaigokensaku.mhlw.go.jp/26/index.php?action_kouhyou_detail_004_kani=true&JigyosyoCd=2674000027-00&ServiceCd=510&Type=search", "url2": "https://ooharanofukushikai.com/" }, "geometry": { "type": "Point", "coordinates": [ 135.674562199999968, 34.9527765 ] } },
{ "type": "Feature", "properties": { "内容": "特別養護老人ホーム西山寮【介護老人福祉施設】京都市西京区大原野石作町256番地1", "url": "https://www.kaigokensaku.mhlw.go.jp/26/index.php?action_kouhyou_detail_004_kani=true&JigyosyoCd=2674000084-00&ServiceCd=510&Type=search", "url2": "https://seizanryo.jp/" }, "geometry": { "type": "Point", "coordinates": [ 135.65354160000004, 34.9503986 ] } },
{ "type": "Feature", "properties": { "内容": "特別養護老人ホーム　京都厚生園【介護老人福祉施設】京都市西京区山田平尾町46番地", "url": "https://www.kaigokensaku.mhlw.go.jp/26/index.php?action_kouhyou_detail_004_kani=true&JigyosyoCd=2674000035-00&ServiceCd=510&Type=search", "url2": "http://www.kyotokouseien.com" }, "geometry": { "type": "Point", "coordinates": [ 135.684397425131237, 34.98226213375505 ] } },
{ "type": "Feature", "properties": { "内容": "京都市桂川特別養護老人ホーム【介護老人福祉施設】京都市西京区下津林東大般若町32番地", "url": "https://www.kaigokensaku.mhlw.go.jp/26/index.php?action_kouhyou_detail_004_kani=true&JigyosyoCd=2674000050-00&ServiceCd=510&Type=search", "url2": "http://www.katsuragawaen.com/" }, "geometry": { "type": "Point", "coordinates": [ 135.713906599999973, 34.9760774 ] } },
{ "type": "Feature", "properties": { "内容": "特別養護老人ホーム沓掛寮【介護老人福祉施設】京都府京都市西京区大枝北沓掛町1丁目2番地", "url": "https://www.kaigokensaku.mhlw.go.jp/26/index.php?action_kouhyou_detail_004_kani=true&JigyosyoCd=2674000076-00&ServiceCd=510&Type=search", "url2": "http://rakusaifukusikai.or.jp" }, "geometry": { "type": "Point", "coordinates": [ 135.654410399999961, 34.9883291 ] } },
{ "type": "Feature", "properties": { "内容": "介護老人福祉施設　シオンの里【介護老人福祉施設】京都市西京区樫原秤谷町21-2", "url": "https://www.kaigokensaku.mhlw.go.jp/26/index.php?action_kouhyou_detail_004_kani=true&JigyosyoCd=2674000191-00&ServiceCd=510&Type=search", "url2": "http://zion1205.com" }, "geometry": { "type": "Point", "coordinates": [ 135.683689938098155, 34.970547891245886 ] } },
{ "type": "Feature", "properties": { "内容": "特別養護老人ホーム　すないの家桂【介護老人福祉施設】京都府京都市西京区御陵塚ノ越町17番１", "url": "https://www.kaigokensaku.mhlw.go.jp/26/index.php?action_kouhyou_detail_004_kani=true&JigyosyoCd=2674001314-00&ServiceCd=510&Type=search", "url2": "https://kanae-gr.or.jp/kaigo/" }, "geometry": { "type": "Point", "coordinates": [ 135.690203500000024, 34.9791844 ] } },
{ "type": "Feature", "properties": { "内容": "特別養護老人ホーム桂まほろばテラス【介護老人福祉施設】京都市西京区下津林南大般若町1番地", "url": "https://www.kaigokensaku.mhlw.go.jp/26/index.php?action_kouhyou_detail_004_kani=true&JigyosyoCd=2674001371-00&ServiceCd=510&Type=search", "url2": "https://ooharanofukushikai.com/" }, "geometry": { "type": "Point", "coordinates": [ 135.711598126479288, 34.974869777335229 ] } },
{ "type": "Feature", "properties": { "内容": "特別養護老人ホーム大枝美郷【介護老人福祉施設】大枝西長町１２番地２５", "url": "https://www.kaigokensaku.mhlw.go.jp/26/index.php?action_kouhyou_detail_004_kani=true&JigyosyoCd=2674001512-00&ServiceCd=510&Type=search", "url2": "http://www.misugikai.jp/ooemisato/index.html" }, "geometry": { "type": "Point", "coordinates": [ 135.665738299999987, 34.9735434 ] } },
{ "type": "Feature", "properties": { "内容": "特別養護老人ホーム五十鈴荘【介護老人福祉施設】京都府福知山市大江町二俣1607番地", "url": "https://www.kaigokensaku.mhlw.go.jp/26/index.php?action_kouhyou_detail_004_kani=true&JigyosyoCd=2672500176-00&ServiceCd=510&Type=search", "url2": "http://www.isuzukai.org" }, "geometry": { "type": "Point", "coordinates": [ 135.158376800000042, 35.4184222 ] } },
{ "type": "Feature", "properties": { "内容": "岩戸ホーム【介護老人福祉施設】京都府福知山市字猪野々31-1", "url": "https://www.kaigokensaku.mhlw.go.jp/26/index.php?action_kouhyou_detail_004_kani=true&JigyosyoCd=2672600083-00&ServiceCd=510&Type=search", "url2": "https://swc-seikouen.jp/iwato/" }, "geometry": { "type": "Point", "coordinates": [ 135.043047900000033, 35.3280343 ] } },
{ "type": "Feature", "properties": { "内容": "特別養護老人ホーム　三愛荘【介護老人福祉施設】京都府福知山市字猪崎25-1", "url": "https://www.kaigokensaku.mhlw.go.jp/26/index.php?action_kouhyou_detail_004_kani=true&JigyosyoCd=2672600109-00&ServiceCd=510&Type=search", "url2": "http://www.mitsumi.or.jp/" }, "geometry": { "type": "Point", "coordinates": [ 135.142572030688427, 35.307780327836277 ] } },
{ "type": "Feature", "properties": { "内容": "特別養護老人ホーム　みわの里【介護老人福祉施設】福知山市三和町友渕小字大原野79番地132", "url": "https://www.kaigokensaku.mhlw.go.jp/26/index.php?action_kouhyou_detail_004_kani=true&JigyosyoCd=2671900252-00&ServiceCd=510&Type=search", "url2": null }, "geometry": { "type": "Point", "coordinates": [ 135.270596068586769, 35.183575380913879 ] } },
{ "type": "Feature", "properties": { "内容": "サンヒルズ紫豊館【介護老人福祉施設】京都府福知山市字榎原小字平180番地の2", "url": "https://www.kaigokensaku.mhlw.go.jp/26/index.php?action_kouhyou_detail_004_kani=true&JigyosyoCd=2672600075-00&ServiceCd=510&Type=search", "url2": "https://swc-seikouen.jp/shihoukan/" }, "geometry": { "type": "Point", "coordinates": [ 135.062675381321441, 35.287357028308897 ] } },
{ "type": "Feature", "properties": { "内容": "特別養護老人ホーム　にれの木園【介護老人福祉施設】福知山市字天田小字大塚14番地の2", "url": "https://www.kaigokensaku.mhlw.go.jp/26/index.php?action_kouhyou_detail_004_kani=true&JigyosyoCd=2672600117-00&ServiceCd=510&Type=search", "url2": "http://www.skymind.jp" }, "geometry": { "type": "Point", "coordinates": [ 135.122643, 35.283398 ] } },
{ "type": "Feature", "properties": { "内容": "グリーンビラ夜久野【介護老人福祉施設】京都府福知山市夜久野町平野1030番地", "url": "https://www.kaigokensaku.mhlw.go.jp/26/index.php?action_kouhyou_detail_004_kani=true&JigyosyoCd=2671900054-00&ServiceCd=510&Type=search", "url2": "http://www.greenvilla.kyoto.jp/" }, "geometry": { "type": "Point", "coordinates": [ 134.9356593, 35.344289 ] } },
{ "type": "Feature", "properties": { "内容": "特別養護老人ホーム豊の郷【介護老人福祉施設】京都府福知山市字大門900番地", "url": "https://www.kaigokensaku.mhlw.go.jp/26/index.php?action_kouhyou_detail_004_kani=true&JigyosyoCd=2672600448-00&ServiceCd=510&Type=search", "url2": "http://kibounooka.or.jp/" }, "geometry": { "type": "Point", "coordinates": [ 135.078006499999987, 35.3040235 ] } },
{ "type": "Feature", "properties": { "内容": "特別養護老人ホーム六人部晴風【介護老人福祉施設】京都府福知山市字大内3173-1", "url": "https://www.kaigokensaku.mhlw.go.jp/26/index.php?action_kouhyou_detail_004_kani=true&JigyosyoCd=2672600422-00&ServiceCd=510&Type=search", "url2": "http://www.skymind.jp" }, "geometry": { "type": "Point", "coordinates": [ 135.174693700000034, 35.2534374 ] } },
{ "type": "Feature", "properties": { "内容": "特別養護老人ホーム　やすらぎ苑【介護老人福祉施設】京都府舞鶴市北浜町3番地10", "url": "https://www.kaigokensaku.mhlw.go.jp/26/index.php?action_kouhyou_detail_004_kani=true&JigyosyoCd=2672700016-00&ServiceCd=510&Type=search", "url2": "http://daijukai.jp/" }, "geometry": { "type": "Point", "coordinates": [ 135.397634655462952, 35.469564996816644 ] } },
{ "type": "Feature", "properties": { "内容": "特別養護老人ホーム安寿苑【介護老人福祉施設】京都府舞鶴市上安481番地", "url": "https://www.kaigokensaku.mhlw.go.jp/26/index.php?action_kouhyou_detail_004_kani=true&JigyosyoCd=2672700032-00&ServiceCd=510&Type=search", "url2": "https://maizuru-anjukai.net/" }, "geometry": { "type": "Point", "coordinates": [ 135.344651500000026, 35.455596 ] } },
{ "type": "Feature", "properties": { "内容": "特別養護老人ホーム　真愛の家寿荘【介護老人福祉施設】京都府舞鶴市字上安小字中ノ脇1697番地36", "url": "https://www.kaigokensaku.mhlw.go.jp/26/index.php?action_kouhyou_detail_004_kani=true&JigyosyoCd=2672700040-00&ServiceCd=510&Type=search", "url2": "http://www.sinainoie.org" }, "geometry": { "type": "Point", "coordinates": [ 135.385991800000056, 35.4747971 ] } },
{ "type": "Feature", "properties": { "内容": "特別養護老人ホームグリーンプラザ博愛苑【介護老人福祉施設】京都府舞鶴市字市場390番地", "url": "https://www.kaigokensaku.mhlw.go.jp/26/index.php?action_kouhyou_detail_004_kani=true&JigyosyoCd=2672700164-00&ServiceCd=510&Type=search", "url2": "http://www.hakuaien.jp" }, "geometry": { "type": "Point", "coordinates": [ 135.416739, 35.4752888 ] } },
{ "type": "Feature", "properties": { "内容": "グレイスヴィルまいづる【介護老人福祉施設】京都府舞鶴市字布敷小字中島52-1", "url": "https://www.kaigokensaku.mhlw.go.jp/26/index.php?action_kouhyou_detail_004_kani=true&JigyosyoCd=2672700362-00&ServiceCd=510&Type=search", "url2": "https://gracemura.org/" }, "geometry": { "type": "Point", "coordinates": [ 135.385991800000056, 35.4747971 ] } },
{ "type": "Feature", "properties": { "内容": "特別養護老人ホーム　いこいの村梅の木寮【介護老人福祉施設】綾部市十倉名畑町久瀬谷2番地", "url": "https://www.kaigokensaku.mhlw.go.jp/26/index.php?action_kouhyou_detail_004_kani=true&JigyosyoCd=2671800023-00&ServiceCd=510&Type=search", "url2": "http://www.kyoto-chogen.or.jp/ikoi/" }, "geometry": { "type": "Point", "coordinates": [ 135.348071399999981, 35.3380429 ] } },
{ "type": "Feature", "properties": { "内容": "特別養護老人ホーム第２松寿苑【介護老人福祉施設】京都府綾部市田野町田野山2-169", "url": "https://www.kaigokensaku.mhlw.go.jp/26/index.php?action_kouhyou_detail_004_kani=true&JigyosyoCd=2671800031-00&ServiceCd=510&Type=search", "url2": "http://www.asjn.jp" }, "geometry": { "type": "Point", "coordinates": [ 135.248691, 35.2870483 ] } },
{ "type": "Feature", "properties": { "内容": "特別養護老人ホーム　丹の国荘【介護老人福祉施設】綾部市小畑町埋野67番地", "url": "https://www.kaigokensaku.mhlw.go.jp/26/index.php?action_kouhyou_detail_004_kani=true&JigyosyoCd=2671800072-00&ServiceCd=510&Type=search", "url2": "http://wwwinfo@ninokunifukusikai.com" }, "geometry": { "type": "Point", "coordinates": [ 135.202530100000018, 35.3445569 ] } },
{ "type": "Feature", "properties": { "内容": "特別養護老人ホーム京都綾部ききょうの郷【介護老人福祉施設】綾部市高津町遠所1番621", "url": "https://www.kaigokensaku.mhlw.go.jp/26/index.php?action_kouhyou_detail_004_kani=true&JigyosyoCd=2671800221-00&ServiceCd=510&Type=search", "url2": "http://www.shinseifukushikai.jp/hanamizuki/" }, "geometry": { "type": "Point", "coordinates": [ 135.2176627, 35.3042849 ] } },
{ "type": "Feature", "properties": { "内容": "特別養護老人ホーム松寿苑【介護老人福祉施設】綾部市田野町田野山2番地の163", "url": "https://www.kaigokensaku.mhlw.go.jp/26/index.php?action_kouhyou_detail_004_kani=true&JigyosyoCd=2671800064-00&ServiceCd=510&Type=search", "url2": "http://www.asjn.jp" }, "geometry": { "type": "Point", "coordinates": [ 135.250232500000038, 35.2878982 ] } },
{ "type": "Feature", "properties": { "内容": "特別養護老人ホームヴィラ鳳凰【介護老人福祉施設】京都府宇治市宇治里尻36番35", "url": "https://www.kaigokensaku.mhlw.go.jp/26/index.php?action_kouhyou_detail_004_kani=true&JigyosyoCd=2671200554-00&ServiceCd=510&Type=search", "url2": "https://www.takedahp.or.jp/group/welfare/kyotoninchisho02/index.html" }, "geometry": { "type": "Point", "coordinates": [ 135.801778799999965, 34.8929819 ] } },
{ "type": "Feature", "properties": { "内容": "特別養護老人ホームまごころ園【介護老人福祉施設】京都府宇治市菟道薮里11番3", "url": "https://www.kaigokensaku.mhlw.go.jp/26/index.php?action_kouhyou_detail_004_kani=true&JigyosyoCd=2671200752-00&ServiceCd=510&Type=search", "url2": "http://micro-fukushikai.or.jp" }, "geometry": { "type": "Point", "coordinates": [ 135.808713799999964, 34.9030061 ] } },
{ "type": "Feature", "properties": { "内容": "特別養護老人ホーム宇治さわらび園【介護老人福祉施設】宇治市槙島町郡50-1", "url": "https://www.kaigokensaku.mhlw.go.jp/26/index.php?action_kouhyou_detail_004_kani=true&JigyosyoCd=2671200141-00&ServiceCd=510&Type=search", "url2": "http://www.sawarabi.or.jp/" }, "geometry": { "type": "Point", "coordinates": [ 135.792054199999939, 34.9029278 ] } },
{ "type": "Feature", "properties": { "内容": "特別養護老人ホーム　宇治愛の郷【介護老人福祉施設】京都府宇治市槙島町石橋151-1", "url": "https://www.kaigokensaku.mhlw.go.jp/26/index.php?action_kouhyou_detail_004_kani=true&JigyosyoCd=2671200927-00&ServiceCd=510&Type=search", "url2": "http://www.uji-ainosato.jp/" }, "geometry": { "type": "Point", "coordinates": [ 135.7888405, 34.9033332 ] } },
{ "type": "Feature", "properties": { "内容": "特別養護老人ホーム　天ヶ瀬苑【介護老人福祉施設】京都府宇治市白川東山15番地", "url": "https://www.kaigokensaku.mhlw.go.jp/26/index.php?action_kouhyou_detail_004_kani=true&JigyosyoCd=2671200034-00&ServiceCd=510&Type=search", "url2": "http://fudouen.com/" }, "geometry": { "type": "Point", "coordinates": [ 135.819518074938145, 34.876022121406194 ] } },
{ "type": "Feature", "properties": { "内容": "宇治明星園特別養護老人ホーム【介護老人福祉施設】京都府宇治市菟道岡谷16-3", "url": "https://www.kaigokensaku.mhlw.go.jp/26/index.php?action_kouhyou_detail_004_kani=true&JigyosyoCd=2671200042-00&ServiceCd=510&Type=search", "url2": "http://www.myoujyo.or.jp" }, "geometry": { "type": "Point", "coordinates": [ 135.820362899999964, 34.897343 ] } },
{ "type": "Feature", "properties": { "内容": "宇治明星園白川特別養護老人ホーム【介護老人福祉施設】京都府宇治市白川鍋倉山22番地10", "url": "https://www.kaigokensaku.mhlw.go.jp/26/index.php?action_kouhyou_detail_004_kani=true&JigyosyoCd=2671200091-00&ServiceCd=510&Type=search", "url2": "http://www.myoujyo.or.jp" }, "geometry": { "type": "Point", "coordinates": [ 135.812742500000013, 34.8651127 ] } },
{ "type": "Feature", "properties": { "内容": "笠取ふれあい福祉センター　特別養護老人ホーム【介護老人福祉施設】京都府宇治市西笠取下荘川西7番地の2", "url": "https://www.kaigokensaku.mhlw.go.jp/26/index.php?action_kouhyou_detail_004_kani=true&JigyosyoCd=2671200893-00&ServiceCd=510&Type=search", "url2": "http://www.uji-hosp.or.jp/" }, "geometry": { "type": "Point", "coordinates": [ 135.854366199999959, 34.9261356 ] } },
{ "type": "Feature", "properties": { "内容": "特別養護老人ホーム桃花苑【介護老人福祉施設】宇治市神明石塚39番地62", "url": "https://www.kaigokensaku.mhlw.go.jp/26/index.php?action_kouhyou_detail_004_kani=true&JigyosyoCd=2671200182-00&ServiceCd=510&Type=search", "url2": "http://www.toukaen-uji.com" }, "geometry": { "type": "Point", "coordinates": [ 135.788011200000028, 34.8838272 ] } },
{ "type": "Feature", "properties": { "内容": "特別養護老人ホーム　夕凪の里【介護老人福祉施設】宮津市字波路小字新町２４３３番地", "url": "https://www.kaigokensaku.mhlw.go.jp/26/index.php?action_kouhyou_detail_004_kani=true&JigyosyoCd=2672100134-00&ServiceCd=510&Type=search", "url2": "https://428kai.or.jp/" }, "geometry": { "type": "Point", "coordinates": [ 135.205909573957854, 35.537714204014414 ] } },
{ "type": "Feature", "properties": { "内容": "特別養護老人ホーム天橋の郷【介護老人福祉施設】京都府宮津市字獅子190番地の4", "url": "https://www.kaigokensaku.mhlw.go.jp/26/index.php?action_kouhyou_detail_004_kani=true&JigyosyoCd=2672100092-00&ServiceCd=510&Type=search", "url2": "http://www.hokuseikai.or.jp/tenkyonosato/" }, "geometry": { "type": "Point", "coordinates": [ 135.224325, 35.561640400000016 ] } },
{ "type": "Feature", "properties": { "内容": "ユニット型特別養護老人ホーム　安寿の里【介護老人福祉施設】京都府宮津市字由良751番地", "url": "https://www.kaigokensaku.mhlw.go.jp/26/index.php?action_kouhyou_detail_004_kani=true&JigyosyoCd=2672100175-00&ServiceCd=510&Type=search", "url2": "https://www.kounankai.jp" }, "geometry": { "type": "Point", "coordinates": [ 135.280401575701973, 35.517645541224894 ] } },
{ "type": "Feature", "properties": { "内容": "マ・ルート【介護老人福祉施設】京都府宮津市字波路716-3マ・ルート", "url": "https://www.kaigokensaku.mhlw.go.jp/26/index.php?action_kouhyou_detail_004_kani=true&JigyosyoCd=2672100209-00&ServiceCd=510&Type=search", "url2": "http://www.mineyama-fukusikai.jp" }, "geometry": { "type": "Point", "coordinates": [ 135.210651719496155, 35.55059052365489 ] } },
{ "type": "Feature", "properties": { "内容": "特別養護老人ホーム青嵐荘【介護老人福祉施設】京都府宮津市字日置７８０番地", "url": "https://www.kaigokensaku.mhlw.go.jp/26/index.php?action_kouhyou_detail_004_kani=true&JigyosyoCd=2672100068-00&ServiceCd=510&Type=search", "url2": "http://www.seiransou.jp/" }, "geometry": { "type": "Point", "coordinates": [ 135.21680230000004, 35.6037805 ] } },
{ "type": "Feature", "properties": { "内容": "特別養護老人ホーム　亀岡園【介護老人福祉施設】京都府亀岡市河原林町河原尻上砂股100", "url": "https://www.kaigokensaku.mhlw.go.jp/26/index.php?action_kouhyou_detail_004_kani=true&JigyosyoCd=2671600043-00&ServiceCd=510&Type=search", "url2": "http://www.rishoukai.com" }, "geometry": { "type": "Point", "coordinates": [ 135.573801, 35.0486887 ] } },
{ "type": "Feature", "properties": { "内容": "特別養護老人ホーム第二亀岡園【介護老人福祉施設】京都府亀岡市ひえ田野町奥条古畑2番地", "url": "https://www.kaigokensaku.mhlw.go.jp/26/index.php?action_kouhyou_detail_004_kani=true&JigyosyoCd=2671600035-00&ServiceCd=510&Type=search", "url2": "https://www.rishoukai.com/" }, "geometry": { "type": "Point", "coordinates": [ 135.50986469999998, 35.0297009 ] } },
{ "type": "Feature", "properties": { "内容": "亀岡友愛園【介護老人福祉施設】京都府亀岡市本梅町ナベ倉11", "url": "https://www.kaigokensaku.mhlw.go.jp/26/index.php?action_kouhyou_detail_004_kani=true&JigyosyoCd=2671600019-00&ServiceCd=510&Type=search", "url2": "http://www.yuaien.or.jp" }, "geometry": { "type": "Point", "coordinates": [ 135.494016500000043, 35.0200016 ] } },
{ "type": "Feature", "properties": { "内容": "特別養護老人ホーム京都亀岡たなばたの郷【介護老人福祉施設】京都府亀岡市余部町谷川尻１１番地５", "url": "https://www.kaigokensaku.mhlw.go.jp/26/index.php?action_kouhyou_detail_004_kani=true&JigyosyoCd=2671600423-00&ServiceCd=510&Type=search", "url2": "http://shinseifukushikai.jp/tanabata" }, "geometry": { "type": "Point", "coordinates": [ 135.5644155, 35.0114695 ] } },
{ "type": "Feature", "properties": { "内容": "特別養護老人ホーム　ビハーラ本願寺【介護老人福祉施設】京都府城陽市奈島内垣内１番地", "url": "https://www.kaigokensaku.mhlw.go.jp/26/index.php?action_kouhyou_detail_004_kani=true&JigyosyoCd=2672800279-00&ServiceCd=510&Type=search", "url2": "http://www.vihara-hongwanji.jp" }, "geometry": { "type": "Point", "coordinates": [ 135.795372600000064, 34.8323658 ] } },
{ "type": "Feature", "properties": { "内容": "ひだまり久世【介護老人福祉施設】京都府城陽市久世里ノ西82番地の１", "url": "https://www.kaigokensaku.mhlw.go.jp/26/index.php?action_kouhyou_detail_004_kani=true&JigyosyoCd=2672800261-00&ServiceCd=510&Type=search", "url2": "http://www.joyofukushikai.com" }, "geometry": { "type": "Point", "coordinates": [ 135.766658399999983, 34.8592882 ] } },
{ "type": "Feature", "properties": { "内容": "社会福祉法人和光会特別養護老人ホーム梅林園【介護老人福祉施設】京都府城陽市中芦原55番地", "url": "https://www.kaigokensaku.mhlw.go.jp/26/index.php?action_kouhyou_detail_004_kani=true&JigyosyoCd=2672800071-00&ServiceCd=510&Type=search", "url2": "https://bairinen.jp/" }, "geometry": { "type": "Point", "coordinates": [ 135.819581500000027, 34.8322776 ] } },
{ "type": "Feature", "properties": { "内容": "特別養護老人ホーム向陽苑【介護老人福祉施設】京都府向日市上植野町五ノ坪1番地の2", "url": "https://www.kaigokensaku.mhlw.go.jp/26/index.php?action_kouhyou_detail_004_kani=true&JigyosyoCd=2673100018-00&ServiceCd=510&Type=search", "url2": "http://www.kouyouen26.com/" }, "geometry": { "type": "Point", "coordinates": [ 135.711297599999966, 34.9376427 ] } },
{ "type": "Feature", "properties": { "内容": "特別養護老人ホーム　サンフラワーガーデン【介護老人福祉施設】京都府向日市物集女町森ノ下12番地1", "url": "https://www.kaigokensaku.mhlw.go.jp/26/index.php?action_kouhyou_detail_004_kani=true&JigyosyoCd=2673100133-00&ServiceCd=510&Type=search", "url2": "https://sgarden.or.jp/wordpress/" }, "geometry": { "type": "Point", "coordinates": [ 135.69982159999995, 34.962987 ] } },
{ "type": "Feature", "properties": { "内容": "特別養護老人ホーム　旭が丘ホーム【介護老人福祉施設】京都府長岡京市井ノ内朝日寺23番", "url": "https://www.kaigokensaku.mhlw.go.jp/26/index.php?action_kouhyou_detail_004_kani=true&JigyosyoCd=2673000051-00&ServiceCd=510&Type=search", "url2": "https://www.oz-well.jp" }, "geometry": { "type": "Point", "coordinates": [ 135.681531610450747, 34.939833785047142 ] } },
{ "type": "Feature", "properties": { "内容": "特別養護老人ホーム　旭が丘ホーム紅葉葵【介護老人福祉施設】京都府長岡京市長岡1丁目44番2号", "url": "https://www.kaigokensaku.mhlw.go.jp/26/index.php?action_kouhyou_detail_004_kani=true&JigyosyoCd=2673000606-00&ServiceCd=510&Type=search", "url2": "https://www.oz-well.jp/" }, "geometry": { "type": "Point", "coordinates": [ 135.69362506977231, 34.932493821207792 ] } },
{ "type": "Feature", "properties": { "内容": "特別養護老人ホーム　天神の杜【介護老人福祉施設】京都府長岡京市天神二丁目3番10号", "url": "https://www.kaigokensaku.mhlw.go.jp/26/index.php?action_kouhyou_detail_004_kani=true&JigyosyoCd=2673000168-00&ServiceCd=510&Type=search", "url2": "http://www.tenjin-no-mori.or.jp" }, "geometry": { "type": "Point", "coordinates": [ 135.686769499999969, 34.92544310000001 ] } },
{ "type": "Feature", "properties": { "内容": "特別養護老人ホーム竹の里ホーム【介護老人福祉施設】京都府長岡京市奥海印寺走田1-1", "url": "https://www.kaigokensaku.mhlw.go.jp/26/index.php?action_kouhyou_detail_004_kani=true&JigyosyoCd=2673000044-00&ServiceCd=510&Type=search", "url2": "http://www.takenosato-home.com" }, "geometry": { "type": "Point", "coordinates": [ 135.675653799999964, 34.9273621 ] } },
{ "type": "Feature", "properties": { "内容": "特別養護老人ホーム　第二天神の杜【介護老人福祉施設】長岡京市奥海印寺竹ノ下１９番地", "url": "https://www.kaigokensaku.mhlw.go.jp/26/index.php?action_kouhyou_detail_004_kani=true&JigyosyoCd=2673000333-00&ServiceCd=510&Type=search", "url2": "http://www.tenjin-no-mori.or.jp" }, "geometry": { "type": "Point", "coordinates": [ 135.6715931, 34.9239151 ] } },
{ "type": "Feature", "properties": { "内容": "特別養護老人ホーム　京都八勝館【介護老人福祉施設】京都府八幡市橋本塩釜21番地", "url": "https://www.kaigokensaku.mhlw.go.jp/26/index.php?action_kouhyou_detail_004_kani=true&JigyosyoCd=2672900020-00&ServiceCd=510&Type=search", "url2": "http://www.hassyoukan.jp/" }, "geometry": { "type": "Point", "coordinates": [ 135.68543150000005, 34.8758594 ] } },
{ "type": "Feature", "properties": { "内容": "特別養護老人ホーム　有智の郷【介護老人福祉施設】京都府八幡市内里北ノ口5-1", "url": "https://www.kaigokensaku.mhlw.go.jp/26/index.php?action_kouhyou_detail_004_kani=true&JigyosyoCd=2672900327-00&ServiceCd=510&Type=search", "url2": "http://ws-kyoto.jp" }, "geometry": { "type": "Point", "coordinates": [ 135.72822229999997, 34.8637933 ] } },
{ "type": "Feature", "properties": { "内容": "特別養護老人ホーム　セピアの園【介護老人福祉施設】京都府京田辺市飯岡南原41番地", "url": "https://www.kaigokensaku.mhlw.go.jp/26/index.php?action_kouhyou_detail_004_kani=true&JigyosyoCd=2673200081-00&ServiceCd=510&Type=search", "url2": "https://sepianosono.jp/" }, "geometry": { "type": "Point", "coordinates": [ 135.794051200000013, 34.8036433 ] } },
{ "type": "Feature", "properties": { "内容": "特別養護老人ホーム　つつきの郷【介護老人福祉施設】京都府京田辺市三山木西ノ河原４３－２", "url": "https://www.kaigokensaku.mhlw.go.jp/26/index.php?action_kouhyou_detail_004_kani=true&JigyosyoCd=2673200222-00&ServiceCd=510&Type=search", "url2": "http://www.tsutsukinosato.or.jp" }, "geometry": { "type": "Point", "coordinates": [ 135.7778442, 34.800749 ] } },
{ "type": "Feature", "properties": { "内容": "特別養護老人ホーム九十九園【介護老人福祉施設】京都府京田辺市大住池平99番1", "url": "https://www.kaigokensaku.mhlw.go.jp/26/index.php?action_kouhyou_detail_004_kani=true&JigyosyoCd=2673200032-00&ServiceCd=510&Type=search", "url2": "http://www.tsukumo-en.or.jp" }, "geometry": { "type": "Point", "coordinates": [ 135.740963500000021, 34.8390539 ] } },
{ "type": "Feature", "properties": { "内容": "特別養護老人ホームやすらぎの杜【介護老人福祉施設】京都府京田辺市同志社山手二丁目1番2", "url": "https://www.kaigokensaku.mhlw.go.jp/26/index.php?action_kouhyou_detail_004_kani=true&JigyosyoCd=2673200396-00&ServiceCd=510&Type=search", "url2": "http://www.yasuragifukushikai.or.jp" }, "geometry": { "type": "Point", "coordinates": [ 135.776308299999982, 34.790172199999986 ] } },
{ "type": "Feature", "properties": { "内容": "特別養護老人ホーム　ふるさと【介護老人福祉施設】京都府京丹後市網野町小浜613番地2", "url": "https://www.kaigokensaku.mhlw.go.jp/26/index.php?action_kouhyou_detail_004_kani=true&JigyosyoCd=2673300238-00&ServiceCd=510&Type=search", "url2": "https://www.furusatonokai.net" }, "geometry": { "type": "Point", "coordinates": [ 135.037314400000014, 35.6945482 ] } },
{ "type": "Feature", "properties": { "内容": "特別養護老人ホーム久美浜苑【介護老人福祉施設】京都府京丹後市久美浜町169番地", "url": "https://www.kaigokensaku.mhlw.go.jp/26/index.php?action_kouhyou_detail_004_kani=true&JigyosyoCd=2672400013-00&ServiceCd=510&Type=search", "url2": "http://www.kitatango.jp" }, "geometry": { "type": "Point", "coordinates": [ 134.900484900000038, 35.5996228 ] } },
{ "type": "Feature", "properties": { "内容": "特別養護老人ホーム海山園【介護老人福祉施設】京都府京丹後市久美浜町湊宮467-60", "url": "https://www.kaigokensaku.mhlw.go.jp/26/index.php?action_kouhyou_detail_004_kani=true&JigyosyoCd=2672400062-00&ServiceCd=510&Type=search", "url2": "http://taiyoufukushikai.jp/" }, "geometry": { "type": "Point", "coordinates": [ 134.925792, 35.6416938 ] } },
{ "type": "Feature", "properties": { "内容": "特別養護老人ホームいちがお園【介護老人福祉施設】京都府京丹後市丹後町岩木487番地", "url": "https://www.kaigokensaku.mhlw.go.jp/26/index.php?action_kouhyou_detail_004_kani=true&JigyosyoCd=2672300015-00&ServiceCd=510&Type=search", "url2": "http://www.ichigaoen.com" }, "geometry": { "type": "Point", "coordinates": [ 135.108297499999907, 35.7255354 ] } },
{ "type": "Feature", "properties": { "内容": "特別養護老人ホーム丹後園【介護老人福祉施設】京都府京丹後市網野町木津225番地の２特別養護老人ホーム丹後園", "url": "https://www.kaigokensaku.mhlw.go.jp/26/index.php?action_kouhyou_detail_004_kani=true&JigyosyoCd=2672300023-00&ServiceCd=510&Type=search", "url2": "https://tangoen.net/" }, "geometry": { "type": "Point", "coordinates": [ 134.965074299999969, 35.6558295 ] } },
{ "type": "Feature", "properties": { "内容": "特別養護老人ホーム第二丹後園【介護老人福祉施設】京都府京丹後市網野町木津225番地の２", "url": "https://www.kaigokensaku.mhlw.go.jp/26/index.php?action_kouhyou_detail_004_kani=true&JigyosyoCd=2673300113-00&ServiceCd=510&Type=search", "url2": "https://tangoen.net/" }, "geometry": { "type": "Point", "coordinates": [ 134.965074299999969, 35.6558295 ] } },
{ "type": "Feature", "properties": { "内容": "総合老人福祉施設弥栄はごろも苑【介護老人福祉施設】京都府京丹後市弥栄町溝谷３５２４番地", "url": "https://www.kaigokensaku.mhlw.go.jp/26/index.php?action_kouhyou_detail_004_kani=true&JigyosyoCd=2673300162-00&ServiceCd=510&Type=search", "url2": "http://www.mineyama-fukusikai.jp" }, "geometry": { "type": "Point", "coordinates": [ 135.089036299999947, 35.6613339 ] } },
{ "type": "Feature", "properties": { "内容": "特別養護老人ホーム満寿園【介護老人福祉施設】京都府京丹後市弥栄町溝谷39番地の6外村満寿園", "url": "https://www.kaigokensaku.mhlw.go.jp/26/index.php?action_kouhyou_detail_004_kani=true&JigyosyoCd=2673300204-00&ServiceCd=510&Type=search", "url2": "http://www.ashiginu.or.jp/" }, "geometry": { "type": "Point", "coordinates": [ 135.116516462084974, 35.654956575783601 ] } },
{ "type": "Feature", "properties": { "内容": "総合老人福祉施設はごろも苑【介護老人福祉施設】京都府京丹後市峰山町長岡2093", "url": "https://www.kaigokensaku.mhlw.go.jp/26/index.php?action_kouhyou_detail_004_kani=true&JigyosyoCd=2672200017-00&ServiceCd=510&Type=search", "url2": "https://www.mineyama-fukusikai.jp/" }, "geometry": { "type": "Point", "coordinates": [ 135.066139033694867, 35.596934244181526 ] } },
{ "type": "Feature", "properties": { "内容": "特別養護老人ホームおおみや苑【介護老人福祉施設】京丹後市大宮町口大野295番地", "url": "https://www.kaigokensaku.mhlw.go.jp/26/index.php?action_kouhyou_detail_004_kani=true&JigyosyoCd=2672200025-00&ServiceCd=510&Type=search", "url2": "http://www.oomiyaen.com" }, "geometry": { "type": "Point", "coordinates": [ 135.0827663, 35.5919342 ] } },
{ "type": "Feature", "properties": { "内容": "特別養護老人ホーム　長生園【介護老人福祉施設】京都府南丹市園部町上木崎町坪ノ内19番地", "url": "https://www.kaigokensaku.mhlw.go.jp/26/index.php?action_kouhyou_detail_004_kani=true&JigyosyoCd=2671500102-00&ServiceCd=510&Type=search", "url2": "http://www.choseien.com" }, "geometry": { "type": "Point", "coordinates": [ 135.472361699999965, 35.1156483 ] } },
{ "type": "Feature", "properties": { "内容": "特別養護老人ホーム　美山やすらぎホーム【介護老人福祉施設】京都府南丹市美山町島小栗栖山13番地1", "url": "https://www.kaigokensaku.mhlw.go.jp/26/index.php?action_kouhyou_detail_004_kani=true&JigyosyoCd=2671700017-00&ServiceCd=510&Type=search", "url2": "http://www.hokusoukai.com/" }, "geometry": { "type": "Point", "coordinates": [ 135.553292, 35.2620929 ] } },
{ "type": "Feature", "properties": { "内容": "特別養護老人ホームはぎの里【介護老人福祉施設】京都府南丹市日吉町胡麻萩原15番地", "url": "https://www.kaigokensaku.mhlw.go.jp/26/index.php?action_kouhyou_detail_004_kani=true&JigyosyoCd=2671500078-00&ServiceCd=510&Type=search", "url2": "http://web1.kcn.jp/haginosato/" }, "geometry": { "type": "Point", "coordinates": [ 135.486066100000016, 35.1840992 ] } },
{ "type": "Feature", "properties": { "内容": "特別養護老人ホーム　ヴィラ多国山【介護老人福祉施設】京都府南丹市八木町西田早田３番地", "url": "https://www.kaigokensaku.mhlw.go.jp/26/index.php?action_kouhyou_detail_004_kani=true&JigyosyoCd=2671500250-00&ServiceCd=510&Type=search", "url2": "https://www.shimizu-hospital.or.jp/kaigo/care/iris/" }, "geometry": { "type": "Point", "coordinates": [ 135.538773499999934, 35.0798971 ] } },
{ "type": "Feature", "properties": { "内容": "特別養護老人ホーム山城ぬくもりの里【介護老人福祉施設】京都府木津川市山城町上狛天竺堂1番地1", "url": "https://www.kaigokensaku.mhlw.go.jp/26/index.php?action_kouhyou_detail_004_kani=true&JigyosyoCd=2673500316-00&ServiceCd=510&Type=search", "url2": "http://www.s-rakuji.com" }, "geometry": { "type": "Point", "coordinates": [ 135.823574399999984, 34.7543484 ] } },
{ "type": "Feature", "properties": { "内容": "特別養護老人ホーム　ゆりのき【介護老人福祉施設】京都府木津川市木津川台1丁目19番1", "url": "https://www.kaigokensaku.mhlw.go.jp/26/index.php?action_kouhyou_detail_004_kani=true&JigyosyoCd=2673500035-00&ServiceCd=510&Type=search", "url2": "http://www.iseikai.jp/yurinoki/index.html" }, "geometry": { "type": "Point", "coordinates": [ 135.79262719999997, 34.7469796 ] } },
{ "type": "Feature", "properties": { "内容": "特別養護老人ホーム木津芳梅園【介護老人福祉施設】京都府木津川市鹿背山東大池4-1", "url": "https://www.kaigokensaku.mhlw.go.jp/26/index.php?action_kouhyou_detail_004_kani=true&JigyosyoCd=2671400022-00&ServiceCd=510&Type=search", "url2": "http://www.houbaikai.com/" }, "geometry": { "type": "Point", "coordinates": [ 135.842078899999933, 34.728908099999984 ] } },
{ "type": "Feature", "properties": { "内容": "特別養護老人ホーム　加茂の里【介護老人福祉施設】京都府木津川市加茂町駅東四丁目1番地3", "url": "https://www.kaigokensaku.mhlw.go.jp/26/index.php?action_kouhyou_detail_004_kani=true&JigyosyoCd=2671400048-00&ServiceCd=510&Type=search", "url2": "http://www.takedahp.or.jp/" }, "geometry": { "type": "Point", "coordinates": [ 135.871787, 34.7543971 ] } },
{ "type": "Feature", "properties": { "内容": "社会福祉法人　三福福祉会　特別養護老人ホームきはだの郷【介護老人福祉施設】京都府木津川市梅美台一丁目2-2", "url": "https://www.kaigokensaku.mhlw.go.jp/26/index.php?action_kouhyou_detail_004_kani=true&JigyosyoCd=2671400063-00&ServiceCd=510&Type=search", "url2": "https://www.kihada-kaigo.com/" }, "geometry": { "type": "Point", "coordinates": [ 135.886849699999971, 34.7640654 ] } },
{ "type": "Feature", "properties": { "内容": "洛和ヴィラ大山崎【介護老人福祉施設】京都府乙訓郡大山崎町円明寺開キ3-3特別養護老人ホーム　洛和ヴィラ大山崎", "url": "https://www.kaigokensaku.mhlw.go.jp/26/index.php?action_kouhyou_detail_004_kani=true&JigyosyoCd=2671000046-00&ServiceCd=510&Type=search", "url2": "http://www.rakuwa.or.jp" }, "geometry": { "type": "Point", "coordinates": [ 135.68543139999997, 34.9039173 ] } },
{ "type": "Feature", "properties": { "内容": "特別養護老人ホーム　楽生苑【介護老人福祉施設】京都府久世郡久御山町坊之池坊村中66番地", "url": "https://www.kaigokensaku.mhlw.go.jp/26/index.php?action_kouhyou_detail_004_kani=true&JigyosyoCd=2671100028-00&ServiceCd=510&Type=search", "url2": "http://kumiyama-rakuseien.or.jp" }, "geometry": { "type": "Point", "coordinates": [ 135.732395600000018, 34.8915429 ] } },
{ "type": "Feature", "properties": { "内容": "特別養護老人ホーム　久御山しみずの里【介護老人福祉施設】京都府久世郡久御山町佐山西ノ口146番地1", "url": "https://www.kaigokensaku.mhlw.go.jp/26/index.php?action_kouhyou_detail_004_kani=true&JigyosyoCd=2671100150-00&ServiceCd=510&Type=search", "url2": "https://ksmcs.jp/kumiyama/" }, "geometry": { "type": "Point", "coordinates": [ 135.748841, 34.8741552 ] } },
{ "type": "Feature", "properties": { "内容": "特別養護老人ホーム　いでの里【介護老人福祉施設】京都府綴喜郡井手町尾大字井手小字弥勒1番地の1", "url": "https://www.kaigokensaku.mhlw.go.jp/26/index.php?action_kouhyou_detail_004_kani=true&JigyosyoCd=2671300206-00&ServiceCd=510&Type=search", "url2": "http://www.fushimi-shimizu.jp/" }, "geometry": { "type": "Point", "coordinates": [ 135.803305799999947, 34.798408 ] } },
{ "type": "Feature", "properties": { "内容": "サンビレッジ宇治田原【介護老人福祉施設】京都府綴喜郡宇治田原町大字禅定寺小字砂川１１５－１", "url": "https://www.kaigokensaku.mhlw.go.jp/26/index.php?action_kouhyou_detail_004_kani=true&JigyosyoCd=2671300057-00&ServiceCd=510&Type=search", "url2": "http://www.sunvillage-ujitawara.jp/" }, "geometry": { "type": "Point", "coordinates": [ 135.8776732, 34.8648442 ] } },
{ "type": "Feature", "properties": { "内容": "特別養護老人ホーム　わらく【介護老人福祉施設】京都府相楽郡和束町大字釜塚小字縄手25番地", "url": "https://www.kaigokensaku.mhlw.go.jp/26/index.php?action_kouhyou_detail_004_kani=true&JigyosyoCd=2671400352-00&ServiceCd=510&Type=search", "url2": "http://www.waraku.or.jp" }, "geometry": { "type": "Point", "coordinates": [ 135.905988192590371, 34.794603378898238 ] } },
{ "type": "Feature", "properties": { "内容": "特別養護老人ホーム神の園【介護老人福祉施設】京都府相楽郡精華町大字南稲八妻小字笛竹41", "url": "https://www.kaigokensaku.mhlw.go.jp/26/index.php?action_kouhyou_detail_004_kani=true&JigyosyoCd=2671400311-00&ServiceCd=510&Type=search", "url2": "http://kami-home.jp/" }, "geometry": { "type": "Point", "coordinates": [ 135.783188699999982, 34.762536 ] } },
{ "type": "Feature", "properties": { "内容": "特別養護老人ホーム丹波高原荘【介護老人福祉施設】京都府船井郡京丹波町蒲生蒲生野173番地", "url": "https://www.kaigokensaku.mhlw.go.jp/26/index.php?action_kouhyou_detail_004_kani=true&JigyosyoCd=2671500094-00&ServiceCd=510&Type=search", "url2": "https://kougensou.net/index.html" }, "geometry": { "type": "Point", "coordinates": [ 135.42460371738278, 35.167402494291409 ] } },
{ "type": "Feature", "properties": { "内容": "特別養護老人ホーム瑞穂山彦苑【介護老人福祉施設】京都府船井郡京丹波町三ノ宮小谷30番地", "url": "https://www.kaigokensaku.mhlw.go.jp/26/index.php?action_kouhyou_detail_004_kani=true&JigyosyoCd=2671500110-00&ServiceCd=510&Type=search", "url2": "https://yamabikokai-kyoto.com" }, "geometry": { "type": "Point", "coordinates": [ 135.331533499999978, 35.2215675 ] } },
{ "type": "Feature", "properties": { "内容": "特別養護老人ホーム　長老苑【介護老人福祉施設】京都府船井郡京丹波町市場丸ヶ野8番地2", "url": "https://www.kaigokensaku.mhlw.go.jp/26/index.php?action_kouhyou_detail_004_kani=true&JigyosyoCd=2671500060-00&ServiceCd=510&Type=search", "url2": "http://tyorouen.com/" }, "geometry": { "type": "Point", "coordinates": [ 135.413355599999932, 35.2579235 ] } },
{ "type": "Feature", "properties": { "内容": "特別養護老人ホーム長寿苑【介護老人福祉施設】京都府与謝郡伊根町字六万部小字ヤクシノ１５４番地", "url": "https://www.kaigokensaku.mhlw.go.jp/26/index.php?action_kouhyou_detail_004_kani=true&JigyosyoCd=2672000011-00&ServiceCd=510&Type=search", "url2": "https://yosagun-fukushikai.net/" }, "geometry": { "type": "Point", "coordinates": [ 135.272639199999958, 35.6751459 ] } },
{ "type": "Feature", "properties": { "内容": "特別養護老人ホーム虹ヶ丘【介護老人福祉施設】京都府与謝郡与謝野町字岩屋小字庄内600番地３", "url": "https://www.kaigokensaku.mhlw.go.jp/26/index.php?action_kouhyou_detail_004_kani=true&JigyosyoCd=2672000029-00&ServiceCd=510&Type=search", "url2": "http://yofuku.or.jp/nijigaoka/" }, "geometry": { "type": "Point", "coordinates": [ 135.07467817945934, 35.524395661371642 ] } },
{ "type": "Feature", "properties": { "内容": "特別養護老人ホーム　与謝の園【介護老人福祉施設】京都府与謝郡与謝野町字明石2120番地", "url": "https://www.kaigokensaku.mhlw.go.jp/26/index.php?action_kouhyou_detail_004_kani=true&JigyosyoCd=2672000094-00&ServiceCd=510&Type=search", "url2": "http://www.hokuseikai.or.jp/yozanoen/" }, "geometry": { "type": "Point", "coordinates": [ 135.106729827544598, 35.507997971944995 ] } },
{ "type": "Feature", "properties": { "内容": "特別養護老人ホームやすら苑【介護老人福祉施設】京都府与謝郡与謝野町字加悦802番地7", "url": "https://www.kaigokensaku.mhlw.go.jp/26/index.php?action_kouhyou_detail_004_kani=true&JigyosyoCd=2672000284-00&ServiceCd=510&Type=search", "url2": "https://yosagun-fukushikai.net/" }, "geometry": { "type": "Point", "coordinates": [ 135.08968113254096, 35.505730078829124 ] } },
{ "type": "Feature", "properties": { "内容": "特別養護老人ホーム岩滝あじさい苑【介護老人福祉施設】京都府与謝郡与謝野町弓木１３番地の６", "url": "https://www.kaigokensaku.mhlw.go.jp/26/index.php?action_kouhyou_detail_004_kani=true&JigyosyoCd=2672000045-00&ServiceCd=510&Type=search", "url2": "https://yosagun-fukushikai.net/" }, "geometry": { "type": "Point", "coordinates": [ 135.144891899999948, 35.5654285 ] } }
]
}
