{
"type": "FeatureCollection",
"name": "geo_26_地域密着型介護老人福祉施設入所者生活介護",
"crs": { "type": "name", "properties": { "name": "urn:ogc:def:crs:OGC:1.3:CRS84" } },
"features": [
{ "type": "Feature", "properties": { "内容": "地域密着型介護老人福祉施設きたおおじ【地域密着型介護老人福祉施設入所者生活介護】京都府京都市北区紫野大徳寺町49-3", "url": "https://www.kaigokensaku.mhlw.go.jp/26/index.php?action_kouhyou_detail_004_kani=true&JigyosyoCd=2690100215-00&ServiceCd=540&Type=search", "url2": "http://www.kitaooji8025.jp/" }, "geometry": { "type": "Point", "coordinates": [ 135.74613880000004, 35.0454551 ] } },
{ "type": "Feature", "properties": { "内容": "地域密着型介護老人福祉施設ふなおか【地域密着型介護老人福祉施設入所者生活介護】京都府京都市北区紫野花ノ坊町11番2", "url": "https://www.kaigokensaku.mhlw.go.jp/26/index.php?action_kouhyou_detail_004_kani=true&JigyosyoCd=2690100330-00&ServiceCd=540&Type=search", "url2": "http://www.shizuhararyo.com" }, "geometry": { "type": "Point", "coordinates": [ 135.7387243, 35.0396887 ] } },
{ "type": "Feature", "properties": { "内容": "こぶしの里サテライト今宮【地域密着型介護老人福祉施設入所者生活介護】京都市北区紫野大徳寺町35-2", "url": "https://www.kaigokensaku.mhlw.go.jp/26/index.php?action_kouhyou_detail_004_kani=true&JigyosyoCd=2690100041-00&ServiceCd=540&Type=search", "url2": "http://www.nananokai.com/" }, "geometry": { "type": "Point", "coordinates": [ 135.741419800000017, 35.04478 ] } },
{ "type": "Feature", "properties": { "内容": "小規模特別養護老人ホーム「ヴェルデ上賀茂」【地域密着型介護老人福祉施設入所者生活介護】京都府京都市北区上賀茂馬ノ目町18", "url": "https://www.kaigokensaku.mhlw.go.jp/26/index.php?action_kouhyou_detail_004_kani=true&JigyosyoCd=2690100124-00&ServiceCd=540&Type=search", "url2": "http://www.hiragino.or.jp/home/img/top2_03.gif" }, "geometry": { "type": "Point", "coordinates": [ 135.747910899999965, 35.0665944 ] } },
{ "type": "Feature", "properties": { "内容": "特別養護老人ホーム原谷こぶしの里上七軒白梅町【地域密着型介護老人福祉施設入所者生活介護】京都府京都市北区大北山長谷町５－３６", "url": "https://www.kaigokensaku.mhlw.go.jp/26/index.php?action_kouhyou_detail_004_kani=true&JigyosyoCd=2690100132-00&ServiceCd=540&Type=search", "url2": "http://www.nananokai.com/" }, "geometry": { "type": "Point", "coordinates": [ 135.719263500000011, 35.0446574 ] } },
{ "type": "Feature", "properties": { "内容": "地域密着型介護老人福祉施設おんまえどおり【地域密着型介護老人福祉施設入所者生活介護】御前通下立売上る天満屋町312番１地域密着型ケアセンターおんまえどおり", "url": "https://www.kaigokensaku.mhlw.go.jp/26/index.php?action_kouhyou_detail_004_kani=true&JigyosyoCd=2690200155-00&ServiceCd=540&Type=search", "url2": "http://www.kitaooji8025.jp/" }, "geometry": { "type": "Point", "coordinates": [ 135.736221320241384, 35.021174468271994 ] } },
{ "type": "Feature", "properties": { "内容": "地域密着型介護老人福祉施設　花友はなせ【地域密着型介護老人福祉施設入所者生活介護】京都市左京区花脊別所町878番地", "url": "https://www.kaigokensaku.mhlw.go.jp/26/index.php?action_kouhyou_detail_004_kani=true&JigyosyoCd=2690600024-00&ServiceCd=540&Type=search", "url2": "http://www.itihara.or.jp/" }, "geometry": { "type": "Point", "coordinates": [ 135.784073300000045, 35.1760074 ] } },
{ "type": "Feature", "properties": { "内容": "サテライト特養ユニティ長谷【地域密着型介護老人福祉施設入所者生活介護】京都市左京区岩倉長谷町1648", "url": "https://www.kaigokensaku.mhlw.go.jp/26/index.php?action_kouhyou_detail_004_kani=true&JigyosyoCd=2690600073-00&ServiceCd=540&Type=search", "url2": "http://unitynagatani8007.web.fc2.com/" }, "geometry": { "type": "Point", "coordinates": [ 135.790623699999969, 35.0809455 ] } },
{ "type": "Feature", "properties": { "内容": "特別養護老人ホーム都和のはな【地域密着型介護老人福祉施設入所者生活介護】京都市中京区西ノ京小堀池町3番4", "url": "https://www.kaigokensaku.mhlw.go.jp/26/index.php?action_kouhyou_detail_004_kani=true&JigyosyoCd=2690300039-00&ServiceCd=540&Type=search", "url2": "http://www.hoken-fukushi.or.jp/tokubetu1.html" }, "geometry": { "type": "Point", "coordinates": [ 135.726596800000038, 35.0149991 ] } },
{ "type": "Feature", "properties": { "内容": "特別養護老人ホーム洛東園【地域密着型介護老人福祉施設入所者生活介護】京都府京都市東山区本町15丁目794番地", "url": "https://www.kaigokensaku.mhlw.go.jp/26/index.php?action_kouhyou_detail_004_kani=true&JigyosyoCd=2690800087-00&ServiceCd=540&Type=search", "url2": "http://www.wf-rakutouen.com" }, "geometry": { "type": "Point", "coordinates": [ 135.7729529, 34.9798149 ] } },
{ "type": "Feature", "properties": { "内容": "社会福祉法人京都育和会　地域密着型特別養護老人ホームﾚｯﾄ･ｲｯﾄ･ﾋﾞｰ【地域密着型介護老人福祉施設入所者生活介護】京都府京都市東山区本町20丁目441番1", "url": "https://www.kaigokensaku.mhlw.go.jp/26/index.php?action_kouhyou_detail_004_kani=true&JigyosyoCd=2690800061-00&ServiceCd=540&Type=search", "url2": "http://kyoutoikuwakai.jp" }, "geometry": { "type": "Point", "coordinates": [ 135.770679399336245, 34.972881562437159 ] } },
{ "type": "Feature", "properties": { "内容": "特別養護老人ホーム　鳥羽ホーム【地域密着型介護老人福祉施設入所者生活介護】京都府京都市南区上鳥羽堀子町88番地", "url": "https://www.kaigokensaku.mhlw.go.jp/26/index.php?action_kouhyou_detail_004_kani=true&JigyosyoCd=2690500133-00&ServiceCd=540&Type=search", "url2": "https://www.seiwaen.or.jp/" }, "geometry": { "type": "Point", "coordinates": [ 138.252924, 36.204824 ] } },
{ "type": "Feature", "properties": { "内容": "地域密着型介護老人福祉施設しゅうざん【地域密着型介護老人福祉施設入所者生活介護】京都市右京区京北周山町馬場瀬１０－４", "url": "https://www.kaigokensaku.mhlw.go.jp/26/index.php?action_kouhyou_detail_004_kani=true&JigyosyoCd=2690700170-00&ServiceCd=540&Type=search", "url2": "http://www.hokusoukai.com" }, "geometry": { "type": "Point", "coordinates": [ 135.633266737434354, 35.158133814511501 ] } },
{ "type": "Feature", "properties": { "内容": "嵐山寮特別養護老人ホーム　ひろさわ【地域密着型介護老人福祉施設入所者生活介護】京都府京都市右京区嵯峨広沢南野町26-2ＣあんどＣ嵯峨内", "url": "https://www.kaigokensaku.mhlw.go.jp/26/index.php?action_kouhyou_detail_004_kani=true&JigyosyoCd=2690700105-00&ServiceCd=540&Type=search", "url2": "http://www.arashiyamaryo.or.jp/" }, "geometry": { "type": "Point", "coordinates": [ 135.691627499999981, 35.0206956 ] } },
{ "type": "Feature", "properties": { "内容": "地域密着型特別養護老人ホーム　メルシーうずまさ【地域密着型介護老人福祉施設入所者生活介護】太秦一ノ井町41番地", "url": "https://www.kaigokensaku.mhlw.go.jp/26/index.php?action_kouhyou_detail_004_kani=true&JigyosyoCd=2690700204-00&ServiceCd=540&Type=search", "url2": "www.nanasekai.or.jp" }, "geometry": { "type": "Point", "coordinates": [ 135.71104907790982, 35.017959559941367 ] } },
{ "type": "Feature", "properties": { "内容": "特別養護老人ホーム　レーベン横大路【地域密着型介護老人福祉施設入所者生活介護】京都市伏見区横大路鍬ノ本35", "url": "https://www.kaigokensaku.mhlw.go.jp/26/index.php?action_kouhyou_detail_004_kani=true&JigyosyoCd=2690900150-00&ServiceCd=540&Type=search", "url2": "http://www.mukaijima.jp/laben/" }, "geometry": { "type": "Point", "coordinates": [ 135.740108599999985, 34.9241029 ] } },
{ "type": "Feature", "properties": { "内容": "地域密着型特別養護老人ホームはやま【地域密着型介護老人福祉施設入所者生活介護】京都市伏見区醍醐下端山36", "url": "https://www.kaigokensaku.mhlw.go.jp/26/index.php?action_kouhyou_detail_004_kani=true&JigyosyoCd=2690900291-00&ServiceCd=540&Type=search", "url2": "https://www.villa.or.jp" }, "geometry": { "type": "Point", "coordinates": [ 135.81981559999997, 34.9478801 ] } },
{ "type": "Feature", "properties": { "内容": "特別養護老人ホーム宝生苑【地域密着型介護老人福祉施設入所者生活介護】京都市伏見区桃山町山ノ下66番38", "url": "https://www.kaigokensaku.mhlw.go.jp/26/index.php?action_kouhyou_detail_004_kani=true&JigyosyoCd=2690900317-00&ServiceCd=540&Type=search", "url2": "http://yamato-fukushi.com/" }, "geometry": { "type": "Point", "coordinates": [ 135.795292834393308, 34.941367495609192 ] } },
{ "type": "Feature", "properties": { "内容": "小栗栖の家ほっこり【地域密着型介護老人福祉施設入所者生活介護】京都市伏見区小栗栖牛ヶ淵町30", "url": "https://www.kaigokensaku.mhlw.go.jp/26/index.php?action_kouhyou_detail_004_kani=true&JigyosyoCd=2690900085-00&ServiceCd=540&Type=search", "url2": "http://www.kyoro.or.jp" }, "geometry": { "type": "Point", "coordinates": [ 135.8064336, 34.9495796 ] } },
{ "type": "Feature", "properties": { "内容": "特別養護老人ホーム向島美郷【地域密着型介護老人福祉施設入所者生活介護】京都府京都市伏見区向島清水町189-1高齢者複合施設向島美郷", "url": "https://www.kaigokensaku.mhlw.go.jp/26/index.php?action_kouhyou_detail_004_kani=true&JigyosyoCd=2690900358-00&ServiceCd=540&Type=search", "url2": "http://www.misugikai.jp/mukaijimamisato/index.html" }, "geometry": { "type": "Point", "coordinates": [ 135.784170020870988, 34.916875629237083 ] } },
{ "type": "Feature", "properties": { "内容": "地域密着型介護老人福祉施設入所者生活介護　鷹匠の家ほっこり【地域密着型介護老人福祉施設入所者生活介護】京都府京都市伏見区鷹匠町13-1鷹匠の家ほっこり", "url": "https://www.kaigokensaku.mhlw.go.jp/26/index.php?action_kouhyou_detail_004_kani=true&JigyosyoCd=2690900515-00&ServiceCd=540&Type=search", "url2": "http://kyoro.or.jp" }, "geometry": { "type": "Point", "coordinates": [ 135.760909956483459, 34.9362303700658 ] } },
{ "type": "Feature", "properties": { "内容": "特別養護老人ホーム藤城の家【地域密着型介護老人福祉施設入所者生活介護】京都市伏見区深草大亀谷万帖敷町4-1", "url": "https://www.kaigokensaku.mhlw.go.jp/26/index.php?action_kouhyou_detail_004_kani=true&JigyosyoCd=2690900093-00&ServiceCd=540&Type=search", "url2": "http://www.kenkouen.jp/" }, "geometry": { "type": "Point", "coordinates": [ 135.7774723, 34.9423488 ] } },
{ "type": "Feature", "properties": { "内容": "介護老人福祉施設　まどか【地域密着型介護老人福祉施設入所者生活介護】京都市伏見区下鳥羽南円面田町47番地介護老人福祉施設まどか", "url": "https://www.kaigokensaku.mhlw.go.jp/26/index.php?action_kouhyou_detail_004_kani=true&JigyosyoCd=2690900168-00&ServiceCd=540&Type=search", "url2": "http://www.soseien.jp" }, "geometry": { "type": "Point", "coordinates": [ 135.740286500000025, 34.9314326 ] } },
{ "type": "Feature", "properties": { "内容": "地域密着型特別養護老人ホーム　いずみ【地域密着型介護老人福祉施設入所者生活介護】京都市伏見区淀美豆町283番地", "url": "https://www.kaigokensaku.mhlw.go.jp/26/index.php?action_kouhyou_detail_004_kani=true&JigyosyoCd=2690900176-00&ServiceCd=540&Type=search", "url2": "http://yodosato.life.coocan.jp/" }, "geometry": { "type": "Point", "coordinates": [ 135.715069, 34.8986222 ] } },
{ "type": "Feature", "properties": { "内容": "まどかⅡ番館　特別養護老人ホーム【地域密着型介護老人福祉施設入所者生活介護】京都府京都市伏見区下鳥羽南円面田町122番地まどかⅡ番館", "url": "https://www.kaigokensaku.mhlw.go.jp/26/index.php?action_kouhyou_detail_004_kani=true&JigyosyoCd=2690900424-00&ServiceCd=540&Type=search", "url2": "http://soseien.jp/" }, "geometry": { "type": "Point", "coordinates": [ 135.7400338, 34.9315881 ] } },
{ "type": "Feature", "properties": { "内容": "京都市春日丘特別養護老人ホーム【地域密着型介護老人福祉施設入所者生活介護】京都府京都市伏見区醍醐辰巳町12-1", "url": "https://www.kaigokensaku.mhlw.go.jp/26/index.php?action_kouhyou_detail_004_kani=true&JigyosyoCd=2690900788-00&ServiceCd=540&Type=search", "url2": "http://www.kyoro.or.jp" }, "geometry": { "type": "Point", "coordinates": [ 135.8141451, 34.9409344 ] } },
{ "type": "Feature", "properties": { "内容": "介護老人福祉施設　きよみず苑【地域密着型介護老人福祉施設入所者生活介護】京都府京都市山科区川田御出町29番地", "url": "https://www.kaigokensaku.mhlw.go.jp/26/index.php?action_kouhyou_detail_004_kani=true&JigyosyoCd=2694100120-00&ServiceCd=540&Type=search", "url2": "https://eikoukaikyoto.jp/" }, "geometry": { "type": "Point", "coordinates": [ 135.794294206745917, 34.978168118859685 ] } },
{ "type": "Feature", "properties": { "内容": "地域密着型介護老人福祉施設くつかけ七彩の家【地域密着型介護老人福祉施設入所者生活介護】京都府京都市大枝北沓掛町一丁目3番地1七彩すまいる館", "url": "https://www.kaigokensaku.mhlw.go.jp/26/index.php?action_kouhyou_detail_004_kani=true&JigyosyoCd=2694000197-00&ServiceCd=540&Type=search", "url2": "https://rakufuku.jp" }, "geometry": { "type": "Point", "coordinates": [ 135.65499744351655, 34.988239855022833 ] } },
{ "type": "Feature", "properties": { "内容": "三頂福祉会　特別養護老人ホーム上桂【地域密着型介護老人福祉施設入所者生活介護】京都府京都市西京区上桂西居町33番地", "url": "https://www.kaigokensaku.mhlw.go.jp/26/index.php?action_kouhyou_detail_004_kani=true&JigyosyoCd=2694000114-00&ServiceCd=540&Type=search", "url2": "http://sancyou-fukushikai.kyoto.jp/" }, "geometry": { "type": "Point", "coordinates": [ 135.698719100000062, 34.9901956 ] } },
{ "type": "Feature", "properties": { "内容": "特別養護老人ホーム洛西【地域密着型介護老人福祉施設入所者生活介護】大枝東長町１番地６１０", "url": "https://www.kaigokensaku.mhlw.go.jp/26/index.php?action_kouhyou_detail_004_kani=true&JigyosyoCd=2694000254-00&ServiceCd=540&Type=search", "url2": "http://sancyou-rakusai.com/" }, "geometry": { "type": "Point", "coordinates": [ 135.677431079063581, 34.965493221395114 ] } },
{ "type": "Feature", "properties": { "内容": "介護老人福祉施設きらら【地域密着型介護老人福祉施設入所者生活介護】京都府福知山市字行積１４１番地高齢者生活支援施設きらら", "url": "https://www.kaigokensaku.mhlw.go.jp/26/index.php?action_kouhyou_detail_004_kani=true&JigyosyoCd=2692600212-00&ServiceCd=540&Type=search", "url2": "http://www.isuzukai.org/" }, "geometry": { "type": "Point", "coordinates": [ 135.087083100772105, 35.398548672561688 ] } },
{ "type": "Feature", "properties": { "内容": "社会福祉法人　福知山学園　地域密着型介護老人福祉施設　橘【地域密着型介護老人福祉施設入所者生活介護】京都府福知山市三和町千束824番地", "url": "https://www.kaigokensaku.mhlw.go.jp/26/index.php?action_kouhyou_detail_004_kani=true&JigyosyoCd=2692600154-00&ServiceCd=540&Type=search", "url2": "http://www.fukugaku.or.jp" }, "geometry": { "type": "Point", "coordinates": [ 135.231463800000029, 35.223542 ] } },
{ "type": "Feature", "properties": { "内容": "特別養護老人ホームえるむ【地域密着型介護老人福祉施設入所者生活介護】京都府福知山市旭が丘92-2高齢者複合福祉施設えるむ", "url": "https://www.kaigokensaku.mhlw.go.jp/26/index.php?action_kouhyou_detail_004_kani=true&JigyosyoCd=2692600162-00&ServiceCd=540&Type=search", "url2": "http://www.skymind.jp" }, "geometry": { "type": "Point", "coordinates": [ 135.11779439999998, 35.2885927 ] } },
{ "type": "Feature", "properties": { "内容": "地域密着型介護老人福祉施設入所者生活介護　ライフ・ステージ　夢咲【地域密着型介護老人福祉施設入所者生活介護】字引土小字河原田470番地", "url": "https://www.kaigokensaku.mhlw.go.jp/26/index.php?action_kouhyou_detail_004_kani=true&JigyosyoCd=2692700202-00&ServiceCd=540&Type=search", "url2": null }, "geometry": { "type": "Point", "coordinates": [ 135.323039, 35.4401909 ] } },
{ "type": "Feature", "properties": { "内容": "地域密着型特別養護老人ホームやすらぎの郷【地域密着型介護老人福祉施設入所者生活介護】京都府舞鶴市字安岡小字中山1076番地地域密着型特別養護老人ホームやすらぎの郷", "url": "https://www.kaigokensaku.mhlw.go.jp/26/index.php?action_kouhyou_detail_004_kani=true&JigyosyoCd=2692700152-00&ServiceCd=540&Type=search", "url2": "http://daijukai.jp/" }, "geometry": { "type": "Point", "coordinates": [ 135.438679, 35.489932 ] } },
{ "type": "Feature", "properties": { "内容": "特別養護老人ホーム　グリーンパーク愛宕【地域密着型介護老人福祉施設入所者生活介護】京都府舞鶴市愛宕浜町3-5", "url": "https://www.kaigokensaku.mhlw.go.jp/26/index.php?action_kouhyou_detail_004_kani=true&JigyosyoCd=2692700079-00&ServiceCd=540&Type=search", "url2": "http://www.hakuaien.jp" }, "geometry": { "type": "Point", "coordinates": [ 135.405017899999962, 35.4794661 ] } },
{ "type": "Feature", "properties": { "内容": "ライフ・ステージ　舞夢【地域密着型介護老人福祉施設入所者生活介護】京都府舞鶴市字桑飼上小字深田1088番地1", "url": "https://www.kaigokensaku.mhlw.go.jp/26/index.php?action_kouhyou_detail_004_kani=true&JigyosyoCd=2692700053-00&ServiceCd=540&Type=search", "url2": "http://www.maimu.jp/" }, "geometry": { "type": "Point", "coordinates": [ 135.385991800000056, 35.4747971 ] } },
{ "type": "Feature", "properties": { "内容": "小規模特養おかやす【地域密着型介護老人福祉施設入所者生活介護】京都府綾部市岡安町大道16", "url": "https://www.kaigokensaku.mhlw.go.jp/26/index.php?action_kouhyou_detail_004_kani=true&JigyosyoCd=2691800094-00&ServiceCd=540&Type=search", "url2": "http://www.asjn.jp/" }, "geometry": { "type": "Point", "coordinates": [ 135.29171295092624, 35.337740769133376 ] } },
{ "type": "Feature", "properties": { "内容": "高齢者支援センター松寿苑　小規模特養あたご【地域密着型介護老人福祉施設入所者生活介護】京都府綾部市八津合町寺町１番地１・２５番地", "url": "https://www.kaigokensaku.mhlw.go.jp/26/index.php?action_kouhyou_detail_004_kani=true&JigyosyoCd=2691800029-00&ServiceCd=540&Type=search", "url2": "http://www.asjn.jp" }, "geometry": { "type": "Point", "coordinates": [ 135.4022971, 35.3622766 ] } },
{ "type": "Feature", "properties": { "内容": "伊勢田明星園小規模特別養護老人ホーム【地域密着型介護老人福祉施設入所者生活介護】京都府宇治市伊勢田町若林41番地、42番地", "url": "https://www.kaigokensaku.mhlw.go.jp/26/index.php?action_kouhyou_detail_004_kani=true&JigyosyoCd=2691200139-00&ServiceCd=540&Type=search", "url2": "http://www.myoujyo.or.jp" }, "geometry": { "type": "Point", "coordinates": [ 135.776142700000037, 34.8864019 ] } },
{ "type": "Feature", "properties": { "内容": "地域密着型特別養護老人ホームあゆみ【地域密着型介護老人福祉施設入所者生活介護】京都府亀岡市篠町篠下中筋43番地3地域密着型特別養護老人ホームあゆみ", "url": "https://www.kaigokensaku.mhlw.go.jp/26/index.php?action_kouhyou_detail_004_kani=true&JigyosyoCd=2691600031-00&ServiceCd=540&Type=search", "url2": "http://www.kameoka-ayumi.com/fukushi/" }, "geometry": { "type": "Point", "coordinates": [ 135.6127756, 35.0048766 ] } },
{ "type": "Feature", "properties": { "内容": "特別養護老人ホームひだまり平川【地域密着型介護老人福祉施設入所者生活介護】京都府城陽市平川浜道裏20-1", "url": "https://www.kaigokensaku.mhlw.go.jp/26/index.php?action_kouhyou_detail_004_kani=true&JigyosyoCd=2692800101-00&ServiceCd=540&Type=search", "url2": "http://www.joyofukushikai.com/" }, "geometry": { "type": "Point", "coordinates": [ 135.765275200000019, 34.8676013 ] } },
{ "type": "Feature", "properties": { "内容": "特別養護老人ホーム　ともおか【地域密着型介護老人福祉施設入所者生活介護】京都府長岡京市友岡１丁目２番３号", "url": "https://www.kaigokensaku.mhlw.go.jp/26/index.php?action_kouhyou_detail_004_kani=true&JigyosyoCd=2693000115-00&ServiceCd=540&Type=search", "url2": "http://www.waraku.or.jp/" }, "geometry": { "type": "Point", "coordinates": [ 135.69192750000002, 34.9184605 ] } },
{ "type": "Feature", "properties": { "内容": "地域密着型特別養護老人ホーム　第二竹の里ホーム【地域密着型介護老人福祉施設入所者生活介護】京都府長岡京市奥海印寺太鼓山18番地", "url": "https://www.kaigokensaku.mhlw.go.jp/26/index.php?action_kouhyou_detail_004_kani=true&JigyosyoCd=2693000156-00&ServiceCd=540&Type=search", "url2": "http://takenosato-home.com" }, "geometry": { "type": "Point", "coordinates": [ 135.679067676721161, 34.924939613663938 ] } },
{ "type": "Feature", "properties": { "内容": "地域密着型特別養護老人ホーム　サニーリッジbio【地域密着型介護老人福祉施設入所者生活介護】京都府長岡京市井ノ内南内畑67-11", "url": "https://www.kaigokensaku.mhlw.go.jp/26/index.php?action_kouhyou_detail_004_kani=true&JigyosyoCd=2693000198-00&ServiceCd=540&Type=search", "url2": null }, "geometry": { "type": "Point", "coordinates": [ 135.685995989549241, 34.941091755073806 ] } },
{ "type": "Feature", "properties": { "内容": "特別養護老人ホーム京都ひまわり園【地域密着型介護老人福祉施設入所者生活介護】京都府八幡市八幡清水井31番地", "url": "https://www.kaigokensaku.mhlw.go.jp/26/index.php?action_kouhyou_detail_004_kani=true&JigyosyoCd=2692900109-00&ServiceCd=540&Type=search", "url2": "http://www.ws-kyoto.jp/" }, "geometry": { "type": "Point", "coordinates": [ 135.7012618, 34.8716507 ] } },
{ "type": "Feature", "properties": { "内容": "特別養護老人ホーム京都ひまわり園アネックス【地域密着型介護老人福祉施設入所者生活介護】京都府八幡市八幡清水井31番地", "url": "https://www.kaigokensaku.mhlw.go.jp/26/index.php?action_kouhyou_detail_004_kani=true&JigyosyoCd=2692900117-00&ServiceCd=540&Type=search", "url2": "http://www.ws-kyoto.jp/" }, "geometry": { "type": "Point", "coordinates": [ 135.7012618, 34.8716507 ] } },
{ "type": "Feature", "properties": { "内容": "特別養護老人ホームYMBT【地域密着型介護老人福祉施設入所者生活介護】京都府八幡市男山石城１－４", "url": "https://www.kaigokensaku.mhlw.go.jp/26/index.php?action_kouhyou_detail_004_kani=true&JigyosyoCd=2692900075-00&ServiceCd=540&Type=search", "url2": "http://ymbt.or.jp/yamabato_day/" }, "geometry": { "type": "Point", "coordinates": [ 135.697971158275806, 34.862070614182834 ] } },
{ "type": "Feature", "properties": { "内容": "久美浜苑くまのの里【地域密着型介護老人福祉施設入所者生活介護】京都府京丹後市久美浜町栃谷2375番地", "url": "https://www.kaigokensaku.mhlw.go.jp/26/index.php?action_kouhyou_detail_004_kani=true&JigyosyoCd=2693300143-00&ServiceCd=540&Type=search", "url2": "info@kitatango.jp" }, "geometry": { "type": "Point", "coordinates": [ 134.905148300000064, 35.5923516 ] } },
{ "type": "Feature", "properties": { "内容": "地域密着型介護老人福祉施設宇川いちがお園【地域密着型介護老人福祉施設入所者生活介護】丹後町久僧417番地", "url": "https://www.kaigokensaku.mhlw.go.jp/26/index.php?action_kouhyou_detail_004_kani=true&JigyosyoCd=2693300192-00&ServiceCd=540&Type=search", "url2": "http://www.ichigaoen.com/" }, "geometry": { "type": "Point", "coordinates": [ 135.171775, 35.7543949 ] } },
{ "type": "Feature", "properties": { "内容": "特別養護老人ホーム　はぎの里オアシス【地域密着型介護老人福祉施設入所者生活介護】京都府南丹市園部町横田二号１１１番地１", "url": "https://www.kaigokensaku.mhlw.go.jp/26/index.php?action_kouhyou_detail_004_kani=true&JigyosyoCd=2693400042-00&ServiceCd=540&Type=search", "url2": "http://web1.kcn.jp/haginosato" }, "geometry": { "type": "Point", "coordinates": [ 135.460624199999984, 35.1108124 ] } },
{ "type": "Feature", "properties": { "内容": "地域密着型特別養護老人ホーム　洛和ヴィラ天王山【地域密着型介護老人福祉施設入所者生活介護】京都府乙訓郡大山崎町松原36-6", "url": "https://www.kaigokensaku.mhlw.go.jp/26/index.php?action_kouhyou_detail_004_kani=true&JigyosyoCd=2691000018-00&ServiceCd=540&Type=search", "url2": "http://www.rakuwa.or.jp/" }, "geometry": { "type": "Point", "coordinates": [ 135.686834099999942, 34.9015647 ] } },
{ "type": "Feature", "properties": { "内容": "特別養護老人ホーム金木犀【地域密着型介護老人福祉施設入所者生活介護】京都府船井郡京丹波町三ノ宮縄手３９番地", "url": "https://www.kaigokensaku.mhlw.go.jp/26/index.php?action_kouhyou_detail_004_kani=true&JigyosyoCd=2691500017-00&ServiceCd=540&Type=search", "url2": "https://yamabikokai-kyoto.com" }, "geometry": { "type": "Point", "coordinates": [ 135.339191199999959, 35.2207317 ] } }
]
}
