{
"type": "FeatureCollection",
"name": "geo_26_定期巡回・随時対応型訪問介護看護",
"crs": { "type": "name", "properties": { "name": "urn:ogc:def:crs:OGC:1.3:CRS84" } },
"features": [
{ "type": "Feature", "properties": { "内容": "ケア・サポート上高野事業所【定期巡回・随時対応型訪問介護看護】京都市左京区上高野隣好町10番地上高野デイサービスセンター3F", "url": "https://www.kaigokensaku.mhlw.go.jp/26/index.php?action_kouhyou_detail_004_kani=true&JigyosyoCd=2690600107-00&ServiceCd=760&Type=search", "url2": "kyotoohara.jp/" }, "geometry": { "type": "Point", "coordinates": [ 135.795156799999972, 35.0623643 ] } },
{ "type": "Feature", "properties": { "内容": "社会福祉法人　京都福祉サービス協会　西ノ京定期巡回ステーション【定期巡回・随時対応型訪問介護看護】京都府京都市中京区西ノ京銅駝町３７番地２", "url": "https://www.kaigokensaku.mhlw.go.jp/26/index.php?action_kouhyou_detail_004_kani=true&JigyosyoCd=2690500034-00&ServiceCd=760&Type=search", "url2": "https://www.kyoto-fukushi.org/" }, "geometry": { "type": "Point", "coordinates": [ 135.7346538, 35.0117318 ] } },
{ "type": "Feature", "properties": { "内容": "Uniケアサポート京都【定期巡回・随時対応型訪問介護看護】中堂寺庄ノ内町46-7メディカルグランメゾン京都五条御前", "url": "https://www.kaigokensaku.mhlw.go.jp/26/index.php?action_kouhyou_detail_004_kani=true&JigyosyoCd=2690400078-00&ServiceCd=760&Type=search", "url2": null }, "geometry": { "type": "Point", "coordinates": [ 135.736971199999971, 34.9971093 ] } },
{ "type": "Feature", "properties": { "内容": "ＳＯＭＰＯケア　京都　定期巡回【定期巡回・随時対応型訪問介護看護】京都府京都市下京区五条通河原町西入本覚寺前町801損保ジャパン京都ビル7F", "url": "https://www.kaigokensaku.mhlw.go.jp/26/index.php?action_kouhyou_detail_004_kani=true&JigyosyoCd=2690700162-00&ServiceCd=760&Type=search", "url2": "https://www.sompocare.com/" }, "geometry": { "type": "Point", "coordinates": [ 135.765006182228831, 34.996347942055614 ] } },
{ "type": "Feature", "properties": { "内容": "シニアみまもり隊　大宮【定期巡回・随時対応型訪問介護看護】京都府京都市下京区高辻大宮町123モンテベルデ壬生２階", "url": "https://www.kaigokensaku.mhlw.go.jp/26/index.php?action_kouhyou_detail_004_kani=true&JigyosyoCd=2690400177-00&ServiceCd=760&Type=search", "url2": "http://www.rakufuku.jp" }, "geometry": { "type": "Point", "coordinates": [ 135.748952, 34.9992501 ] } },
{ "type": "Feature", "properties": { "内容": "定期巡回・随時対応型訪問介護看護ビハーラ十条【定期巡回・随時対応型訪問介護看護】京都府京都市南区吉祥院南落合町40番4", "url": "https://www.kaigokensaku.mhlw.go.jp/26/index.php?action_kouhyou_detail_004_kani=true&JigyosyoCd=2690500281-00&ServiceCd=760&Type=search", "url2": "http://www.vhr10.jp/" }, "geometry": { "type": "Point", "coordinates": [ 135.740901900000011, 34.9729516 ] } },
{ "type": "Feature", "properties": { "内容": "久世ホーム訪問介護事業所　定期巡回随時対応型訪問介護看護【定期巡回・随時対応型訪問介護看護】京都府京都市南区久世築山町72", "url": "https://www.kaigokensaku.mhlw.go.jp/26/index.php?action_kouhyou_detail_004_kani=true&JigyosyoCd=2690500109-00&ServiceCd=760&Type=search", "url2": "http://www.seiwaen.or.jp" }, "geometry": { "type": "Point", "coordinates": [ 135.7245592485815, 34.957657780285082 ] } },
{ "type": "Feature", "properties": { "内容": "鳥羽ホームホームヘルプサービスセンター【定期巡回・随時対応型訪問介護看護】上鳥羽堀子町88番地", "url": "https://www.kaigokensaku.mhlw.go.jp/26/index.php?action_kouhyou_detail_004_kani=true&JigyosyoCd=2690500141-00&ServiceCd=760&Type=search", "url2": "http://www.seiwaen.or.jp" }, "geometry": { "type": "Point", "coordinates": [ 135.744423069450306, 34.96915261431095 ] } },
{ "type": "Feature", "properties": { "内容": "吉祥ホーム　ホームヘルプサービスセンター【定期巡回・随時対応型訪問介護看護】京都府京都市南区吉祥院石原橋上1-4", "url": "https://www.kaigokensaku.mhlw.go.jp/26/index.php?action_kouhyou_detail_004_kani=true&JigyosyoCd=2690500174-00&ServiceCd=760&Type=search", "url2": "https://www.seiwaen.or.jp/" }, "geometry": { "type": "Point", "coordinates": [ 135.724026428836027, 34.968087196377581 ] } },
{ "type": "Feature", "properties": { "内容": "吉祥院訪問介護事業所【定期巡回・随時対応型訪問介護看護】京都市南区吉祥院砂ノ町50", "url": "https://www.kaigokensaku.mhlw.go.jp/26/index.php?action_kouhyou_detail_004_kani=true&JigyosyoCd=2690500257-00&ServiceCd=760&Type=search", "url2": "https://www.seiwaen.or.jp/" }, "geometry": { "type": "Point", "coordinates": [ 135.732670500000012, 34.9685342 ] } },
{ "type": "Feature", "properties": { "内容": "ＳＯＭＰＯケア　京都西　定期巡回【定期巡回・随時対応型訪問介護看護】京都府京都市右京区山ノ内五反田町9-1かどの御池ビル３階", "url": "https://www.kaigokensaku.mhlw.go.jp/26/index.php?action_kouhyou_detail_004_kani=true&JigyosyoCd=2690700436-00&ServiceCd=760&Type=search", "url2": "https://www.sompocare.com/" }, "geometry": { "type": "Point", "coordinates": [ 135.720578100000012, 35.0106173 ] } },
{ "type": "Feature", "properties": { "内容": "看護のいえ定期巡回【定期巡回・随時対応型訪問介護看護】京都府京都市右京区太秦桂ヶ原町９－４", "url": "https://www.kaigokensaku.mhlw.go.jp/26/index.php?action_kouhyou_detail_004_kani=true&JigyosyoCd=2690700485-00&ServiceCd=760&Type=search", "url2": null }, "geometry": { "type": "Point", "coordinates": [ 135.7055461, 35.0130921 ] } },
{ "type": "Feature", "properties": { "内容": "ヘルパーステーションケアブレス醍醐【定期巡回・随時対応型訪問介護看護】醍醐南里町36-14", "url": "https://www.kaigokensaku.mhlw.go.jp/26/index.php?action_kouhyou_detail_004_kani=true&JigyosyoCd=2690900689-00&ServiceCd=760&Type=search", "url2": null }, "geometry": { "type": "Point", "coordinates": [ 135.8153303, 34.9457427 ] } },
{ "type": "Feature", "properties": { "内容": "定期巡回のクローバー【定期巡回・随時対応型訪問介護看護】京都市伏見区醍醐西大路町55ｳﾞｨﾗ･ｳｴｽﾄ101号室", "url": "https://www.kaigokensaku.mhlw.go.jp/26/index.php?action_kouhyou_detail_004_kani=true&JigyosyoCd=2690900549-00&ServiceCd=760&Type=search", "url2": "https://clover-24jikan.co.jp" }, "geometry": { "type": "Point", "coordinates": [ 135.815600600000039, 34.9496743 ] } },
{ "type": "Feature", "properties": { "内容": "さくらハウス七瀬川【定期巡回・随時対応型訪問介護看護】京都市伏見区深草小久保町261", "url": "https://www.kaigokensaku.mhlw.go.jp/26/index.php?action_kouhyou_detail_004_kani=true&JigyosyoCd=2690900457-00&ServiceCd=760&Type=search", "url2": "http://kyoro.or.jp" }, "geometry": { "type": "Point", "coordinates": [ 135.763118299999974, 34.9517003 ] } },
{ "type": "Feature", "properties": { "内容": "城南ホーム定期巡回随時対応型訪問介護看護事業所【定期巡回・随時対応型訪問介護看護】京都市伏見区竹田中内畑町53特別養護老人ホーム城南ホーム", "url": "https://www.kaigokensaku.mhlw.go.jp/26/index.php?action_kouhyou_detail_004_kani=true&JigyosyoCd=2690900580-00&ServiceCd=760&Type=search", "url2": "https://www.seiwaen.or.jp/index.html" }, "geometry": { "type": "Point", "coordinates": [ 135.7536747, 34.953472 ] } },
{ "type": "Feature", "properties": { "内容": "京都市東高瀬川センター　ヘルパーステーション【定期巡回・随時対応型訪問介護看護】北端町44-7", "url": "https://www.kaigokensaku.mhlw.go.jp/26/index.php?action_kouhyou_detail_004_kani=true&JigyosyoCd=2690900598-00&ServiceCd=760&Type=search", "url2": "http://kyoro.or.jp" }, "geometry": { "type": "Point", "coordinates": [ 135.7547222, 34.9452778 ] } },
{ "type": "Feature", "properties": { "内容": "ヘルパーステーション　ヴィラ向島【定期巡回・随時対応型訪問介護看護】京都市伏見区向島新上林町16", "url": "https://www.kaigokensaku.mhlw.go.jp/26/index.php?action_kouhyou_detail_004_kani=true&JigyosyoCd=2690900713-00&ServiceCd=760&Type=search", "url2": "https://www.mukaijima" }, "geometry": { "type": "Point", "coordinates": [ 135.763343, 34.9156519 ] } },
{ "type": "Feature", "properties": { "内容": "春日丘センター　ヘルパーステーション【定期巡回・随時対応型訪問介護看護】京都市伏見区醍醐辰巳町12-1", "url": "https://www.kaigokensaku.mhlw.go.jp/26/index.php?action_kouhyou_detail_004_kani=true&JigyosyoCd=2690900606-00&ServiceCd=760&Type=search", "url2": "https://kyoro.or.jp/" }, "geometry": { "type": "Point", "coordinates": [ 135.8141451, 34.94093440000001 ] } },
{ "type": "Feature", "properties": { "内容": "医療法人新生十全会新生十全会　定期巡回随時対応型訪問介護看護　こもれびの家【定期巡回・随時対応型訪問介護看護】京都府京都市伏見区日野西風呂町5番地", "url": "https://www.kaigokensaku.mhlw.go.jp/26/index.php?action_kouhyou_detail_004_kani=true&JigyosyoCd=2690900630-00&ServiceCd=760&Type=search", "url2": "http://www.juzenkai.or.jp/" }, "geometry": { "type": "Point", "coordinates": [ 135.8129104, 34.9356804 ] } },
{ "type": "Feature", "properties": { "内容": "アプリシェイト定期巡回・随時対応型訪問介護看護ステーション【定期巡回・随時対応型訪問介護看護】醍醐西大路町59-2パルアベニュー醍醐105号室パルアベニュー醍醐105号室", "url": "https://www.kaigokensaku.mhlw.go.jp/26/index.php?action_kouhyou_detail_004_kani=true&JigyosyoCd=2690900747-00&ServiceCd=760&Type=search", "url2": null }, "geometry": { "type": "Point", "coordinates": [ 135.8162285, 34.9496019 ] } },
{ "type": "Feature", "properties": { "内容": "洛和ヘルパーステーション音羽【定期巡回・随時対応型訪問介護看護】音羽八ノ坪17-1", "url": "https://www.kaigokensaku.mhlw.go.jp/26/index.php?action_kouhyou_detail_004_kani=true&JigyosyoCd=2694100237-00&ServiceCd=760&Type=search", "url2": "http://www.rakuwa.or.jp/kaigo/" }, "geometry": { "type": "Point", "coordinates": [ 135.8267128, 34.9882085 ] } },
{ "type": "Feature", "properties": { "内容": "ナーシングホームはーとふる京都山科【定期巡回・随時対応型訪問介護看護】京都府京都市山科区西野山射庭ノ上町202番地1", "url": "https://www.kaigokensaku.mhlw.go.jp/26/index.php?action_kouhyou_detail_004_kani=true&JigyosyoCd=2694100401-00&ServiceCd=760&Type=search", "url2": "https://www.heartfulcare.com/" }, "geometry": { "type": "Point", "coordinates": [ 135.798618125200647, 34.972851227317136 ] } },
{ "type": "Feature", "properties": { "内容": "医療法人新生十全会　定期巡回随時対応型訪問介護看護　ひだまりの家　小野【定期巡回・随時対応型訪問介護看護】京都府京都市山科区小野荘司町6番地1", "url": "https://www.kaigokensaku.mhlw.go.jp/26/index.php?action_kouhyou_detail_004_kani=true&JigyosyoCd=2694100344-00&ServiceCd=760&Type=search", "url2": "http://www.juzenkai.or.jp" }, "geometry": { "type": "Point", "coordinates": [ 135.8167772, 34.9608731 ] } },
{ "type": "Feature", "properties": { "内容": "ホームケア２４くつかけ七彩の家【定期巡回・随時対応型訪問介護看護】京都府京都市大枝北沓掛町一丁目3番地1七彩すまいる館", "url": "https://www.kaigokensaku.mhlw.go.jp/26/index.php?action_kouhyou_detail_004_kani=true&JigyosyoCd=2694000338-00&ServiceCd=760&Type=search", "url2": "https://rakufuku.jp/" }, "geometry": { "type": "Point", "coordinates": [ 135.6550493, 34.9882675 ] } },
{ "type": "Feature", "properties": { "内容": "定期巡回・随時対応型訪問介護看護　フィット・洛西【定期巡回・随時対応型訪問介護看護】桂浅原町141番地カーサデルクオーレ桂離宮", "url": "https://www.kaigokensaku.mhlw.go.jp/26/index.php?action_kouhyou_detail_004_kani=true&JigyosyoCd=2694000361-00&ServiceCd=760&Type=search", "url2": null }, "geometry": { "type": "Point", "coordinates": [ 135.711505499999987, 34.9823552 ] } },
{ "type": "Feature", "properties": { "内容": "ぐりっど定期巡回【介護・看護一体型】【定期巡回・随時対応型訪問介護看護】京都府京都市西京区大枝北福西町3-2-18", "url": "https://www.kaigokensaku.mhlw.go.jp/26/index.php?action_kouhyou_detail_004_kani=true&JigyosyoCd=2694000387-00&ServiceCd=760&Type=search", "url2": "https://gridrakusai.com" }, "geometry": { "type": "Point", "coordinates": [ 135.6831668, 34.959853 ] } },
{ "type": "Feature", "properties": { "内容": "そよ風　定期巡回きょうと桂【定期巡回・随時対応型訪問介護看護】京都府京都市西京区御陵塚ノ越町２４－１", "url": "https://www.kaigokensaku.mhlw.go.jp/26/index.php?action_kouhyou_detail_004_kani=true&JigyosyoCd=2694000403-00&ServiceCd=760&Type=search", "url2": "http://www.sykz.co.jp" }, "geometry": { "type": "Point", "coordinates": [ 135.688960400000013, 34.9784253 ] } },
{ "type": "Feature", "properties": { "内容": "あんしんケアコールセンター24【定期巡回・随時対応型訪問介護看護】京都府福知山市字猪野々31-1", "url": "https://www.kaigokensaku.mhlw.go.jp/26/index.php?action_kouhyou_detail_004_kani=true&JigyosyoCd=2692600204-00&ServiceCd=760&Type=search", "url2": "https://swc-seikouen.jp/iwato/" }, "geometry": { "type": "Point", "coordinates": [ 135.043047900000033, 35.3280343 ] } },
{ "type": "Feature", "properties": { "内容": "あんしんケアコールセンターきょうらく【定期巡回・随時対応型訪問介護看護】京都府舞鶴市字余部下816", "url": "https://www.kaigokensaku.mhlw.go.jp/26/index.php?action_kouhyou_detail_004_kani=true&JigyosyoCd=2692700137-00&ServiceCd=760&Type=search", "url2": "http://seihoukai.com/" }, "geometry": { "type": "Point", "coordinates": [ 135.365271300000018, 35.4775741 ] } },
{ "type": "Feature", "properties": { "内容": "24時間サポートくらしのハーモニー【定期巡回・随時対応型訪問介護看護】京都府宇治市木幡鉄艸原14－4ハーモニー東風館", "url": "https://www.kaigokensaku.mhlw.go.jp/26/index.php?action_kouhyou_detail_004_kani=true&JigyosyoCd=2691200295-00&ServiceCd=760&Type=search", "url2": "http://www.kurashino-harmony.or.jp/" }, "geometry": { "type": "Point", "coordinates": [ 135.8042495, 34.9253273 ] } },
{ "type": "Feature", "properties": { "内容": "医療法人徳洲会　定期巡回・随時対応型訪問介護看護　宇治徳洲会【定期巡回・随時対応型訪問介護看護】京都府宇治市槇島町石橋63番地", "url": "https://www.kaigokensaku.mhlw.go.jp/26/index.php?action_kouhyou_detail_004_kani=true&JigyosyoCd=2691200147-00&ServiceCd=760&Type=search", "url2": "http://www.ujitoku.or.jp" }, "geometry": { "type": "Point", "coordinates": [ 135.7871674860138, 34.902802862079859 ] } },
{ "type": "Feature", "properties": { "内容": "せんしゅんかい訪問介護ｾﾝﾀｰ西山天王山【定期巡回・随時対応型訪問介護看護】京都府長岡京市友岡川原25-3", "url": "https://www.kaigokensaku.mhlw.go.jp/26/index.php?action_kouhyou_detail_004_kani=true&JigyosyoCd=2693000107-00&ServiceCd=760&Type=search", "url2": "h-kaiden＠.senshunkai.or.jp" }, "geometry": { "type": "Point", "coordinates": [ 135.688113759045933, 34.91319653812846 ] } },
{ "type": "Feature", "properties": { "内容": "定期巡回・随時対応型訪問介護看護YMBT【定期巡回・随時対応型訪問介護看護】京都府八幡市男山石城１－４", "url": "https://www.kaigokensaku.mhlw.go.jp/26/index.php?action_kouhyou_detail_004_kani=true&JigyosyoCd=2692900075-00&ServiceCd=760&Type=search", "url2": "http://ymbt.or.jp/yamabato_day/" }, "geometry": { "type": "Point", "coordinates": [ 135.697985159410138, 34.862124182528675 ] } },
{ "type": "Feature", "properties": { "内容": "はごろも苑あんしんケアコールセンター２４【定期巡回・随時対応型訪問介護看護】京都府京丹後市峰山町長岡2093", "url": "https://www.kaigokensaku.mhlw.go.jp/26/index.php?action_kouhyou_detail_004_kani=true&JigyosyoCd=2693300176-00&ServiceCd=760&Type=search", "url2": "http://www.mineyama-fukusikai.jp/" }, "geometry": { "type": "Point", "coordinates": [ 135.066148421426419, 35.596941877645023 ] } }
]
}
