{
"type": "FeatureCollection",
"name": "geo_26_特定福祉用具販売",
"crs": { "type": "name", "properties": { "name": "urn:ogc:def:crs:OGC:1.3:CRS84" } },
"features": [
{ "type": "Feature", "properties": { "内容": "アリス株式会社【特定福祉用具販売】京都府京都市北区衣笠総門町31-1フレーズ３", "url": "https://www.kaigokensaku.mhlw.go.jp/26/index.php?action_kouhyou_detail_004_kani=true&JigyosyoCd=2670100805-00&ServiceCd=410&Type=search", "url2": "http://alice.hp.gogo.jp" }, "geometry": { "type": "Point", "coordinates": [ 135.729723599999943, 35.036425 ] } },
{ "type": "Feature", "properties": { "内容": "ハイビスカス福祉用具事業所【特定福祉用具販売】京都市北区紫竹東大門町５１-１ハイビスカス北山１Ｆ", "url": "https://www.kaigokensaku.mhlw.go.jp/26/index.php?action_kouhyou_detail_004_kani=true&JigyosyoCd=2670100516-00&ServiceCd=410&Type=search", "url2": null }, "geometry": { "type": "Point", "coordinates": [ 135.7468405927292, 35.051527260392767 ] } },
{ "type": "Feature", "properties": { "内容": "有限会社いわしや酒井医科器械店【特定福祉用具販売】京都市北区鷹峯南鷹峯町16", "url": "https://www.kaigokensaku.mhlw.go.jp/26/index.php?action_kouhyou_detail_004_kani=true&JigyosyoCd=2670100177-00&ServiceCd=410&Type=search", "url2": null }, "geometry": { "type": "Point", "coordinates": [ 135.732976099999973, 35.0529762 ] } },
{ "type": "Feature", "properties": { "内容": "有限会社　アーク【特定福祉用具販売】京都市北区紫竹上緑町29-5", "url": "https://www.kaigokensaku.mhlw.go.jp/26/index.php?action_kouhyou_detail_004_kani=true&JigyosyoCd=2670100144-00&ServiceCd=410&Type=search", "url2": "http://www." }, "geometry": { "type": "Point", "coordinates": [ 135.748513884239173, 35.051883486547794 ] } },
{ "type": "Feature", "properties": { "内容": "株式会社ヤマシタ京都北営業所【特定福祉用具販売】京都府京都市北区上賀茂岩ヶ垣内町98-2戸田ビル3階", "url": "https://www.kaigokensaku.mhlw.go.jp/26/index.php?action_kouhyou_detail_004_kani=true&JigyosyoCd=2670101506-00&ServiceCd=410&Type=search", "url2": "https://www.yco.co.jp/" }, "geometry": { "type": "Point", "coordinates": [ 135.7650385, 35.0514089 ] } },
{ "type": "Feature", "properties": { "内容": "ゴトウライフクリエイション【特定福祉用具販売】新椹木町通丸太町下る東土御門町345番地", "url": "https://www.kaigokensaku.mhlw.go.jp/26/index.php?action_kouhyou_detail_004_kani=true&JigyosyoCd=2670200787-00&ServiceCd=410&Type=search", "url2": "http://gotolifecreation.com/" }, "geometry": { "type": "Point", "coordinates": [ 135.768589, 35.016902 ] } },
{ "type": "Feature", "properties": { "内容": "フランスベッド株式会社　メディカル京都営業所【特定福祉用具販売】京都府京都市上京区革堂西町５２９－１", "url": "https://www.kaigokensaku.mhlw.go.jp/26/index.php?action_kouhyou_detail_004_kani=true&JigyosyoCd=2670200613-00&ServiceCd=410&Type=search", "url2": "http://www.ffrancebed.co.jp/" }, "geometry": { "type": "Point", "coordinates": [ 135.753710599999977, 35.0273627 ] } },
{ "type": "Feature", "properties": { "内容": "パナソニックエイジフリーショップ京都【特定福祉用具販売】京都市上京区下長者町通新町東入　西鷹司町4", "url": "https://www.kaigokensaku.mhlw.go.jp/26/index.php?action_kouhyou_detail_004_kani=true&JigyosyoCd=2670200233-00&ServiceCd=410&Type=search", "url2": "http://www.net-kaigo.com" }, "geometry": { "type": "Point", "coordinates": [ 135.757105261299102, 35.022700266077834 ] } },
{ "type": "Feature", "properties": { "内容": "シルバークロス株式会社【特定福祉用具販売】京都市上京区荒神口通寺町東入荒神町110－1レインボービル１Ｆ", "url": "https://www.kaigokensaku.mhlw.go.jp/26/index.php?action_kouhyou_detail_004_kani=true&JigyosyoCd=2670200142-00&ServiceCd=410&Type=search", "url2": "http://www.upto-care.net/sc1112/index.html" }, "geometry": { "type": "Point", "coordinates": [ 135.749697, 35.0323732 ] } },
{ "type": "Feature", "properties": { "内容": "ダスキンヘルスレント京都中京ステーション【特定福祉用具販売】京都府京都市中京区西ノ京原町１０５番地２", "url": "https://www.kaigokensaku.mhlw.go.jp/26/index.php?action_kouhyou_detail_004_kani=true&JigyosyoCd=2670200944-00&ServiceCd=410&Type=search", "url2": "https://healthrent.duskin.jp/" }, "geometry": { "type": "Point", "coordinates": [ 135.733940122795104, 35.01166778073474 ] } },
{ "type": "Feature", "properties": { "内容": "グランユニライフ・レンタルサービス【特定福祉用具販売】京都府京都市下京区中堂寺庄ノ内町46-7メディカルグランメゾン京都五条御前", "url": "https://www.kaigokensaku.mhlw.go.jp/26/index.php?action_kouhyou_detail_004_kani=true&JigyosyoCd=2670400916-00&ServiceCd=410&Type=search", "url2": null }, "geometry": { "type": "Point", "coordinates": [ 135.736832552403996, 34.996948561627001 ] } },
{ "type": "Feature", "properties": { "内容": "エクセレント福祉用具【特定福祉用具販売】京都市下京区河原町通松原上る清水町279-1", "url": "https://www.kaigokensaku.mhlw.go.jp/26/index.php?action_kouhyou_detail_004_kani=true&JigyosyoCd=2670401088-00&ServiceCd=410&Type=search", "url2": null }, "geometry": { "type": "Point", "coordinates": [ 135.76931350000001, 35.0012628 ] } },
{ "type": "Feature", "properties": { "内容": "ＳＯＭＰＯケア　京都　福祉用具【特定福祉用具販売】京都市下京区五条通河原町西入本覚寺前町801損保ジャパン京都ビル7F", "url": "https://www.kaigokensaku.mhlw.go.jp/26/index.php?action_kouhyou_detail_004_kani=true&JigyosyoCd=2670401237-00&ServiceCd=410&Type=search", "url2": "https://corporate.sompocare.com/" }, "geometry": { "type": "Point", "coordinates": [ 135.7649458, 34.9963594 ] } },
{ "type": "Feature", "properties": { "内容": "アスケア福祉用具センター京都【特定福祉用具販売】京都府京都市下京区間之町通上珠数屋町下る打越町320番地8", "url": "https://www.kaigokensaku.mhlw.go.jp/26/index.php?action_kouhyou_detail_004_kani=true&JigyosyoCd=2670500756-00&ServiceCd=410&Type=search", "url2": "https://www.as-care.co.jp/" }, "geometry": { "type": "Point", "coordinates": [ 135.761950643206632, 34.991995934806795 ] } },
{ "type": "Feature", "properties": { "内容": "高齢者・障害者向け住宅改修　福祉用具貸与販売　てらこや【特定福祉用具販売】上鳥羽高畠町101-2", "url": "https://www.kaigokensaku.mhlw.go.jp/26/index.php?action_kouhyou_detail_004_kani=true&JigyosyoCd=2670500806-00&ServiceCd=410&Type=search", "url2": "info@sansyou.jp" }, "geometry": { "type": "Point", "coordinates": [ 135.745789899999977, 34.9714702 ] } },
{ "type": "Feature", "properties": { "内容": "あやとり福祉用具貸与・販売事業所【特定福祉用具販売】京都府京都市南区東九条宇賀辺町８京都府電気工事技術会館１階", "url": "https://www.kaigokensaku.mhlw.go.jp/26/index.php?action_kouhyou_detail_004_kani=true&JigyosyoCd=2670500434-00&ServiceCd=410&Type=search", "url2": "ayatorikaigo.jp" }, "geometry": { "type": "Point", "coordinates": [ 135.7653901, 34.9791275 ] } },
{ "type": "Feature", "properties": { "内容": "フランスベッド株式会社メディカル京都西営業所【特定福祉用具販売】京都府京都市南区久世上久世町530番地41", "url": "https://www.kaigokensaku.mhlw.go.jp/26/index.php?action_kouhyou_detail_004_kani=true&JigyosyoCd=2670500772-00&ServiceCd=410&Type=search", "url2": "http://www.francebed.co.jp/" }, "geometry": { "type": "Point", "coordinates": [ 135.718361700000059, 34.9670866 ] } },
{ "type": "Feature", "properties": { "内容": "株式会社　三笑堂【特定福祉用具販売】京都市南区上鳥羽北塔ノ本町2番地SMGビル4F", "url": "https://www.kaigokensaku.mhlw.go.jp/26/index.php?action_kouhyou_detail_004_kani=true&JigyosyoCd=2670500186-00&ServiceCd=410&Type=search", "url2": "http://www.sanshodoh.co.jp" }, "geometry": { "type": "Point", "coordinates": [ 135.749714400000016, 34.9670013 ] } },
{ "type": "Feature", "properties": { "内容": "合同会社こころ【特定福祉用具販売】京都府京都市南区吉祥院西浦町121番地エスポワール洛陽103号", "url": "https://www.kaigokensaku.mhlw.go.jp/26/index.php?action_kouhyou_detail_004_kani=true&JigyosyoCd=2670501200-00&ServiceCd=410&Type=search", "url2": "http://www.cocoro1.jp/index.html" }, "geometry": { "type": "Point", "coordinates": [ 135.731137184061424, 34.973897261730755 ] } },
{ "type": "Feature", "properties": { "内容": "株式会社トーカイ　京都営業所【特定福祉用具販売】京都府京都市南区上鳥羽南花名町４０番地", "url": "https://www.kaigokensaku.mhlw.go.jp/26/index.php?action_kouhyou_detail_004_kani=true&JigyosyoCd=2674000456-00&ServiceCd=410&Type=search", "url2": "http://www.tokai-corp.com/" }, "geometry": { "type": "Point", "coordinates": [ 135.748490242327875, 34.964972815385245 ] } },
{ "type": "Feature", "properties": { "内容": "センゴク　アテンダントサービス【特定福祉用具販売】京都市右京区梅津前田町62番地", "url": "https://www.kaigokensaku.mhlw.go.jp/26/index.php?action_kouhyou_detail_004_kani=true&JigyosyoCd=2670701354-00&ServiceCd=410&Type=search", "url2": null }, "geometry": { "type": "Point", "coordinates": [ 135.694316699999945, 35.0024834 ] } },
{ "type": "Feature", "properties": { "内容": "八千代ケアサポート株式会社京都西京極店【特定福祉用具販売】京都市右京区西京極佃田町13ラセットアベニュー1F", "url": "https://www.kaigokensaku.mhlw.go.jp/26/index.php?action_kouhyou_detail_004_kani=true&JigyosyoCd=2670702717-00&ServiceCd=410&Type=search", "url2": "https://yachiyo-c-s.co.jp/" }, "geometry": { "type": "Point", "coordinates": [ 135.725259028836092, 34.988737551582325 ] } },
{ "type": "Feature", "properties": { "内容": "介護ショップほわいえ四條【特定福祉用具販売】京都市右京区西院四条畑町1-3", "url": "https://www.kaigokensaku.mhlw.go.jp/26/index.php?action_kouhyou_detail_004_kani=true&JigyosyoCd=2670701487-00&ServiceCd=410&Type=search", "url2": "http://www.foyer4.JP" }, "geometry": { "type": "Point", "coordinates": [ 135.724094599999944, 35.0040555 ] } },
{ "type": "Feature", "properties": { "内容": "オーツーTILコンシェルジュ【特定福祉用具販売】梅津石灘町41-1", "url": "https://www.kaigokensaku.mhlw.go.jp/26/index.php?action_kouhyou_detail_004_kani=true&JigyosyoCd=2670702543-00&ServiceCd=410&Type=search", "url2": "http://www.o2co.jp/" }, "geometry": { "type": "Point", "coordinates": [ 135.708908122090151, 35.00109611490354 ] } },
{ "type": "Feature", "properties": { "内容": "ダスキンヘルスレント京都西ステーション【特定福祉用具販売】西院安塚町７２", "url": "https://www.kaigokensaku.mhlw.go.jp/26/index.php?action_kouhyou_detail_004_kani=true&JigyosyoCd=2670701750-00&ServiceCd=410&Type=search", "url2": "http://www-union.co.jp" }, "geometry": { "type": "Point", "coordinates": [ 135.720397700000035, 35.000528 ] } },
{ "type": "Feature", "properties": { "内容": "有限会社らくらく堂【特定福祉用具販売】京都市右京区西京極東池田町9", "url": "https://www.kaigokensaku.mhlw.go.jp/26/index.php?action_kouhyou_detail_004_kani=true&JigyosyoCd=2670700133-00&ServiceCd=410&Type=search", "url2": "http://www." }, "geometry": { "type": "Point", "coordinates": [ 135.721022599999969, 34.9923121 ] } },
{ "type": "Feature", "properties": { "内容": "ユウコム【特定福祉用具販売】京都府京都市右京区西京極南大入町76番地3", "url": "https://www.kaigokensaku.mhlw.go.jp/26/index.php?action_kouhyou_detail_004_kani=true&JigyosyoCd=2670702675-00&ServiceCd=410&Type=search", "url2": "https://ucom-ucom.com" }, "geometry": { "type": "Point", "coordinates": [ 135.716103821426373, 34.996615622403418 ] } },
{ "type": "Feature", "properties": { "内容": "株式会社ウエルネット丸太町支店【特定福祉用具販売】京都府京都市右京区花園薮ノ下町5番地プロバーⅡ1階", "url": "https://www.kaigokensaku.mhlw.go.jp/26/index.php?action_kouhyou_detail_004_kani=true&JigyosyoCd=2670702881-00&ServiceCd=410&Type=search", "url2": "http://www.welnet.co.jp/" }, "geometry": { "type": "Point", "coordinates": [ 135.724149846654512, 35.019636267409481 ] } },
{ "type": "Feature", "properties": { "内容": "有限会社スガワメディカルサービス【特定福祉用具販売】京都市右京区梅津南上田町５番地３", "url": "https://www.kaigokensaku.mhlw.go.jp/26/index.php?action_kouhyou_detail_004_kani=true&JigyosyoCd=2670700513-00&ServiceCd=410&Type=search", "url2": "http://www.sugawa-kyoto.net/" }, "geometry": { "type": "Point", "coordinates": [ 135.70416309999996, 35.0026584 ] } },
{ "type": "Feature", "properties": { "内容": "ソーケンメディカル株式会社【特定福祉用具販売】京都府京都市右京区西院東貝川町4番地5", "url": "https://www.kaigokensaku.mhlw.go.jp/26/index.php?action_kouhyou_detail_004_kani=true&JigyosyoCd=2670500160-00&ServiceCd=410&Type=search", "url2": "http://www.sokenｰmd.co.jp/" }, "geometry": { "type": "Point", "coordinates": [ 135.727788700000019, 34.9748749 ] } },
{ "type": "Feature", "properties": { "内容": "有限会社スマイルケア　右京営業所【特定福祉用具販売】京都府京都市右京区西京極浜ノ本町64番地ハイラーク西京極110号", "url": "https://www.kaigokensaku.mhlw.go.jp/26/index.php?action_kouhyou_detail_004_kani=true&JigyosyoCd=2670702691-00&ServiceCd=410&Type=search", "url2": "https://smilecare.company" }, "geometry": { "type": "Point", "coordinates": [ 135.7117189, 34.99376620000001 ] } },
{ "type": "Feature", "properties": { "内容": "株式会社　三笑堂　右京営業所【特定福祉用具販売】京都市右京区常盤御池町21番9", "url": "https://www.kaigokensaku.mhlw.go.jp/26/index.php?action_kouhyou_detail_004_kani=true&JigyosyoCd=2670701321-00&ServiceCd=410&Type=search", "url2": "http://www.sanshodoh.co.jp/" }, "geometry": { "type": "Point", "coordinates": [ 135.7108452, 35.0240648 ] } },
{ "type": "Feature", "properties": { "内容": "ラ・ケア【特定福祉用具販売】京都市右京区西京極中町３７番地１", "url": "https://www.kaigokensaku.mhlw.go.jp/26/index.php?action_kouhyou_detail_004_kani=true&JigyosyoCd=2670702063-00&ServiceCd=410&Type=search", "url2": "http://la-care.jp" }, "geometry": { "type": "Point", "coordinates": [ 135.719663775463147, 34.989141000753918 ] } },
{ "type": "Feature", "properties": { "内容": "株式会社　アート・ドゥビブレ【特定福祉用具販売】京都市右京区西京極南大入町86-1", "url": "https://www.kaigokensaku.mhlw.go.jp/26/index.php?action_kouhyou_detail_004_kani=true&JigyosyoCd=2670700356-00&ServiceCd=410&Type=search", "url2": "http://www.kyoto-kaigo.com" }, "geometry": { "type": "Point", "coordinates": [ 135.7163842, 34.996645 ] } },
{ "type": "Feature", "properties": { "内容": "有限会社アットホーム京都支店【特定福祉用具販売】京都府京都市伏見区竹田西内畑町2", "url": "https://www.kaigokensaku.mhlw.go.jp/26/index.php?action_kouhyou_detail_004_kani=true&JigyosyoCd=2670916804-00&ServiceCd=410&Type=search", "url2": null }, "geometry": { "type": "Point", "coordinates": [ 135.750380700000051, 34.955158 ] } },
{ "type": "Feature", "properties": { "内容": "たまるや【特定福祉用具販売】久我東町210番地　久我の杜商店街個店棟Ａ-4号", "url": "https://www.kaigokensaku.mhlw.go.jp/26/index.php?action_kouhyou_detail_004_kani=true&JigyosyoCd=2670901129-00&ServiceCd=410&Type=search", "url2": null }, "geometry": { "type": "Point", "coordinates": [ 135.727943200000027, 34.9350822 ] } },
{ "type": "Feature", "properties": { "内容": "福祉用具ボヌール【特定福祉用具販売】竹田浄菩提院町127第一コーポ森崎103", "url": "https://www.kaigokensaku.mhlw.go.jp/26/index.php?action_kouhyou_detail_004_kani=true&JigyosyoCd=2670918636-00&ServiceCd=410&Type=search", "url2": null }, "geometry": { "type": "Point", "coordinates": [ 135.7561355, 34.9507871 ] } },
{ "type": "Feature", "properties": { "内容": "福祉用具貸与・販売事業所　テイクケアリース【特定福祉用具販売】京都府京都市伏見区石田内里町80-2", "url": "https://www.kaigokensaku.mhlw.go.jp/26/index.php?action_kouhyou_detail_004_kani=true&JigyosyoCd=2674101056-00&ServiceCd=410&Type=search", "url2": "http://hp.kaipoke.biz/sab/" }, "geometry": { "type": "Point", "coordinates": [ 135.806751, 34.938253 ] } },
{ "type": "Feature", "properties": { "内容": "ユニック株式会社【特定福祉用具販売】下鳥羽中円面田町40番地ﾄﾞｴﾙﾂｸﾏ１階", "url": "https://www.kaigokensaku.mhlw.go.jp/26/index.php?action_kouhyou_detail_004_kani=true&JigyosyoCd=2670901079-00&ServiceCd=410&Type=search", "url2": null }, "geometry": { "type": "Point", "coordinates": [ 135.741991293917891, 34.932726605124401 ] } },
{ "type": "Feature", "properties": { "内容": "株式会社ヤマシタ京都南営業所【特定福祉用具販売】京都市伏見区竹田西内畑町145番地", "url": "https://www.kaigokensaku.mhlw.go.jp/26/index.php?action_kouhyou_detail_004_kani=true&JigyosyoCd=2670900550-00&ServiceCd=410&Type=search", "url2": "http://www.yco.co.jp/" }, "geometry": { "type": "Point", "coordinates": [ 135.750064, 34.9534137 ] } },
{ "type": "Feature", "properties": { "内容": "ウエジメディカル株式会社【特定福祉用具販売】京都市伏見区醍醐和泉町12番地", "url": "https://www.kaigokensaku.mhlw.go.jp/26/index.php?action_kouhyou_detail_004_kani=true&JigyosyoCd=2670900279-00&ServiceCd=410&Type=search", "url2": "http://ueji-medical.com/" }, "geometry": { "type": "Point", "coordinates": [ 135.816425418944931, 34.94731091903116 ] } },
{ "type": "Feature", "properties": { "内容": "石黒メディカルシステム株式会社【特定福祉用具販売】京都市伏見区竹田中川原町381番地", "url": "https://www.kaigokensaku.mhlw.go.jp/26/index.php?action_kouhyou_detail_004_kani=true&JigyosyoCd=2670900758-00&ServiceCd=410&Type=search", "url2": "http://www.ishiguro-medical.jp/" }, "geometry": { "type": "Point", "coordinates": [ 135.759716, 34.957683 ] } },
{ "type": "Feature", "properties": { "内容": "安心ライフ株式会社【特定福祉用具販売】京都市伏見区中島前山町55-2", "url": "https://www.kaigokensaku.mhlw.go.jp/26/index.php?action_kouhyou_detail_004_kani=true&JigyosyoCd=2670900071-00&ServiceCd=410&Type=search", "url2": "http://www.ansin-s.co.jp" }, "geometry": { "type": "Point", "coordinates": [ 135.744839299999967, 34.9470476 ] } },
{ "type": "Feature", "properties": { "内容": "ユーヒナファイナンス【特定福祉用具販売】京都府京都市伏見区納所町586-150", "url": "https://www.kaigokensaku.mhlw.go.jp/26/index.php?action_kouhyou_detail_004_kani=true&JigyosyoCd=2670917604-00&ServiceCd=410&Type=search", "url2": null }, "geometry": { "type": "Point", "coordinates": [ 135.724431699999968, 34.9090714 ] } },
{ "type": "Feature", "properties": { "内容": "株式会社ヤサカ　京都支店【特定福祉用具販売】京都府京都市伏見区竹田浄菩提院町110", "url": "https://www.kaigokensaku.mhlw.go.jp/26/index.php?action_kouhyou_detail_004_kani=true&JigyosyoCd=2674100652-00&ServiceCd=410&Type=search", "url2": "http://www.daisuki-kaigo.com/" }, "geometry": { "type": "Point", "coordinates": [ 135.755346799999984, 34.9518417 ] } },
{ "type": "Feature", "properties": { "内容": "アイライフ【特定福祉用具販売】京都市伏見区深草飯食町832第49長栄ウィステリアヒルズ2F4号", "url": "https://www.kaigokensaku.mhlw.go.jp/26/index.php?action_kouhyou_detail_004_kani=true&JigyosyoCd=2670901202-00&ServiceCd=410&Type=search", "url2": "http://ilife-kyoto.com/" }, "geometry": { "type": "Point", "coordinates": [ 135.76904049999996, 34.9544116 ] } },
{ "type": "Feature", "properties": { "内容": "川村義肢株式会社　京滋営業所【特定福祉用具販売】京都府京都市伏見区下鳥羽上三栖町143", "url": "https://www.kaigokensaku.mhlw.go.jp/26/index.php?action_kouhyou_detail_004_kani=true&JigyosyoCd=2670900329-00&ServiceCd=410&Type=search", "url2": "http://www.kawamura-gishi.co.jp" }, "geometry": { "type": "Point", "coordinates": [ 135.74691370000005, 34.9325436 ] } },
{ "type": "Feature", "properties": { "内容": "ダスキンヘルスレント京都東ステーション【特定福祉用具販売】京都府京都市山科区大宅中小路町31-1", "url": "https://www.kaigokensaku.mhlw.go.jp/26/index.php?action_kouhyou_detail_004_kani=true&JigyosyoCd=2674102005-00&ServiceCd=410&Type=search", "url2": "https://healthrent.duskin.jp/station/kyoto/kyotohigashi.html" }, "geometry": { "type": "Point", "coordinates": [ 135.823148765081811, 34.970245249561422 ] } },
{ "type": "Feature", "properties": { "内容": "ふくしん介護サービスセンター【特定福祉用具販売】京都府京都市山科区御陵下御廟野町7-1グランシャリオ御陵101", "url": "https://www.kaigokensaku.mhlw.go.jp/26/index.php?action_kouhyou_detail_004_kani=true&JigyosyoCd=2674101262-00&ServiceCd=410&Type=search", "url2": "http://www.fukushinn.com/kaigo/" }, "geometry": { "type": "Point", "coordinates": [ 135.804956299999958, 34.993586 ] } },
{ "type": "Feature", "properties": { "内容": "株式会社しまだ【特定福祉用具販売】京都府京都市山科区椥辻池尻町19番地1", "url": "https://www.kaigokensaku.mhlw.go.jp/26/index.php?action_kouhyou_detail_004_kani=true&JigyosyoCd=2674100140-00&ServiceCd=410&Type=search", "url2": "http://www.kaigo-shimada.co.jp" }, "geometry": { "type": "Point", "coordinates": [ 135.813640726983635, 34.973212810004931 ] } },
{ "type": "Feature", "properties": { "内容": "（株）ウエルネット【特定福祉用具販売】京都府京都市山科区椥辻西潰21番地2", "url": "https://www.kaigokensaku.mhlw.go.jp/26/index.php?action_kouhyou_detail_004_kani=true&JigyosyoCd=2674100017-00&ServiceCd=410&Type=search", "url2": "http://www.welnet.co.jp" }, "geometry": { "type": "Point", "coordinates": [ 135.811154550490642, 34.971547470221701 ] } },
{ "type": "Feature", "properties": { "内容": "株式会社ブリッジサポート【特定福祉用具販売】京都市山科区川田清水団地町6-2", "url": "https://www.kaigokensaku.mhlw.go.jp/26/index.php?action_kouhyou_detail_004_kani=true&JigyosyoCd=2670901525-00&ServiceCd=410&Type=search", "url2": "http://bridge-s.co.jp" }, "geometry": { "type": "Point", "coordinates": [ 135.795909157967344, 34.980165916490925 ] } },
{ "type": "Feature", "properties": { "内容": "やおよろず【特定福祉用具販売】京都市西京区大枝塚原町9－15第一レジデンス春田117号室", "url": "https://www.kaigokensaku.mhlw.go.jp/26/index.php?action_kouhyou_detail_004_kani=true&JigyosyoCd=2674001629-00&ServiceCd=410&Type=search", "url2": null }, "geometry": { "type": "Point", "coordinates": [ 135.6698604, 34.9729842 ] } },
{ "type": "Feature", "properties": { "内容": "株式会社ワンズライフ【特定福祉用具販売】京都府京都市西京区御陵北山下町55番地1-6", "url": "https://www.kaigokensaku.mhlw.go.jp/26/index.php?action_kouhyou_detail_004_kani=true&JigyosyoCd=2670500681-00&ServiceCd=410&Type=search", "url2": "https://peraichi.com/landing_pages/view/ones-life1126" }, "geometry": { "type": "Point", "coordinates": [ 135.690316390854662, 34.979862561495715 ] } },
{ "type": "Feature", "properties": { "内容": "有限会社　博英社【特定福祉用具販売】京都市西京区大原野西境谷町2丁目14-15", "url": "https://www.kaigokensaku.mhlw.go.jp/26/index.php?action_kouhyou_detail_004_kani=true&JigyosyoCd=2674000118-00&ServiceCd=410&Type=search", "url2": "http://www.onyx.dti.ne.jp/~hakueisa/" }, "geometry": { "type": "Point", "coordinates": [ 135.669554400000038, 34.9620425 ] } },
{ "type": "Feature", "properties": { "内容": "株式会社三笑堂洛西営業所【特定福祉用具販売】京都市西京区大枝北福西町三丁目2-5", "url": "https://www.kaigokensaku.mhlw.go.jp/26/index.php?action_kouhyou_detail_004_kani=true&JigyosyoCd=2674000860-00&ServiceCd=410&Type=search", "url2": "http://www.sanshodoh.co.jp/" }, "geometry": { "type": "Point", "coordinates": [ 135.684403231456372, 34.959774830327625 ] } },
{ "type": "Feature", "properties": { "内容": "おたっしゃ本舗【特定福祉用具販売】桂畑ケ田町102", "url": "https://www.kaigokensaku.mhlw.go.jp/26/index.php?action_kouhyou_detail_004_kani=true&JigyosyoCd=2674001397-00&ServiceCd=410&Type=search", "url2": "https://cny.kyoto.jp/" }, "geometry": { "type": "Point", "coordinates": [ 135.704326900000012, 34.9935562 ] } },
{ "type": "Feature", "properties": { "内容": "株式会社ヤマシタ西京営業所【特定福祉用具販売】京都市西京区桂河田町95番地", "url": "https://www.kaigokensaku.mhlw.go.jp/26/index.php?action_kouhyou_detail_004_kani=true&JigyosyoCd=2674001553-00&ServiceCd=410&Type=search", "url2": "https://www.yco.co.jp/" }, "geometry": { "type": "Point", "coordinates": [ 135.70535803068384, 34.987639203578361 ] } },
{ "type": "Feature", "properties": { "内容": "ダスキンヘルスレント福知山ステーション【特定福祉用具販売】和久市町195", "url": "https://www.kaigokensaku.mhlw.go.jp/26/index.php?action_kouhyou_detail_004_kani=true&JigyosyoCd=2672600711-00&ServiceCd=410&Type=search", "url2": "https://healthrent.duskin.jp/" }, "geometry": { "type": "Point", "coordinates": [ 135.1138197, 35.3096664 ] } },
{ "type": "Feature", "properties": { "内容": "株式会社　石坪【特定福祉用具販売】京都府福知山市篠尾新町2丁目88番地", "url": "https://www.kaigokensaku.mhlw.go.jp/26/index.php?action_kouhyou_detail_004_kani=true&JigyosyoCd=2672600166-00&ServiceCd=410&Type=search", "url2": "http://www.ishitsubo.co.jp" }, "geometry": { "type": "Point", "coordinates": [ 135.113272400000028, 35.3017963 ] } },
{ "type": "Feature", "properties": { "内容": "株式会社三笑堂福知山営業所【特定福祉用具販売】京都府福知山市字前田小字池部43番14", "url": "https://www.kaigokensaku.mhlw.go.jp/26/index.php?action_kouhyou_detail_004_kani=true&JigyosyoCd=2672600471-00&ServiceCd=410&Type=search", "url2": "http://www.sanshodoh.co.jp/" }, "geometry": { "type": "Point", "coordinates": [ 135.152653238397079, 35.297123779825462 ] } },
{ "type": "Feature", "properties": { "内容": "コスモライフ北京都【特定福祉用具販売】京都府福知山市東羽合173", "url": "https://www.kaigokensaku.mhlw.go.jp/26/index.php?action_kouhyou_detail_004_kani=true&JigyosyoCd=2672600463-00&ServiceCd=410&Type=search", "url2": "http://cosmo-cosmolife.com" }, "geometry": { "type": "Point", "coordinates": [ 135.1134892, 35.2954583 ] } },
{ "type": "Feature", "properties": { "内容": "株式会社　三笑堂舞鶴支店【特定福祉用具販売】舞鶴市溝尻1121-1", "url": "https://www.kaigokensaku.mhlw.go.jp/26/index.php?action_kouhyou_detail_004_kani=true&JigyosyoCd=2672700180-00&ServiceCd=410&Type=search", "url2": "http://www.sanshodoh.co.jp" }, "geometry": { "type": "Point", "coordinates": [ 135.410403699999961, 35.4639985 ] } },
{ "type": "Feature", "properties": { "内容": "イン・ザ・ルーム舞鶴店【特定福祉用具販売】京都府舞鶴市行永東町12-9", "url": "https://www.kaigokensaku.mhlw.go.jp/26/index.php?action_kouhyou_detail_004_kani=true&JigyosyoCd=2672700750-00&ServiceCd=410&Type=search", "url2": null }, "geometry": { "type": "Point", "coordinates": [ 135.400514647154353, 35.463970832295672 ] } },
{ "type": "Feature", "properties": { "内容": "スマイル・サポート【特定福祉用具販売】井倉町東１２番地の１", "url": "https://www.kaigokensaku.mhlw.go.jp/26/index.php?action_kouhyou_detail_004_kani=true&JigyosyoCd=2671800288-00&ServiceCd=410&Type=search", "url2": null }, "geometry": { "type": "Point", "coordinates": [ 135.247831523278819, 35.305056433489945 ] } },
{ "type": "Feature", "properties": { "内容": "イン・ザ・ルーム　綾部店【特定福祉用具販売】京都府綾部市若松町14", "url": "https://www.kaigokensaku.mhlw.go.jp/26/index.php?action_kouhyou_detail_004_kani=true&JigyosyoCd=2671800361-00&ServiceCd=410&Type=search", "url2": null }, "geometry": { "type": "Point", "coordinates": [ 135.258175200000011, 35.2989035 ] } },
{ "type": "Feature", "properties": { "内容": "パナソニックエイジフリーショップ京都南【特定福祉用具販売】京都府宇治市槇島町一丁田13番地", "url": "https://www.kaigokensaku.mhlw.go.jp/26/index.php?action_kouhyou_detail_004_kani=true&JigyosyoCd=2671200380-00&ServiceCd=410&Type=search", "url2": "http://www.k-kinki.com" }, "geometry": { "type": "Point", "coordinates": [ 135.793757, 34.8983395 ] } },
{ "type": "Feature", "properties": { "内容": "ダスキンヘルスレント洛南【特定福祉用具販売】宇治市小倉町蓮池168-1", "url": "https://www.kaigokensaku.mhlw.go.jp/26/index.php?action_kouhyou_detail_004_kani=true&JigyosyoCd=2671200661-00&ServiceCd=410&Type=search", "url2": "https://healthrent.duskin.jp/" }, "geometry": { "type": "Point", "coordinates": [ 135.7802915440042, 34.897272987925874 ] } },
{ "type": "Feature", "properties": { "内容": "新日本ケアレンタル【特定福祉用具販売】宇治野神65", "url": "https://www.kaigokensaku.mhlw.go.jp/26/index.php?action_kouhyou_detail_004_kani=true&JigyosyoCd=2671200158-00&ServiceCd=410&Type=search", "url2": "https://www.snservice.jp/" }, "geometry": { "type": "Point", "coordinates": [ 135.7934754, 34.8809559 ] } },
{ "type": "Feature", "properties": { "内容": "有限会社スマイルケア宇治営業所【特定福祉用具販売】京都府宇治市五ケ庄西川原32-13", "url": "https://www.kaigokensaku.mhlw.go.jp/26/index.php?action_kouhyou_detail_004_kani=true&JigyosyoCd=2671201594-00&ServiceCd=410&Type=search", "url2": "https://smilecare.company/" }, "geometry": { "type": "Point", "coordinates": [ 135.7911138, 34.9200089 ] } },
{ "type": "Feature", "properties": { "内容": "株式会社　三笑堂　宇治営業所【特定福祉用具販売】宇治市槇島町吹前56-1", "url": "https://www.kaigokensaku.mhlw.go.jp/26/index.php?action_kouhyou_detail_004_kani=true&JigyosyoCd=2671200679-00&ServiceCd=410&Type=search", "url2": "http://www.sanshodoh.co.jp" }, "geometry": { "type": "Point", "coordinates": [ 135.770921700000031, 34.8728813 ] } },
{ "type": "Feature", "properties": { "内容": "宇治病院福祉用具サービス【特定福祉用具販売】五ケ庄芝ノ東28-3", "url": "https://www.kaigokensaku.mhlw.go.jp/26/index.php?action_kouhyou_detail_004_kani=true&JigyosyoCd=2671200901-00&ServiceCd=410&Type=search", "url2": "http://www.uji-hosp.or.jp/" }, "geometry": { "type": "Point", "coordinates": [ 135.801859299999933, 34.9167783 ] } },
{ "type": "Feature", "properties": { "内容": "㈱三笑堂　宮津営業所【特定福祉用具販売】須津2665番地8", "url": "https://www.kaigokensaku.mhlw.go.jp/26/index.php?action_kouhyou_detail_004_kani=true&JigyosyoCd=2672100126-00&ServiceCd=410&Type=search", "url2": null }, "geometry": { "type": "Point", "coordinates": [ 135.1531695, 35.5523655 ] } },
{ "type": "Feature", "properties": { "内容": "ハーモニカ【特定福祉用具販売】京都府亀岡市追分町八ノ坪２９－１８", "url": "https://www.kaigokensaku.mhlw.go.jp/26/index.php?action_kouhyou_detail_004_kani=true&JigyosyoCd=2671600514-00&ServiceCd=410&Type=search", "url2": "http://www.asada-kk.co.jp/" }, "geometry": { "type": "Point", "coordinates": [ 135.579330700000014, 35.0173301 ] } },
{ "type": "Feature", "properties": { "内容": "八千代ケアサポート株式会社　京都亀岡店【特定福祉用具販売】余部町天神又104-1", "url": "https://www.kaigokensaku.mhlw.go.jp/26/index.php?action_kouhyou_detail_004_kani=true&JigyosyoCd=2671600597-00&ServiceCd=410&Type=search", "url2": "http://www.yachiyo-c-s.co.jp" }, "geometry": { "type": "Point", "coordinates": [ 135.5673875, 35.015483 ] } },
{ "type": "Feature", "properties": { "内容": "イン・ザ・ルーム亀岡店【特定福祉用具販売】京都府亀岡市大井町小金岐4-12", "url": "https://www.kaigokensaku.mhlw.go.jp/26/index.php?action_kouhyou_detail_004_kani=true&JigyosyoCd=2671600761-00&ServiceCd=410&Type=search", "url2": null }, "geometry": { "type": "Point", "coordinates": [ 135.5468109, 35.0333853 ] } },
{ "type": "Feature", "properties": { "内容": "株式会社ウエルネット京都南支店【特定福祉用具販売】京都府城陽市長池北清水48番地1", "url": "https://www.kaigokensaku.mhlw.go.jp/26/index.php?action_kouhyou_detail_004_kani=true&JigyosyoCd=2672800568-00&ServiceCd=410&Type=search", "url2": "http://www.welnet.co.jp" }, "geometry": { "type": "Point", "coordinates": [ 135.787863171445395, 34.841490495798432 ] } },
{ "type": "Feature", "properties": { "内容": "ポライト福祉用具サービス【特定福祉用具販売】久世下大谷15番地99平屋群北2号室", "url": "https://www.kaigokensaku.mhlw.go.jp/26/index.php?action_kouhyou_detail_004_kani=true&JigyosyoCd=2672800634-00&ServiceCd=410&Type=search", "url2": null }, "geometry": { "type": "Point", "coordinates": [ 135.780454099999986, 34.8690768 ] } },
{ "type": "Feature", "properties": { "内容": "株式会社鈴宏【特定福祉用具販売】京都府向日市寺戸町初田12番地の15", "url": "https://www.kaigokensaku.mhlw.go.jp/26/index.php?action_kouhyou_detail_004_kani=true&JigyosyoCd=2673100356-00&ServiceCd=410&Type=search", "url2": null }, "geometry": { "type": "Point", "coordinates": [ 135.702032199999962, 34.9522715 ] } },
{ "type": "Feature", "properties": { "内容": "パナソニックエイジフリーショップ京都乙訓【特定福祉用具販売】京都ふ長岡京市城の里１５－６", "url": "https://www.kaigokensaku.mhlw.go.jp/26/index.php?action_kouhyou_detail_004_kani=true&JigyosyoCd=2673000242-00&ServiceCd=410&Type=search", "url2": null }, "geometry": { "type": "Point", "coordinates": [ 135.7068357, 34.9161641 ] } },
{ "type": "Feature", "properties": { "内容": "株式会社ウエルネット京都西支店【特定福祉用具販売】京都府長岡京市友岡4丁目21-3", "url": "https://www.kaigokensaku.mhlw.go.jp/26/index.php?action_kouhyou_detail_004_kani=true&JigyosyoCd=2673000614-00&ServiceCd=410&Type=search", "url2": "http://www.welnet.co.jp" }, "geometry": { "type": "Point", "coordinates": [ 135.689222400000062, 34.9141219 ] } },
{ "type": "Feature", "properties": { "内容": "有限会社スマイルケア【特定福祉用具販売】京都府長岡京市神足麦生11", "url": "https://www.kaigokensaku.mhlw.go.jp/26/index.php?action_kouhyou_detail_004_kani=true&JigyosyoCd=2673000143-00&ServiceCd=410&Type=search", "url2": "https://smilecare.company" }, "geometry": { "type": "Point", "coordinates": [ 135.710253100000045, 34.923372 ] } },
{ "type": "Feature", "properties": { "内容": "株式会社Lipsライオンホームケア【特定福祉用具販売】今里庄ノ渕30番地", "url": "https://www.kaigokensaku.mhlw.go.jp/26/index.php?action_kouhyou_detail_004_kani=true&JigyosyoCd=2673000796-00&ServiceCd=410&Type=search", "url2": null }, "geometry": { "type": "Point", "coordinates": [ 135.6920591, 34.9368818 ] } },
{ "type": "Feature", "properties": { "内容": "株式会社ケアショップはな【特定福祉用具販売】野添2丁目2番14号", "url": "https://www.kaigokensaku.mhlw.go.jp/26/index.php?action_kouhyou_detail_004_kani=true&JigyosyoCd=2673000424-00&ServiceCd=410&Type=search", "url2": null }, "geometry": { "type": "Point", "coordinates": [ 135.69415749999996, 34.9336203 ] } },
{ "type": "Feature", "properties": { "内容": "株式会社　サンてらす【特定福祉用具販売】京都府八幡市八幡科手30番4", "url": "https://www.kaigokensaku.mhlw.go.jp/26/index.php?action_kouhyou_detail_004_kani=true&JigyosyoCd=2672900129-00&ServiceCd=410&Type=search", "url2": "http://santerasu.com/" }, "geometry": { "type": "Point", "coordinates": [ 135.698234207323367, 34.886463787207717 ] } },
{ "type": "Feature", "properties": { "内容": "株式会社　フロンティア　京田辺営業所【特定福祉用具販売】薪西沢１２-３リアネスビル１階", "url": "https://www.kaigokensaku.mhlw.go.jp/26/index.php?action_kouhyou_detail_004_kani=true&JigyosyoCd=2673200362-00&ServiceCd=410&Type=search", "url2": "http://www..frontier-ph.com/homecare/" }, "geometry": { "type": "Point", "coordinates": [ 135.760761799999955, 34.8240858 ] } },
{ "type": "Feature", "properties": { "内容": "株式会社愛安住　京都営業所【特定福祉用具販売】京都府京田辺市田辺蕪木22番地１７", "url": "https://www.kaigokensaku.mhlw.go.jp/26/index.php?action_kouhyou_detail_004_kani=true&JigyosyoCd=2673200305-00&ServiceCd=410&Type=search", "url2": "https://www.aianju.co.jp" }, "geometry": { "type": "Point", "coordinates": [ 135.770391600000039, 34.823858 ] } },
{ "type": "Feature", "properties": { "内容": "株式会社　相弥【特定福祉用具販売】京都府京丹後市大宮町周枳680番地の1", "url": "https://www.kaigokensaku.mhlw.go.jp/26/index.php?action_kouhyou_detail_004_kani=true&JigyosyoCd=2673300105-00&ServiceCd=410&Type=search", "url2": "http://www." }, "geometry": { "type": "Point", "coordinates": [ 135.103376300000036, 35.5894675 ] } },
{ "type": "Feature", "properties": { "内容": "ケア・すぎけん【特定福祉用具販売】京都府京丹後市大宮町三坂129-1", "url": "https://www.kaigokensaku.mhlw.go.jp/26/index.php?action_kouhyou_detail_004_kani=true&JigyosyoCd=2672000219-00&ServiceCd=410&Type=search", "url2": null }, "geometry": { "type": "Point", "coordinates": [ 135.0994272, 35.5778436 ] } },
{ "type": "Feature", "properties": { "内容": "株式会社石坪　京丹後営業所【特定福祉用具販売】京都府京丹後市峰山町富貴屋３５", "url": "https://www.kaigokensaku.mhlw.go.jp/26/index.php?action_kouhyou_detail_004_kani=true&JigyosyoCd=2673300253-00&ServiceCd=410&Type=search", "url2": null }, "geometry": { "type": "Point", "coordinates": [ 135.0571835, 35.624744 ] } },
{ "type": "Feature", "properties": { "内容": "ケアタイムズ【特定福祉用具販売】京都府京丹後市峰山町長岡738-7", "url": "https://www.kaigokensaku.mhlw.go.jp/26/index.php?action_kouhyou_detail_004_kani=true&JigyosyoCd=2673300212-00&ServiceCd=410&Type=search", "url2": null }, "geometry": { "type": "Point", "coordinates": [ 135.0623051, 35.6082027 ] } },
{ "type": "Feature", "properties": { "内容": "有限会社　クローバー【特定福祉用具販売】京都府南丹市園部町上木崎町岩崎4-1", "url": "https://www.kaigokensaku.mhlw.go.jp/26/index.php?action_kouhyou_detail_004_kani=true&JigyosyoCd=2671500235-00&ServiceCd=410&Type=search", "url2": "http://www." }, "geometry": { "type": "Point", "coordinates": [ 135.466118100000017, 35.1118874 ] } },
{ "type": "Feature", "properties": { "内容": "有限会社いなふ【特定福祉用具販売】京都府南丹市園部町小山東町水無12", "url": "https://www.kaigokensaku.mhlw.go.jp/26/index.php?action_kouhyou_detail_004_kani=true&JigyosyoCd=2671500227-00&ServiceCd=410&Type=search", "url2": "http://www.t-enough.com" }, "geometry": { "type": "Point", "coordinates": [ 135.4854752, 35.1020917 ] } },
{ "type": "Feature", "properties": { "内容": "株式会社歩ビリス【特定福祉用具販売】相楽神後原57-1ブルグ薮内２号館1階", "url": "https://www.kaigokensaku.mhlw.go.jp/26/index.php?action_kouhyou_detail_004_kani=true&JigyosyoCd=2673500191-00&ServiceCd=410&Type=search", "url2": null }, "geometry": { "type": "Point", "coordinates": [ 135.797493799999984, 34.7356534 ] } },
{ "type": "Feature", "properties": { "内容": "マツダメディカルマーケット【特定福祉用具販売】京都府久世郡久御山町佐山双置82-3マツダメディカルタワー1F", "url": "https://www.kaigokensaku.mhlw.go.jp/26/index.php?action_kouhyou_detail_004_kani=true&JigyosyoCd=2671100168-00&ServiceCd=410&Type=search", "url2": "https://matsuda-medical.jp/" }, "geometry": { "type": "Point", "coordinates": [ 135.7536776, 34.8755494 ] } },
{ "type": "Feature", "properties": { "内容": "あるる【特定福祉用具販売】京都府久世郡久御山町森村東238", "url": "https://www.kaigokensaku.mhlw.go.jp/26/index.php?action_kouhyou_detail_004_kani=true&JigyosyoCd=2671100051-00&ServiceCd=410&Type=search", "url2": "https://a-lu-ru.com/" }, "geometry": { "type": "Point", "coordinates": [ 135.740997800000059, 34.8924067 ] } },
{ "type": "Feature", "properties": { "内容": "ニック株式会社　京都営業所【特定福祉用具販売】京都府久世郡久御山町島田堤外22", "url": "https://www.kaigokensaku.mhlw.go.jp/26/index.php?action_kouhyou_detail_004_kani=true&JigyosyoCd=2671100044-00&ServiceCd=410&Type=search", "url2": "http://www.nick-corp.com" }, "geometry": { "type": "Point", "coordinates": [ 135.735229299999986, 34.882919 ] } },
{ "type": "Feature", "properties": { "内容": "株式会社サンてらす　精華営業所【特定福祉用具販売】京都府相楽郡精華町祝園西1丁目22番地5寺島ビル1階102号室", "url": "https://www.kaigokensaku.mhlw.go.jp/26/index.php?action_kouhyou_detail_004_kani=true&JigyosyoCd=2671400519-00&ServiceCd=410&Type=search", "url2": "https://santerasu.com/" }, "geometry": { "type": "Point", "coordinates": [ 135.7908143, 34.7609334 ] } },
{ "type": "Feature", "properties": { "内容": "株式会社大江【特定福祉用具販売】京都府与謝郡与謝野町弓木1136-3", "url": "https://www.kaigokensaku.mhlw.go.jp/26/index.php?action_kouhyou_detail_004_kani=true&JigyosyoCd=2672000151-00&ServiceCd=410&Type=search", "url2": null }, "geometry": { "type": "Point", "coordinates": [ 135.1405039, 35.5577206 ] } },
{ "type": "Feature", "properties": { "内容": "株式会社ケアネット【特定福祉用具販売】京都府与謝郡与謝野町字算所100", "url": "https://www.kaigokensaku.mhlw.go.jp/26/index.php?action_kouhyou_detail_004_kani=true&JigyosyoCd=2672000037-00&ServiceCd=410&Type=search", "url2": "http://www.carenet-y.co.jp" }, "geometry": { "type": "Point", "coordinates": [ 135.095044599999937, 35.5084475 ] } }
]
}
