{
"type": "FeatureCollection",
"name": "geo_26_訪問入浴介護",
"crs": { "type": "name", "properties": { "name": "urn:ogc:def:crs:OGC:1.3:CRS84" } },
"features": [
{ "type": "Feature", "properties": { "内容": "原谷こぶしの里　訪問入浴サービス【訪問入浴介護】京都市北区大北山長谷町5-36", "url": "https://www.kaigokensaku.mhlw.go.jp/26/index.php?action_kouhyou_detail_004_kani=true&JigyosyoCd=2670101381-00&ServiceCd=120&Type=search", "url2": "http://www.nananokai.com" }, "geometry": { "type": "Point", "coordinates": [ 135.719294, 35.0446685 ] } },
{ "type": "Feature", "properties": { "内容": "アサヒサンクリーン在宅介護センター京都北【訪問入浴介護】京都市北区出雲路立テ本町7", "url": "https://www.kaigokensaku.mhlw.go.jp/26/index.php?action_kouhyou_detail_004_kani=true&JigyosyoCd=2670100540-00&ServiceCd=120&Type=search", "url2": "http://www.asahi-sun-clean.co.jp" }, "geometry": { "type": "Point", "coordinates": [ 135.763795800000025, 35.0404586 ] } },
{ "type": "Feature", "properties": { "内容": "アサヒサンクリーン在宅介護センター左京【訪問入浴介護】夷川通新間之町西入石原町281番地4-2", "url": "https://www.kaigokensaku.mhlw.go.jp/26/index.php?action_kouhyou_detail_004_kani=true&JigyosyoCd=2670600796-00&ServiceCd=120&Type=search", "url2": "http://www.asahi-sun-clean.co.jp" }, "geometry": { "type": "Point", "coordinates": [ 135.775895399999968, 35.0140556 ] } },
{ "type": "Feature", "properties": { "内容": "リハビリ訪問入浴nagomi　京都中央店【訪問入浴介護】京都府京都市中京区二条油小路町286STFビル１F", "url": "https://www.kaigokensaku.mhlw.go.jp/26/index.php?action_kouhyou_detail_004_kani=true&JigyosyoCd=2670301072-00&ServiceCd=120&Type=search", "url2": "http://www.higasiyama.co.jp/" }, "geometry": { "type": "Point", "coordinates": [ 135.753616599999987, 35.0129751 ] } },
{ "type": "Feature", "properties": { "内容": "ケアサポートうらら【訪問入浴介護】京都府京都市中京区西ノ京壺ノ内町15番地17", "url": "https://www.kaigokensaku.mhlw.go.jp/26/index.php?action_kouhyou_detail_004_kani=true&JigyosyoCd=2670301304-00&ServiceCd=120&Type=search", "url2": null }, "geometry": { "type": "Point", "coordinates": [ 135.7268676, 35.0168643 ] } },
{ "type": "Feature", "properties": { "内容": "アサヒサンクリーン在宅介護センター京都中【訪問入浴介護】京都府京都市中京区西ノ京南原町５３番地2第12長栄セントラルシティーハイツ1Ｆ", "url": "https://www.kaigokensaku.mhlw.go.jp/26/index.php?action_kouhyou_detail_004_kani=true&JigyosyoCd=2670300827-00&ServiceCd=120&Type=search", "url2": "http://www.asahi-sun-clean.co.jp" }, "geometry": { "type": "Point", "coordinates": [ 135.7337685, 35.0104802 ] } },
{ "type": "Feature", "properties": { "内容": "アサヒサンクリーン在宅介護センター京都東山【訪問入浴介護】京都市東山区鞘町通七条上る下堀詰町246-2-2", "url": "https://www.kaigokensaku.mhlw.go.jp/26/index.php?action_kouhyou_detail_004_kani=true&JigyosyoCd=2670800487-00&ServiceCd=120&Type=search", "url2": "http://www.asahi-sun-clean.co.jp" }, "geometry": { "type": "Point", "coordinates": [ 135.7685266, 34.9898393 ] } },
{ "type": "Feature", "properties": { "内容": "パナソニックエイジフリーケアセンター京都・訪問入浴【訪問入浴介護】京都市下京区烏丸通五条下ル大阪町400　三善ビルＢ１Ｆ", "url": "https://www.kaigokensaku.mhlw.go.jp/26/index.php?action_kouhyou_detail_004_kani=true&JigyosyoCd=2670400569-00&ServiceCd=120&Type=search", "url2": null }, "geometry": { "type": "Point", "coordinates": [ 135.7555334, 34.9876552 ] } },
{ "type": "Feature", "properties": { "内容": "株式会社　キョウトアイケアサービス【訪問入浴介護】京都府京都市下京区平野町764", "url": "https://www.kaigokensaku.mhlw.go.jp/26/index.php?action_kouhyou_detail_004_kani=true&JigyosyoCd=2670400213-00&ServiceCd=120&Type=search", "url2": "http://www.kyoto-aicare.co.jp" }, "geometry": { "type": "Point", "coordinates": [ 135.756946013845493, 34.991082687467014 ] } },
{ "type": "Feature", "properties": { "内容": "アサヒサンクリーン在宅介護センター京都西【訪問入浴介護】京都府京都市右京区太秦辻ケ本町9UZUMASA　ARCUS", "url": "https://www.kaigokensaku.mhlw.go.jp/26/index.php?action_kouhyou_detail_004_kani=true&JigyosyoCd=2670700851-00&ServiceCd=120&Type=search", "url2": "http://www.asahi-sun-clean.co.jp" }, "geometry": { "type": "Point", "coordinates": [ 135.709534621442828, 35.013563664826691 ] } },
{ "type": "Feature", "properties": { "内容": "ラ・ケア【訪問入浴介護】京都市右京区西京極中町３７番地1", "url": "https://www.kaigokensaku.mhlw.go.jp/26/index.php?action_kouhyou_detail_004_kani=true&JigyosyoCd=2670700414-00&ServiceCd=120&Type=search", "url2": "https://la-care.jp" }, "geometry": { "type": "Point", "coordinates": [ 135.719640377909826, 34.98910329139072 ] } },
{ "type": "Feature", "properties": { "内容": "アースサポート京都【訪問入浴介護】京都府京都市右京区西院北矢掛町１番地１１", "url": "https://www.kaigokensaku.mhlw.go.jp/26/index.php?action_kouhyou_detail_004_kani=true&JigyosyoCd=2670700430-00&ServiceCd=120&Type=search", "url2": "http://www.earthsupport.co.jp" }, "geometry": { "type": "Point", "coordinates": [ 135.729860700000017, 35.001131 ] } },
{ "type": "Feature", "properties": { "内容": "訪問入浴介護サービス　ひまわり【訪問入浴介護】梅津罧原町52-71", "url": "https://www.kaigokensaku.mhlw.go.jp/26/index.php?action_kouhyou_detail_004_kani=true&JigyosyoCd=2670700786-00&ServiceCd=120&Type=search", "url2": "http://www.himawari-kaigo.kyoto" }, "geometry": { "type": "Point", "coordinates": [ 135.692697400000043, 35.0040277 ] } },
{ "type": "Feature", "properties": { "内容": "株式会社　ふくろう【訪問入浴介護】京都市伏見区醍醐和泉町7－1リーブルダイゴ１F", "url": "https://www.kaigokensaku.mhlw.go.jp/26/index.php?action_kouhyou_detail_004_kani=true&JigyosyoCd=2670900980-00&ServiceCd=120&Type=search", "url2": null }, "geometry": { "type": "Point", "coordinates": [ 135.816922154541317, 34.948291693743144 ] } },
{ "type": "Feature", "properties": { "内容": "ラ・ケアみなみ【訪問入浴介護】京都市伏見区桃山町泰長老113-3", "url": "https://www.kaigokensaku.mhlw.go.jp/26/index.php?action_kouhyou_detail_004_kani=true&JigyosyoCd=2670900014-00&ServiceCd=120&Type=search", "url2": "http://www.la-care.jp" }, "geometry": { "type": "Point", "coordinates": [ 135.7712755, 34.9289527 ] } },
{ "type": "Feature", "properties": { "内容": "アサヒサンクリーン在宅介護センタ－京都伏見【訪問入浴介護】京都府京都市伏見区石田大受町４２番地１醍醐アーバン２０１号", "url": "https://www.kaigokensaku.mhlw.go.jp/26/index.php?action_kouhyou_detail_004_kani=true&JigyosyoCd=2670917067-00&ServiceCd=120&Type=search", "url2": "http://asahi-sun-clean.co.jp/" }, "geometry": { "type": "Point", "coordinates": [ 135.807111573680146, 34.943579066765153 ] } },
{ "type": "Feature", "properties": { "内容": "訪問入浴AFRO【訪問入浴介護】桂野里町41－49エスト桂一階", "url": "https://www.kaigokensaku.mhlw.go.jp/26/index.php?action_kouhyou_detail_004_kani=true&JigyosyoCd=2674001561-00&ServiceCd=120&Type=search", "url2": null }, "geometry": { "type": "Point", "coordinates": [ 135.705070799999987, 34.9796381 ] } },
{ "type": "Feature", "properties": { "内容": "パナソニックエイジフリー桂ケアセンター訪問入浴【訪問入浴介護】京都市西京区川島調子町93", "url": "https://www.kaigokensaku.mhlw.go.jp/26/index.php?action_kouhyou_detail_004_kani=true&JigyosyoCd=2674000563-00&ServiceCd=120&Type=search", "url2": null }, "geometry": { "type": "Point", "coordinates": [ 135.698921899999959, 34.9730027 ] } },
{ "type": "Feature", "properties": { "内容": "訪問入浴New浴【訪問入浴介護】京都府京都市西京区川島有栖川町１３３番地１アミティー桂１階", "url": "https://www.kaigokensaku.mhlw.go.jp/26/index.php?action_kouhyou_detail_004_kani=true&JigyosyoCd=2674001777-00&ServiceCd=120&Type=search", "url2": "https://www.silver-sun.co.jp/" }, "geometry": { "type": "Point", "coordinates": [ 135.7007936, 34.9772957 ] } },
{ "type": "Feature", "properties": { "内容": "アサヒサンクリーン在宅介護センター福知山【訪問入浴介護】京都府福知山市駅南町3丁目101アルファーユービル1階　A号室", "url": "https://www.kaigokensaku.mhlw.go.jp/26/index.php?action_kouhyou_detail_004_kani=true&JigyosyoCd=2672600620-00&ServiceCd=120&Type=search", "url2": "http://www.asahi-sun-clean.co.jp" }, "geometry": { "type": "Point", "coordinates": [ 135.115172761593612, 35.2956762800058 ] } },
{ "type": "Feature", "properties": { "内容": "福知山市社会福祉協議会　訪問入浴介護事業所【訪問入浴介護】福知山市内記10番地の18福知山市総合福祉会館内", "url": "https://www.kaigokensaku.mhlw.go.jp/26/index.php?action_kouhyou_detail_004_kani=true&JigyosyoCd=2672600067-00&ServiceCd=120&Type=search", "url2": "http://www.fukuchiyama-shakyo.org" }, "geometry": { "type": "Point", "coordinates": [ 135.128079299999968, 35.2979693 ] } },
{ "type": "Feature", "properties": { "内容": "株式会社にっぷく【訪問入浴介護】京都府舞鶴市字平野屋19番地", "url": "https://www.kaigokensaku.mhlw.go.jp/26/index.php?action_kouhyou_detail_004_kani=true&JigyosyoCd=2672700628-00&ServiceCd=120&Type=search", "url2": "https://nipuuku.bsj.jp" }, "geometry": { "type": "Point", "coordinates": [ 135.327628199999936, 35.4492799 ] } },
{ "type": "Feature", "properties": { "内容": "アサヒサンクリーン在宅介護センター舞鶴【訪問入浴介護】京都府舞鶴市字浜小字浜2005番地　オリゾンビル1階Ａ号室", "url": "https://www.kaigokensaku.mhlw.go.jp/26/index.php?action_kouhyou_detail_004_kani=true&JigyosyoCd=2672700131-00&ServiceCd=120&Type=search", "url2": "http://www.asahi-sun-clean.co.jp" }, "geometry": { "type": "Point", "coordinates": [ 135.39276750893896, 35.476617100263311 ] } },
{ "type": "Feature", "properties": { "内容": "株式会社メタルエッグ介護事業部あっぷる【訪問入浴介護】舞鶴市字小倉222-5", "url": "https://www.kaigokensaku.mhlw.go.jp/26/index.php?action_kouhyou_detail_004_kani=true&JigyosyoCd=2672700149-00&ServiceCd=120&Type=search", "url2": null }, "geometry": { "type": "Point", "coordinates": [ 135.4243328, 35.4812909 ] } },
{ "type": "Feature", "properties": { "内容": "綾部市社会福祉協議会【訪問入浴介護】綾部市川糸町南古屋敷5の1", "url": "https://www.kaigokensaku.mhlw.go.jp/26/index.php?action_kouhyou_detail_004_kani=true&JigyosyoCd=2671800015-00&ServiceCd=120&Type=search", "url2": "http://www.ayabe-shakyo.or.jp" }, "geometry": { "type": "Point", "coordinates": [ 135.261184100000037, 35.2984024 ] } },
{ "type": "Feature", "properties": { "内容": "パナソニックエイジフリー宇治ケアセンター訪問入浴【訪問入浴介護】京都府宇治市大久保町上ノ山４３－１藤和ライブタウン宇治大久保１Ｆ", "url": "https://www.kaigokensaku.mhlw.go.jp/26/index.php?action_kouhyou_detail_004_kani=true&JigyosyoCd=2671200604-00&ServiceCd=120&Type=search", "url2": null }, "geometry": { "type": "Point", "coordinates": [ 135.777235099999984, 34.8721814 ] } },
{ "type": "Feature", "properties": { "内容": "アサヒサンクリーン株式会社　在宅介護センター宇治【訪問入浴介護】京都府宇治市小倉町西浦1-2ONK.36　２階２-B号室", "url": "https://www.kaigokensaku.mhlw.go.jp/26/index.php?action_kouhyou_detail_004_kani=true&JigyosyoCd=2671201313-00&ServiceCd=120&Type=search", "url2": "https://www.asahi-sun-clean.co.jp/" }, "geometry": { "type": "Point", "coordinates": [ 135.78229693743441, 34.897626897192509 ] } },
{ "type": "Feature", "properties": { "内容": "アースサポート宇治【訪問入浴介護】京都府宇治市小倉町久保109番地", "url": "https://www.kaigokensaku.mhlw.go.jp/26/index.php?action_kouhyou_detail_004_kani=true&JigyosyoCd=2671200687-00&ServiceCd=120&Type=search", "url2": "http://www.earthsupport.co.jp" }, "geometry": { "type": "Point", "coordinates": [ 135.78265250000004, 34.897645 ] } },
{ "type": "Feature", "properties": { "内容": "宮津市社会福祉協議会【訪問入浴介護】京都府宮津市字鶴賀2109番地の2", "url": "https://www.kaigokensaku.mhlw.go.jp/26/index.php?action_kouhyou_detail_004_kani=true&JigyosyoCd=2672100019-00&ServiceCd=120&Type=search", "url2": "http://www.kyoshakyo.or.jp/miyazu/" }, "geometry": { "type": "Point", "coordinates": [ 135.197794206884737, 35.533825888849911 ] } },
{ "type": "Feature", "properties": { "内容": "アスケア訪問入浴　亀岡【訪問入浴介護】亀岡市千代川町今津1-11-10レジェンド千代川１階A号室", "url": "https://www.kaigokensaku.mhlw.go.jp/26/index.php?action_kouhyou_detail_004_kani=true&JigyosyoCd=2671600225-00&ServiceCd=120&Type=search", "url2": "http://www.asahi-sun-clean.co.jp" }, "geometry": { "type": "Point", "coordinates": [ 135.547303699999929, 35.048699700000014 ] } },
{ "type": "Feature", "properties": { "内容": "アサヒサンクリーン在宅介護センター長岡京【訪問入浴介護】京都府長岡京市一里塚2-44一里塚テナント1Ｆ", "url": "https://www.kaigokensaku.mhlw.go.jp/26/index.php?action_kouhyou_detail_004_kani=true&JigyosyoCd=2673000267-00&ServiceCd=120&Type=search", "url2": "http://www.asahi-sun-clean.co.jp" }, "geometry": { "type": "Point", "coordinates": [ 135.700145299999946, 34.926074300000032 ] } },
{ "type": "Feature", "properties": { "内容": "アサヒサンクリーン在宅介護センター京田辺【訪問入浴介護】京都府京田辺市田辺沓脱26-2", "url": "https://www.kaigokensaku.mhlw.go.jp/26/index.php?action_kouhyou_detail_004_kani=true&JigyosyoCd=2673200354-00&ServiceCd=120&Type=search", "url2": "http://www.asahi-sun-clean.co.jp" }, "geometry": { "type": "Point", "coordinates": [ 135.767332151114715, 34.81950889945373 ] } },
{ "type": "Feature", "properties": { "内容": "丹後園訪問入浴事業所【訪問入浴介護】京都府京丹後市網野町木津225番地の２", "url": "https://www.kaigokensaku.mhlw.go.jp/26/index.php?action_kouhyou_detail_004_kani=true&JigyosyoCd=2672300023-00&ServiceCd=120&Type=search", "url2": "https://tangoen.net/" }, "geometry": { "type": "Point", "coordinates": [ 134.964795350262449, 35.655716171965494 ] } },
{ "type": "Feature", "properties": { "内容": "訪問入浴サービスTerme【訪問入浴介護】京都府京丹後市久美浜町湊宮４６７番地の６０", "url": "https://www.kaigokensaku.mhlw.go.jp/26/index.php?action_kouhyou_detail_004_kani=true&JigyosyoCd=2672400062-00&ServiceCd=120&Type=search", "url2": "https://taiyoufukushikai.jp/" }, "geometry": { "type": "Point", "coordinates": [ 134.925789, 35.641694 ] } },
{ "type": "Feature", "properties": { "内容": "公益財団法人　南丹市福祉シルバー人材センター【訪問入浴介護】京都府南丹市園部町小桜町61番地５　こむぎ山健康学園内", "url": "https://www.kaigokensaku.mhlw.go.jp/26/index.php?action_kouhyou_detail_004_kani=true&JigyosyoCd=2671500128-00&ServiceCd=120&Type=search", "url2": "https://www.sjc.ne.jp/sonosilv" }, "geometry": { "type": "Point", "coordinates": [ 135.470387399999936, 35.1067297 ] } },
{ "type": "Feature", "properties": { "内容": "社会福祉法人　木津川市社会福祉協議会　ケアセンター　ハッピーコスモス　訪問入浴事業所【訪問入浴介護】京都府木津川市相楽山松川42番地2", "url": "https://www.kaigokensaku.mhlw.go.jp/26/index.php?action_kouhyou_detail_004_kani=true&JigyosyoCd=2673500019-00&ServiceCd=120&Type=search", "url2": "http://www.kyoshakyo.or.jp/kizugawa/" }, "geometry": { "type": "Point", "coordinates": [ 135.802471559593414, 34.72478717346717 ] } },
{ "type": "Feature", "properties": { "内容": "白百合訪問入浴介護ステーション神の園【訪問入浴介護】京都府相楽郡精華町大字北稲八間小字焼山6", "url": "https://www.kaigokensaku.mhlw.go.jp/26/index.php?action_kouhyou_detail_004_kani=true&JigyosyoCd=2671400071-00&ServiceCd=120&Type=search", "url2": "http://kami-home.jp/" }, "geometry": { "type": "Point", "coordinates": [ 135.781830500000069, 34.7635553 ] } },
{ "type": "Feature", "properties": { "内容": "南山城村社会福祉協議会指定訪問入浴介護事業所さつきの湯【訪問入浴介護】京都府相楽郡南山城村大字北大河原小字大稲葉4番地", "url": "https://www.kaigokensaku.mhlw.go.jp/26/index.php?action_kouhyou_detail_004_kani=true&JigyosyoCd=2671400014-00&ServiceCd=120&Type=search", "url2": "https://sites.google.com/view/minamiyamashirosyakyo" }, "geometry": { "type": "Point", "coordinates": [ 136.025708, 34.7649645 ] } },
{ "type": "Feature", "properties": { "内容": "社会福祉法人　伊根町社会福祉協議会【訪問入浴介護】京都府与謝郡伊根町字泊1番地", "url": "https://www.kaigokensaku.mhlw.go.jp/26/index.php?action_kouhyou_detail_004_kani=true&JigyosyoCd=2672000078-00&ServiceCd=120&Type=search", "url2": "https://ine-shakyo.jp/" }, "geometry": { "type": "Point", "coordinates": [ 135.282921, 35.704026 ] } },
{ "type": "Feature", "properties": { "内容": "与謝の園訪問入浴介護事業所【訪問入浴介護】京都府与謝郡与謝野町明石2120番地", "url": "https://www.kaigokensaku.mhlw.go.jp/26/index.php?action_kouhyou_detail_004_kani=true&JigyosyoCd=2672000094-00&ServiceCd=120&Type=search", "url2": "http://www.hokuseikai.or.jp/yozanoen/" }, "geometry": { "type": "Point", "coordinates": [ 135.106763322938662, 35.507972752741445 ] } }
]
}
