{
"type": "FeatureCollection",
"name": "geo_26_短期入所生活介護",
"crs": { "type": "name", "properties": { "name": "urn:ogc:def:crs:OGC:1.3:CRS84" } },
"features": [
{ "type": "Feature", "properties": { "内容": "介護老人福祉施設にしがも舟山庵短期入所生活介護【短期入所生活介護】京都市北区大宮西山ノ前町3番地1", "url": "https://www.kaigokensaku.mhlw.go.jp/26/index.php?action_kouhyou_detail_004_kani=true&JigyosyoCd=2670100813-00&ServiceCd=210&Type=search", "url2": "http://funayamaan.com/" }, "geometry": { "type": "Point", "coordinates": [ 135.740522700000042, 35.0587118 ] } },
{ "type": "Feature", "properties": { "内容": "小規模特別養護老人ホーム「ヴェルデ上賀茂」【短期入所生活介護】京都府京都市北区上賀茂馬ノ目町18", "url": "https://www.kaigokensaku.mhlw.go.jp/26/index.php?action_kouhyou_detail_004_kani=true&JigyosyoCd=2670101068-00&ServiceCd=210&Type=search", "url2": "http://www.hiragino.or.jp/simpleslide/img/img151fb4020_1.jpg" }, "geometry": { "type": "Point", "coordinates": [ 135.747910899999965, 35.0665944 ] } },
{ "type": "Feature", "properties": { "内容": "短期入所生活介護事業所きたおおじ【短期入所生活介護】京都府京都市北区紫野大徳寺町49-3", "url": "https://www.kaigokensaku.mhlw.go.jp/26/index.php?action_kouhyou_detail_004_kani=true&JigyosyoCd=2670101399-00&ServiceCd=210&Type=search", "url2": "http://www.kitaooji8025.jp/" }, "geometry": { "type": "Point", "coordinates": [ 135.74613880000004, 35.0454551 ] } },
{ "type": "Feature", "properties": { "内容": "短期入所生活介護ふなおか【短期入所生活介護】京都府京都市北区紫野花ノ坊町11番2", "url": "https://www.kaigokensaku.mhlw.go.jp/26/index.php?action_kouhyou_detail_004_kani=true&JigyosyoCd=2670101639-00&ServiceCd=210&Type=search", "url2": "https://shizuhararyo.com" }, "geometry": { "type": "Point", "coordinates": [ 135.7387243, 35.0396887 ] } },
{ "type": "Feature", "properties": { "内容": "医療法人　社団　都会　ショートステイ　にしがも【短期入所生活介護】京都市北区大宮南田尻町59医療福祉複合施設にしがも　2階", "url": "https://www.kaigokensaku.mhlw.go.jp/26/index.php?action_kouhyou_detail_004_kani=true&JigyosyoCd=2610105278-00&ServiceCd=210&Type=search", "url2": "http://www.miyakokai.or.jp/" }, "geometry": { "type": "Point", "coordinates": [ 135.749588499999959, 35.0571732 ] } },
{ "type": "Feature", "properties": { "内容": "京都市柊野特別養護老人ホーム【短期入所生活介護】京都市北区上賀茂馬ノ目町１０－１", "url": "https://www.kaigokensaku.mhlw.go.jp/26/index.php?action_kouhyou_detail_004_kani=true&JigyosyoCd=2670100037-00&ServiceCd=210&Type=search", "url2": "http://www.hiragino.or.jp" }, "geometry": { "type": "Point", "coordinates": [ 135.747552600000063, 35.0668888 ] } },
{ "type": "Feature", "properties": { "内容": "特別養護老人ホーム「ヴィラ上賀茂」【短期入所生活介護】京都市北区上賀茂中ノ河原町22-1", "url": "https://www.kaigokensaku.mhlw.go.jp/26/index.php?action_kouhyou_detail_004_kani=true&JigyosyoCd=2670100128-00&ServiceCd=210&Type=search", "url2": "https://www.hiragino.or.jp/project/kamigamo-villa.html" }, "geometry": { "type": "Point", "coordinates": [ 135.747480399999972, 35.0664416 ] } },
{ "type": "Feature", "properties": { "内容": "老人短期入所原谷こぶしの里【短期入所生活介護】京都市北区大北山長谷町５－３６", "url": "https://www.kaigokensaku.mhlw.go.jp/26/index.php?action_kouhyou_detail_004_kani=true&JigyosyoCd=2670100060-00&ServiceCd=210&Type=search", "url2": "http://www.nananokai.com/" }, "geometry": { "type": "Point", "coordinates": [ 135.719263500000011, 35.0446574 ] } },
{ "type": "Feature", "properties": { "内容": "特別養護老人ホーム紫野【短期入所生活介護】京都市北区紫野西野町15番地", "url": "https://www.kaigokensaku.mhlw.go.jp/26/index.php?action_kouhyou_detail_004_kani=true&JigyosyoCd=2670100433-00&ServiceCd=210&Type=search", "url2": "http://www.e-caretown.com/26/kyoto-murasakino/index.html" }, "geometry": { "type": "Point", "coordinates": [ 135.741553100000033, 35.0413943 ] } },
{ "type": "Feature", "properties": { "内容": "特別養護老人ホーム和順の里【短期入所生活介護】京都市北区大北山原谷乾町102－1", "url": "https://www.kaigokensaku.mhlw.go.jp/26/index.php?action_kouhyou_detail_004_kani=true&JigyosyoCd=2670100508-00&ServiceCd=210&Type=search", "url2": "http://www.wajun.sakura.ne.jp/" }, "geometry": { "type": "Point", "coordinates": [ 135.71560820000002, 35.0434436 ] } },
{ "type": "Feature", "properties": { "内容": "特別養護老人ホーム　ユーカリの里指定短期入所生活介護施設【短期入所生活介護】京都市北区上賀茂ケシ山１-４３", "url": "https://www.kaigokensaku.mhlw.go.jp/26/index.php?action_kouhyou_detail_004_kani=true&JigyosyoCd=2670100219-00&ServiceCd=210&Type=search", "url2": "http://web.kyoto-inet.or.jp/people/koalamet/" }, "geometry": { "type": "Point", "coordinates": [ 135.769589600000018, 35.0603618 ] } },
{ "type": "Feature", "properties": { "内容": "短期入所生活介護事業所おんまえどおり【短期入所生活介護】御前通下立売上る天満屋町312番地域密着型ケアセンターおんまえどり", "url": "https://www.kaigokensaku.mhlw.go.jp/26/index.php?action_kouhyou_detail_004_kani=true&JigyosyoCd=2670201165-00&ServiceCd=210&Type=search", "url2": "http://www.kitaooji8025.jp/" }, "geometry": { "type": "Point", "coordinates": [ 135.736288, 35.021108 ] } },
{ "type": "Feature", "properties": { "内容": "京都市小川特別養護老人ホーム【短期入所生活介護】京都市上京区小川通今出川下る西入東今町375番地", "url": "https://www.kaigokensaku.mhlw.go.jp/26/index.php?action_kouhyou_detail_004_kani=true&JigyosyoCd=2670200894-00&ServiceCd=210&Type=search", "url2": "https://www.kyoto-fukushi.org/office/detail/oga/" }, "geometry": { "type": "Point", "coordinates": [ 135.753651048410035, 35.02894734769805 ] } },
{ "type": "Feature", "properties": { "内容": "特別養護老人ホーム　西陣憩いの郷【短期入所生活介護】京都市上京区桐木町885番1", "url": "https://www.kaigokensaku.mhlw.go.jp/26/index.php?action_kouhyou_detail_004_kani=true&JigyosyoCd=2670200498-00&ServiceCd=210&Type=search", "url2": "http://nishijin.kitano-kenjukai.or.jp/" }, "geometry": { "type": "Point", "coordinates": [ 135.7424254, 35.0317369 ] } },
{ "type": "Feature", "properties": { "内容": "地域密着型介護老人福祉施設　花友はなせ【短期入所生活介護】京都市左京区花脊別所町878番地", "url": "https://www.kaigokensaku.mhlw.go.jp/26/index.php?action_kouhyou_detail_004_kani=true&JigyosyoCd=2670601281-00&ServiceCd=210&Type=search", "url2": "http://www.itihara.or.jp/" }, "geometry": { "type": "Point", "coordinates": [ 135.784070499999984, 35.1760463 ] } },
{ "type": "Feature", "properties": { "内容": "花友しらかわショートステイ【短期入所生活介護】京都府京都市左京区浄土寺真如町155-3", "url": "https://www.kaigokensaku.mhlw.go.jp/26/index.php?action_kouhyou_detail_004_kani=true&JigyosyoCd=2670600267-00&ServiceCd=210&Type=search", "url2": "http://www.itihara.or.jp" }, "geometry": { "type": "Point", "coordinates": [ 135.791711847221308, 35.020499880112482 ] } },
{ "type": "Feature", "properties": { "内容": "短期入所生活介護事業所　洛翠園【短期入所生活介護】京都市左京区岩倉村松町203117号室（1･2）、121号室（1･2･3･4）、122号室（1･2）", "url": "https://www.kaigokensaku.mhlw.go.jp/26/index.php?action_kouhyou_detail_004_kani=true&JigyosyoCd=2670600283-00&ServiceCd=210&Type=search", "url2": null }, "geometry": { "type": "Point", "coordinates": [ 135.781655099999966, 35.088414 ] } },
{ "type": "Feature", "properties": { "内容": "特別養護老人ホーム　静原寮【短期入所生活介護】静市静原町582番地の1", "url": "https://www.kaigokensaku.mhlw.go.jp/26/index.php?action_kouhyou_detail_004_kani=true&JigyosyoCd=2670600150-00&ServiceCd=210&Type=search", "url2": "https://www.shizuhararyo.com" }, "geometry": { "type": "Point", "coordinates": [ 135.7832881, 35.1071702 ] } },
{ "type": "Feature", "properties": { "内容": "市原ショートステイ【短期入所生活介護】京都府京都市左京区静市市原町1278番地", "url": "https://www.kaigokensaku.mhlw.go.jp/26/index.php?action_kouhyou_detail_004_kani=true&JigyosyoCd=2670600010-00&ServiceCd=210&Type=search", "url2": "http://www.itihara.or.jp/" }, "geometry": { "type": "Point", "coordinates": [ 135.761518, 35.0906859 ] } },
{ "type": "Feature", "properties": { "内容": "特別養護老人ホーム大原ホーム【短期入所生活介護】京都市左京区大原戸寺町380", "url": "https://www.kaigokensaku.mhlw.go.jp/26/index.php?action_kouhyou_detail_004_kani=true&JigyosyoCd=2670600051-00&ServiceCd=210&Type=search", "url2": "http://www.kyotoohara.jp/" }, "geometry": { "type": "Point", "coordinates": [ 135.822444899999937, 35.1046547 ] } },
{ "type": "Feature", "properties": { "内容": "サテライト特養　ユニティ長谷【短期入所生活介護】京都市左京区岩倉長谷町1648番地", "url": "https://www.kaigokensaku.mhlw.go.jp/26/index.php?action_kouhyou_detail_004_kani=true&JigyosyoCd=2670600747-00&ServiceCd=210&Type=search", "url2": "http://unitynagatani8007.web.fc2.com/" }, "geometry": { "type": "Point", "coordinates": [ 135.790623699999969, 35.0809455 ] } },
{ "type": "Feature", "properties": { "内容": "特別養護老人ホーム　バプテスト・ホーム【短期入所生活介護】京都市左京区北白川山ノ元町47-2", "url": "https://www.kaigokensaku.mhlw.go.jp/26/index.php?action_kouhyou_detail_004_kani=true&JigyosyoCd=2670600101-00&ServiceCd=210&Type=search", "url2": "http://www.baptist-megumikai.com" }, "geometry": { "type": "Point", "coordinates": [ 135.796012900000051, 35.0345399 ] } },
{ "type": "Feature", "properties": { "内容": "京都壬生ケアセンターそよ風ショートステイ【短期入所生活介護】壬生天池町23-1", "url": "https://www.kaigokensaku.mhlw.go.jp/26/index.php?action_kouhyou_detail_004_kani=true&JigyosyoCd=2670300926-00&ServiceCd=210&Type=search", "url2": "https://corp.sykz.co.jp/" }, "geometry": { "type": "Point", "coordinates": [ 135.739854199999968, 35.0067308 ] } },
{ "type": "Feature", "properties": { "内容": "壬生老人ホーム(短期入所生活介護）【短期入所生活介護】京都市中京区壬生梛ノ宮町２７", "url": "https://www.kaigokensaku.mhlw.go.jp/26/index.php?action_kouhyou_detail_004_kani=true&JigyosyoCd=2670300025-00&ServiceCd=210&Type=search", "url2": "http://www.mibuhomu.com/" }, "geometry": { "type": "Point", "coordinates": [ 135.744028899999989, 35.0013536 ] } },
{ "type": "Feature", "properties": { "内容": "短期入所生活介護事業所ライトハウス朱雀【短期入所生活介護】京都市中京区西ノ京新建町３高齢者総合福祉センター　ライトハウス朱雀", "url": "https://www.kaigokensaku.mhlw.go.jp/26/index.php?action_kouhyou_detail_004_kani=true&JigyosyoCd=2670301056-00&ServiceCd=210&Type=search", "url2": "http://www.kyoto-lighthouse.or.jp/" }, "geometry": { "type": "Point", "coordinates": [ 135.732458834684763, 35.009151290639352 ] } },
{ "type": "Feature", "properties": { "内容": "京都市本能特別養護老人ホーム【短期入所生活介護】京都市中京区蛸薬師通油小路東入元本能寺南町346番地", "url": "https://www.kaigokensaku.mhlw.go.jp/26/index.php?action_kouhyou_detail_004_kani=true&JigyosyoCd=2670300553-00&ServiceCd=210&Type=search", "url2": "https://www.kyoto-fukushi.org/" }, "geometry": { "type": "Point", "coordinates": [ 135.75382529206891, 35.005995141759229 ] } },
{ "type": "Feature", "properties": { "内容": "洛東園ショートステイ【短期入所生活介護】京都府京都市東山区本町15丁目794番地", "url": "https://www.kaigokensaku.mhlw.go.jp/26/index.php?action_kouhyou_detail_004_kani=true&JigyosyoCd=2670800032-00&ServiceCd=210&Type=search", "url2": "http://www.wf-rakutouen.com" }, "geometry": { "type": "Point", "coordinates": [ 135.7731652, 34.9798535 ] } },
{ "type": "Feature", "properties": { "内容": "修道洛東園ショートステイ【短期入所生活介護】京都府京都市東山区渋谷通本町東入三丁目上新シ町358番地", "url": "https://www.kaigokensaku.mhlw.go.jp/26/index.php?action_kouhyou_detail_004_kani=true&JigyosyoCd=2670800271-00&ServiceCd=210&Type=search", "url2": "http://www.wf-rakutouen.com" }, "geometry": { "type": "Point", "coordinates": [ 135.773372360357598, 34.993862059044872 ] } },
{ "type": "Feature", "properties": { "内容": "社会福祉法人京都育和会　地域密着型特別養護老人ホームﾚｯﾄ･ｲｯﾄ･ﾋﾞｰ【短期入所生活介護】京都府京都市東山区本町20丁目441番1", "url": "https://www.kaigokensaku.mhlw.go.jp/26/index.php?action_kouhyou_detail_004_kani=true&JigyosyoCd=2670800412-00&ServiceCd=210&Type=search", "url2": "http://kyotoikuwakai.jp" }, "geometry": { "type": "Point", "coordinates": [ 135.770679399336245, 34.972890353896311 ] } },
{ "type": "Feature", "properties": { "内容": "特別養護老人ホーム京・みやこ【短期入所生活介護】西七条八幡町31", "url": "https://www.kaigokensaku.mhlw.go.jp/26/index.php?action_kouhyou_detail_004_kani=true&JigyosyoCd=2670401286-00&ServiceCd=210&Type=search", "url2": "https://yamabikokai-kyoto.com" }, "geometry": { "type": "Point", "coordinates": [ 135.729615, 34.9923342 ] } },
{ "type": "Feature", "properties": { "内容": "京都五条ひまわりの郷　ショートステイ【短期入所生活介護】京都府京都市下京区中堂寺前田町２６番地", "url": "https://www.kaigokensaku.mhlw.go.jp/26/index.php?action_kouhyou_detail_004_kani=true&JigyosyoCd=2670400932-00&ServiceCd=210&Type=search", "url2": "http://www.shinseifukushikai.jp/himawari/" }, "geometry": { "type": "Point", "coordinates": [ 135.746253700000011, 34.9943876 ] } },
{ "type": "Feature", "properties": { "内容": "特別養護老人ホーム西七条【短期入所生活介護】京都市下京区西七条八幡町29番地", "url": "https://www.kaigokensaku.mhlw.go.jp/26/index.php?action_kouhyou_detail_004_kani=true&JigyosyoCd=2670400205-00&ServiceCd=210&Type=search", "url2": null }, "geometry": { "type": "Point", "coordinates": [ 135.728960799999982, 34.9924401 ] } },
{ "type": "Feature", "properties": { "内容": "京都市修徳特別養護老人ホーム【短期入所生活介護】京都市下京区新町通松原下る富永町110番地の1", "url": "https://www.kaigokensaku.mhlw.go.jp/26/index.php?action_kouhyou_detail_004_kani=true&JigyosyoCd=2670400296-00&ServiceCd=210&Type=search", "url2": "http://www.kyoto-fukushi.org/" }, "geometry": { "type": "Point", "coordinates": [ 135.7555334, 34.9876552 ] } },
{ "type": "Feature", "properties": { "内容": "京都市菊浜特別養護老人ホーム【短期入所生活介護】京都府京都市下京区西木屋町通上ノ口上る梅湊町83番地1ひとまち交流館京都4・5階", "url": "https://www.kaigokensaku.mhlw.go.jp/26/index.php?action_kouhyou_detail_004_kani=true&JigyosyoCd=2670401302-00&ServiceCd=210&Type=search", "url2": "http://www.wf-rakutouen.com" }, "geometry": { "type": "Point", "coordinates": [ 135.7651265, 34.9931917 ] } },
{ "type": "Feature", "properties": { "内容": "ショートステイ　故郷の家・京都【短期入所生活介護】京都市南区東九条南松ノ木町47", "url": "https://www.kaigokensaku.mhlw.go.jp/26/index.php?action_kouhyou_detail_004_kani=true&JigyosyoCd=2670500442-00&ServiceCd=210&Type=search", "url2": "http://www.kokorono.or.jp" }, "geometry": { "type": "Point", "coordinates": [ 135.76645469999994, 34.9767675 ] } },
{ "type": "Feature", "properties": { "内容": "特別養護老人ホーム塔南の園【短期入所生活介護】京都市南区西九条菅田町4番地の2総合福祉施設　塔南の園", "url": "https://www.kaigokensaku.mhlw.go.jp/26/index.php?action_kouhyou_detail_004_kani=true&JigyosyoCd=2670500046-00&ServiceCd=210&Type=search", "url2": "https://www.kyoto-fukushi.org/" }, "geometry": { "type": "Point", "coordinates": [ 135.746873100000016, 34.9740395 ] } },
{ "type": "Feature", "properties": { "内容": "東九条のぞみショートステイ【短期入所生活介護】京都市南区東九条西岩本町1-1", "url": "https://www.kaigokensaku.mhlw.go.jp/26/index.php?action_kouhyou_detail_004_kani=true&JigyosyoCd=2670500061-00&ServiceCd=210&Type=search", "url2": "https://www.nozominosono.net/" }, "geometry": { "type": "Point", "coordinates": [ 135.76306610000006, 34.9821308 ] } },
{ "type": "Feature", "properties": { "内容": "京都市久世特別養護老人ホーム【短期入所生活介護】京都市南区久世築山町328", "url": "https://www.kaigokensaku.mhlw.go.jp/26/index.php?action_kouhyou_detail_004_kani=true&JigyosyoCd=2670500012-00&ServiceCd=210&Type=search", "url2": "http://www.seiwaen.or.jp" }, "geometry": { "type": "Point", "coordinates": [ 135.724194200000056, 34.9585683 ] } },
{ "type": "Feature", "properties": { "内容": "特別養護老人ホームビハーラ十条【短期入所生活介護】京都市南区吉祥院南落合町40-4", "url": "https://www.kaigokensaku.mhlw.go.jp/26/index.php?action_kouhyou_detail_004_kani=true&JigyosyoCd=2670500350-00&ServiceCd=210&Type=search", "url2": "http://www.vhr10.jp" }, "geometry": { "type": "Point", "coordinates": [ 135.740859799999953, 34.9729783 ] } },
{ "type": "Feature", "properties": { "内容": "鳥羽ホームショートステイ【短期入所生活介護】京都府京都市南区上鳥羽堀子町88番地", "url": "https://www.kaigokensaku.mhlw.go.jp/26/index.php?action_kouhyou_detail_004_kani=true&JigyosyoCd=2670500996-00&ServiceCd=210&Type=search", "url2": "http://www.seiwaen.or.jp/" }, "geometry": { "type": "Point", "coordinates": [ 138.252924, 36.204824 ] } },
{ "type": "Feature", "properties": { "内容": "吉祥ホーム短期入所生活介護事業所【短期入所生活介護】京都市南区吉祥院石原橋上1-4", "url": "https://www.kaigokensaku.mhlw.go.jp/26/index.php?action_kouhyou_detail_004_kani=true&JigyosyoCd=2670500020-00&ServiceCd=210&Type=search", "url2": "http://www.seiwaen.or.jp" }, "geometry": { "type": "Point", "coordinates": [ 135.723936200000026, 34.968156 ] } },
{ "type": "Feature", "properties": { "内容": "介護老人福祉施設　花友にしこうじ【短期入所生活介護】京都府京都市右京区西京極南庄境町6", "url": "https://www.kaigokensaku.mhlw.go.jp/26/index.php?action_kouhyou_detail_004_kani=true&JigyosyoCd=2670700398-00&ServiceCd=210&Type=search", "url2": "http://www.itihara.or.jp/" }, "geometry": { "type": "Point", "coordinates": [ 135.726052699999968, 34.99159 ] } },
{ "type": "Feature", "properties": { "内容": "特別養護老人ホーム　はなぞの【短期入所生活介護】京都市右京区花園鷹司町１番１", "url": "https://www.kaigokensaku.mhlw.go.jp/26/index.php?action_kouhyou_detail_004_kani=true&JigyosyoCd=2670700703-00&ServiceCd=210&Type=search", "url2": "http://ｗｗｗ.kenkouen.ｊｐ" }, "geometry": { "type": "Point", "coordinates": [ 135.725191099999961, 35.025212 ] } },
{ "type": "Feature", "properties": { "内容": "短期入所生活介護事業所　しゅうざん【短期入所生活介護】京北周山町馬場瀬１０番の4", "url": "https://www.kaigokensaku.mhlw.go.jp/26/index.php?action_kouhyou_detail_004_kani=true&JigyosyoCd=2670701370-00&ServiceCd=210&Type=search", "url2": "http://www.hokusoukai.com" }, "geometry": { "type": "Point", "coordinates": [ 135.633197, 35.1572742 ] } },
{ "type": "Feature", "properties": { "内容": "嵐山寮短期入所生活介護事業ひろさわ【短期入所生活介護】右京区嵯峨広沢南野町26-2CあんどC嵯峨", "url": "https://www.kaigokensaku.mhlw.go.jp/26/index.php?action_kouhyou_detail_004_kani=true&JigyosyoCd=2670701040-00&ServiceCd=210&Type=search", "url2": "http://www.arashiyamaryo.or.jp/" }, "geometry": { "type": "Point", "coordinates": [ 135.693016299999954, 35.021878900000011 ] } },
{ "type": "Feature", "properties": { "内容": "嵐山寮短期入所生活介護事業【短期入所生活介護】京都市右京区嵯峨天龍寺北造路町17番地", "url": "https://www.kaigokensaku.mhlw.go.jp/26/index.php?action_kouhyou_detail_004_kani=true&JigyosyoCd=2670700059-00&ServiceCd=210&Type=search", "url2": "http://www.arashiyamaryo.or.jp" }, "geometry": { "type": "Point", "coordinates": [ 135.677838328770804, 35.016606238867205 ] } },
{ "type": "Feature", "properties": { "内容": "うずまさ共生の郷　ショートステイ【短期入所生活介護】京都府京都市右京区太秦蜂岡町31番", "url": "https://www.kaigokensaku.mhlw.go.jp/26/index.php?action_kouhyou_detail_004_kani=true&JigyosyoCd=2670701891-00&ServiceCd=210&Type=search", "url2": "https://shimei-f.net" }, "geometry": { "type": "Point", "coordinates": [ 135.706779326458701, 35.013953934387601 ] } },
{ "type": "Feature", "properties": { "内容": "嵐山寮短期入所生活介護事業うたの【短期入所生活介護】京都市右京区太秦中山町１５番地", "url": "https://www.kaigokensaku.mhlw.go.jp/26/index.php?action_kouhyou_detail_004_kani=true&JigyosyoCd=2670701057-00&ServiceCd=210&Type=search", "url2": "http://www.arashiyamaryo.or.jp" }, "geometry": { "type": "Point", "coordinates": [ 135.701446, 35.0258146 ] } },
{ "type": "Feature", "properties": { "内容": "健光園あらしやまショートステイ【短期入所生活介護】京都市右京区嵯峨柳田町36-5", "url": "https://www.kaigokensaku.mhlw.go.jp/26/index.php?action_kouhyou_detail_004_kani=true&JigyosyoCd=2660790052-00&ServiceCd=210&Type=search", "url2": "http://www.kenkouen.jp/" }, "geometry": { "type": "Point", "coordinates": [ 135.687539199999947, 35.0121353 ] } },
{ "type": "Feature", "properties": { "内容": "（福）富士園　特別養護老人ホーム　梅津富士園【短期入所生活介護】京都市右京区梅津尻溝町２８番地", "url": "https://www.kaigokensaku.mhlw.go.jp/26/index.php?action_kouhyou_detail_004_kani=true&JigyosyoCd=2670700026-00&ServiceCd=210&Type=search", "url2": "http://www.fujien.jp" }, "geometry": { "type": "Point", "coordinates": [ 135.693858399999954, 35.0012196 ] } },
{ "type": "Feature", "properties": { "内容": "アムールうずまさ短期入所生活介護事業【短期入所生活介護】京都府京都市右京区太秦一ノ井町39番地8", "url": "https://www.kaigokensaku.mhlw.go.jp/26/index.php?action_kouhyou_detail_004_kani=true&JigyosyoCd=2670700042-00&ServiceCd=210&Type=search", "url2": "https://nanasekai.or,jp" }, "geometry": { "type": "Point", "coordinates": [ 135.710353700000041, 35.017757 ] } },
{ "type": "Feature", "properties": { "内容": "短期入所生活介護　豊和園【短期入所生活介護】京都府京都市右京区京北上中町宮ノ下22番地", "url": "https://www.kaigokensaku.mhlw.go.jp/26/index.php?action_kouhyou_detail_004_kani=true&JigyosyoCd=2670700463-00&ServiceCd=210&Type=search", "url2": "http://www.hokusoukai.com" }, "geometry": { "type": "Point", "coordinates": [ 135.636939535581973, 35.202363117482058 ] } },
{ "type": "Feature", "properties": { "内容": "メルシーうずまさ短期入所生活介護事業所【短期入所生活介護】京都府京都市右京区太秦一ノ井町41番地", "url": "https://www.kaigokensaku.mhlw.go.jp/26/index.php?action_kouhyou_detail_004_kani=true&JigyosyoCd=2670701164-00&ServiceCd=210&Type=search", "url2": "www.nanasekai.or.jp" }, "geometry": { "type": "Point", "coordinates": [ 135.711075899999969, 35.0170765 ] } },
{ "type": "Feature", "properties": { "内容": "ハートフルトポス　ベテスダ（アドナイ・イルエ館）【短期入所生活介護】梅ケ畑高鼻町１９番地１", "url": "https://www.kaigokensaku.mhlw.go.jp/26/index.php?action_kouhyou_detail_004_kani=true&JigyosyoCd=2670703160-00&ServiceCd=210&Type=search", "url2": "https://www.heartfultopos.com/index.html" }, "geometry": { "type": "Point", "coordinates": [ 135.6979981, 35.0354917 ] } },
{ "type": "Feature", "properties": { "内容": "社会福祉法人悠久会　短期入所生活介護施設　ひかる苑【短期入所生活介護】醍醐川久保町18番地1", "url": "https://www.kaigokensaku.mhlw.go.jp/26/index.php?action_kouhyou_detail_004_kani=true&JigyosyoCd=2670917547-00&ServiceCd=210&Type=search", "url2": "https://yukyukai-hikaruen.or.jp" }, "geometry": { "type": "Point", "coordinates": [ 135.812335911114474, 34.954410801048923 ] } },
{ "type": "Feature", "properties": { "内容": "特別養護老人ホーム　淀の里【短期入所生活介護】京都市伏見区淀美豆町1055", "url": "https://www.kaigokensaku.mhlw.go.jp/26/index.php?action_kouhyou_detail_004_kani=true&JigyosyoCd=2670900436-00&ServiceCd=210&Type=search", "url2": "http://yodosato.life.coocan.jp/" }, "geometry": { "type": "Point", "coordinates": [ 135.712252799999987, 34.8976555 ] } },
{ "type": "Feature", "properties": { "内容": "ショートステイ京都指月あさがおの郷1号館【短期入所生活介護】京都府京都市伏見区常盤町40番3", "url": "https://www.kaigokensaku.mhlw.go.jp/26/index.php?action_kouhyou_detail_004_kani=true&JigyosyoCd=2670917539-00&ServiceCd=210&Type=search", "url2": "http://shinseifukushikai.jp/shigetsu/" }, "geometry": { "type": "Point", "coordinates": [ 135.768457784655766, 34.930616170292048 ] } },
{ "type": "Feature", "properties": { "内容": "同和園短期入所事業【短期入所生活介護】京都市伏見区醍醐上ノ山町11番地", "url": "https://www.kaigokensaku.mhlw.go.jp/26/index.php?action_kouhyou_detail_004_kani=true&JigyosyoCd=2670900188-00&ServiceCd=210&Type=search", "url2": "https://www.dowaen.jp/" }, "geometry": { "type": "Point", "coordinates": [ 135.814199499999972, 34.9569625 ] } },
{ "type": "Feature", "properties": { "内容": "ショートステイみやびのその【短期入所生活介護】京都市伏見区深草泓ノ壺町35-1", "url": "https://www.kaigokensaku.mhlw.go.jp/26/index.php?action_kouhyou_detail_004_kani=true&JigyosyoCd=2670900162-00&ServiceCd=210&Type=search", "url2": "https://www.fujinokai.jp" }, "geometry": { "type": "Point", "coordinates": [ 135.7598074, 34.9491699 ] } },
{ "type": "Feature", "properties": { "内容": "医療法人高生会ショートステイだてまち【短期入所生活介護】京都府京都市伏見区深草東伊達町46番地", "url": "https://www.kaigokensaku.mhlw.go.jp/26/index.php?action_kouhyou_detail_004_kani=true&JigyosyoCd=2670916952-00&ServiceCd=210&Type=search", "url2": "kouseikaissd@i-kouseikai.com" }, "geometry": { "type": "Point", "coordinates": [ 135.778311499999973, 34.9549782 ] } },
{ "type": "Feature", "properties": { "内容": "ショートステイ洛和ヴィラ桃山【短期入所生活介護】京都府京都市伏見区桃山町大島38-528", "url": "https://www.kaigokensaku.mhlw.go.jp/26/index.php?action_kouhyou_detail_004_kani=true&JigyosyoCd=2670900022-00&ServiceCd=210&Type=search", "url2": "http://www.rakuwa.or.jp/care/momoyama/index.html" }, "geometry": { "type": "Point", "coordinates": [ 135.790532100000064, 34.9254563 ] } },
{ "type": "Feature", "properties": { "内容": "ヴィラ端山短期入所生活介護事業所【短期入所生活介護】京都市伏見区醍醐下端山町36", "url": "https://www.kaigokensaku.mhlw.go.jp/26/index.php?action_kouhyou_detail_004_kani=true&JigyosyoCd=2670900055-00&ServiceCd=210&Type=search", "url2": "https://www.villa.or.jp" }, "geometry": { "type": "Point", "coordinates": [ 135.81981559999997, 34.9478801 ] } },
{ "type": "Feature", "properties": { "内容": "ヴィラ向島ショートスティ【短期入所生活介護】京都市伏見区向島新上林町16", "url": "https://www.kaigokensaku.mhlw.go.jp/26/index.php?action_kouhyou_detail_004_kani=true&JigyosyoCd=2670900121-00&ServiceCd=210&Type=search", "url2": "http://www.mukaijima.jp" }, "geometry": { "type": "Point", "coordinates": [ 135.763473400000066, 34.9156207 ] } },
{ "type": "Feature", "properties": { "内容": "京都老人ホーム　ショートステイ【短期入所生活介護】京都市伏見区深草大亀谷東古御香町59番地・60番合地", "url": "https://www.kaigokensaku.mhlw.go.jp/26/index.php?action_kouhyou_detail_004_kani=true&JigyosyoCd=2670900139-00&ServiceCd=210&Type=search", "url2": "http://www.kyoro.or.jp" }, "geometry": { "type": "Point", "coordinates": [ 135.7869048, 34.9432184 ] } },
{ "type": "Feature", "properties": { "内容": "レーベン横大路　ショートステイ【短期入所生活介護】横大路鍬ノ本35", "url": "https://www.kaigokensaku.mhlw.go.jp/26/index.php?action_kouhyou_detail_004_kani=true&JigyosyoCd=2670901491-00&ServiceCd=210&Type=search", "url2": "http://www.mukaijima.jp/yokoouji/yokoouji.html" }, "geometry": { "type": "Point", "coordinates": [ 135.740108599999985, 34.9241029 ] } },
{ "type": "Feature", "properties": { "内容": "ショートステイセンター向島美郷【短期入所生活介護】京都府京都市伏見区向島清水町189-1高齢者複合施設向島美郷", "url": "https://www.kaigokensaku.mhlw.go.jp/26/index.php?action_kouhyou_detail_004_kani=true&JigyosyoCd=2670917240-00&ServiceCd=210&Type=search", "url2": "http://www.misugikai.jp/mukaijimamisato/index.html" }, "geometry": { "type": "Point", "coordinates": [ 135.784255851559465, 34.916818445682864 ] } },
{ "type": "Feature", "properties": { "内容": "せんしゅんかいショートステイ指月【短期入所生活介護】京都府京都市伏見区桃山与五郎町1-589", "url": "https://www.kaigokensaku.mhlw.go.jp/26/index.php?action_kouhyou_detail_004_kani=true&JigyosyoCd=2650980135-00&ServiceCd=210&Type=search", "url2": "http://www.senshunkai.or.jp/" }, "geometry": { "type": "Point", "coordinates": [ 138.252924, 36.204824 ] } },
{ "type": "Feature", "properties": { "内容": "老人短期入所生活介護【短期入所生活介護】京都市伏見区下鳥羽但馬町150番地", "url": "https://www.kaigokensaku.mhlw.go.jp/26/index.php?action_kouhyou_detail_004_kani=true&JigyosyoCd=2670900113-00&ServiceCd=210&Type=search", "url2": "http://www.soseien.jp" }, "geometry": { "type": "Point", "coordinates": [ 135.750074600000062, 34.9320548 ] } },
{ "type": "Feature", "properties": { "内容": "春日丘センターショートステイ【短期入所生活介護】京都市伏見区醍醐辰巳町12-1", "url": "https://www.kaigokensaku.mhlw.go.jp/26/index.php?action_kouhyou_detail_004_kani=true&JigyosyoCd=2670900147-00&ServiceCd=210&Type=search", "url2": "http://www.kyoro.or.jp" }, "geometry": { "type": "Point", "coordinates": [ 135.813999400000057, 34.9409084 ] } },
{ "type": "Feature", "properties": { "内容": "京都市東高瀬川センターショートステイ【短期入所生活介護】京都市伏見区北端町44-7", "url": "https://www.kaigokensaku.mhlw.go.jp/26/index.php?action_kouhyou_detail_004_kani=true&JigyosyoCd=2670900154-00&ServiceCd=210&Type=search", "url2": "http://www.kyoro.or.jp" }, "geometry": { "type": "Point", "coordinates": [ 135.754821600000014, 34.9453451 ] } },
{ "type": "Feature", "properties": { "内容": "ショートステイ　フジの園【短期入所生活介護】京都市伏見区深草泓ノ壺町37－1", "url": "https://www.kaigokensaku.mhlw.go.jp/26/index.php?action_kouhyou_detail_004_kani=true&JigyosyoCd=2670900246-00&ServiceCd=210&Type=search", "url2": "https://www.fujinokai.ne.jp" }, "geometry": { "type": "Point", "coordinates": [ 135.760382400000026, 34.9490282 ] } },
{ "type": "Feature", "properties": { "内容": "特別養護老人ホーム城南ホーム短期入所生活介護事業所【短期入所生活介護】京都市伏見区竹田中内畑町53", "url": "https://www.kaigokensaku.mhlw.go.jp/26/index.php?action_kouhyou_detail_004_kani=true&JigyosyoCd=2670900261-00&ServiceCd=210&Type=search", "url2": "http://www.seiwaen.or.jp/" }, "geometry": { "type": "Point", "coordinates": [ 135.7536609, 34.9534582 ] } },
{ "type": "Feature", "properties": { "内容": "ももやまショートステイ【短期入所生活介護】京都市伏見区桃山町立売1-6", "url": "https://www.kaigokensaku.mhlw.go.jp/26/index.php?action_kouhyou_detail_004_kani=true&JigyosyoCd=2670900444-00&ServiceCd=210&Type=search", "url2": "http://www.kenkouen.jp/" }, "geometry": { "type": "Point", "coordinates": [ 135.77078110000005, 34.932032899999989 ] } },
{ "type": "Feature", "properties": { "内容": "特別養護老人ホーム　あじさい苑【短期入所生活介護】向島二ノ丸町151番53", "url": "https://www.kaigokensaku.mhlw.go.jp/26/index.php?action_kouhyou_detail_004_kani=true&JigyosyoCd=2670900790-00&ServiceCd=210&Type=search", "url2": "http://www.ajisai-kosyokai.com" }, "geometry": { "type": "Point", "coordinates": [ 135.77642220000007, 34.9167568 ] } },
{ "type": "Feature", "properties": { "内容": "特別養護老人ホームヴィラ稲荷山【短期入所生活介護】京都市伏見区深草正覚町23番", "url": "https://www.kaigokensaku.mhlw.go.jp/26/index.php?action_kouhyou_detail_004_kani=true&JigyosyoCd=2670900899-00&ServiceCd=210&Type=search", "url2": "https://www.takedahp.or.jp/group/welfare/villa_i/index.html" }, "geometry": { "type": "Point", "coordinates": [ 135.773112399999945, 34.9733236 ] } },
{ "type": "Feature", "properties": { "内容": "日野しみずの里　ショートステイ【短期入所生活介護】京都市伏見区日野田頬町７２番地１", "url": "https://www.kaigokensaku.mhlw.go.jp/26/index.php?action_kouhyou_detail_004_kani=true&JigyosyoCd=2670901434-00&ServiceCd=210&Type=search", "url2": "https://ksmcs.jp/hs/" }, "geometry": { "type": "Point", "coordinates": [ 135.813052299999981, 34.9298899 ] } },
{ "type": "Feature", "properties": { "内容": "短期入所生活介護施設　まどか【短期入所生活介護】京都市伏見区下鳥羽南円面田町47番地介護老人福祉施設　まどか", "url": "https://www.kaigokensaku.mhlw.go.jp/26/index.php?action_kouhyou_detail_004_kani=true&JigyosyoCd=2670901541-00&ServiceCd=210&Type=search", "url2": "http://www.soseien.jp" }, "geometry": { "type": "Point", "coordinates": [ 135.740286500000025, 34.931502967218819 ] } },
{ "type": "Feature", "properties": { "内容": "ショートステイ　いずみ【短期入所生活介護】京都市伏見区淀美豆町283番地", "url": "https://www.kaigokensaku.mhlw.go.jp/26/index.php?action_kouhyou_detail_004_kani=true&JigyosyoCd=2670901574-00&ServiceCd=210&Type=search", "url2": "http://yodosato.life.coocan.jp/" }, "geometry": { "type": "Point", "coordinates": [ 135.715069, 34.8986222 ] } },
{ "type": "Feature", "properties": { "内容": "深草しみずの里　ショートステイ【短期入所生活介護】京都府京都市伏見区深草越後屋敷町17番地の5", "url": "https://www.kaigokensaku.mhlw.go.jp/26/index.php?action_kouhyou_detail_004_kani=true&JigyosyoCd=2670917232-00&ServiceCd=210&Type=search", "url2": "http://www.fushimi-shimizu.jp/" }, "geometry": { "type": "Point", "coordinates": [ 135.764585452392566, 34.949505606032673 ] } },
{ "type": "Feature", "properties": { "内容": "パナソニックエイジフリーケアセンター京都椥辻ショートステイ【短期入所生活介護】京都市山科区椥辻池尻町12番1", "url": "https://www.kaigokensaku.mhlw.go.jp/26/index.php?action_kouhyou_detail_004_kani=true&JigyosyoCd=2674101452-00&ServiceCd=210&Type=search", "url2": "https://panasonic.co.jp/es/pesaf/" }, "geometry": { "type": "Point", "coordinates": [ 135.8144218, 34.9738358 ] } },
{ "type": "Feature", "properties": { "内容": "ショートステイ山科すみれ園【短期入所生活介護】京都府京都市山科区四ノ宮芝畑町23番地1", "url": "https://www.kaigokensaku.mhlw.go.jp/26/index.php?action_kouhyou_detail_004_kani=true&JigyosyoCd=2674102104-00&ServiceCd=210&Type=search", "url2": "https://yamashina-sumire-en.com/" }, "geometry": { "type": "Point", "coordinates": [ 135.834197100000011, 34.9903483 ] } },
{ "type": "Feature", "properties": { "内容": "特別養護老人ホーム　山科積慶園【短期入所生活介護】京都市山科区北花山大林町３４番地", "url": "https://www.kaigokensaku.mhlw.go.jp/26/index.php?action_kouhyou_detail_004_kani=true&JigyosyoCd=2674100579-00&ServiceCd=210&Type=search", "url2": "http://www.sekkeien.or.jp/" }, "geometry": { "type": "Point", "coordinates": [ 135.79872649999993, 34.9820927 ] } },
{ "type": "Feature", "properties": { "内容": "特別養護老人ホーム東旺苑【短期入所生活介護】京都市山科区川田岩ヶ谷1番地の3", "url": "https://www.kaigokensaku.mhlw.go.jp/26/index.php?action_kouhyou_detail_004_kani=true&JigyosyoCd=2674100132-00&ServiceCd=210&Type=search", "url2": "https://eikoukaikyoto.jp/" }, "geometry": { "type": "Point", "coordinates": [ 135.792566099999931, 34.9809566 ] } },
{ "type": "Feature", "properties": { "内容": "特別養護老人ホーム　ヴィラ山科【短期入所生活介護】京都市山科区大宅御所田町115番地１", "url": "https://www.kaigokensaku.mhlw.go.jp/26/index.php?action_kouhyou_detail_004_kani=true&JigyosyoCd=2674100041-00&ServiceCd=210&Type=search", "url2": "http://www.takedahp.or.jp/" }, "geometry": { "type": "Point", "coordinates": [ 135.825856700000031, 34.9710253 ] } },
{ "type": "Feature", "properties": { "内容": "短期入所施設きよみず苑【短期入所生活介護】京都市山科区川田御出町29番地", "url": "https://www.kaigokensaku.mhlw.go.jp/26/index.php?action_kouhyou_detail_004_kani=true&JigyosyoCd=2674101171-00&ServiceCd=210&Type=search", "url2": "https://eikoukaikyoto.jp" }, "geometry": { "type": "Point", "coordinates": [ 135.794299571163947, 34.978172514305527 ] } },
{ "type": "Feature", "properties": { "内容": "御陵洛東園ショートステイ【短期入所生活介護】御陵岡町１番地2", "url": "https://www.kaigokensaku.mhlw.go.jp/26/index.php?action_kouhyou_detail_004_kani=true&JigyosyoCd=2674101809-00&ServiceCd=210&Type=search", "url2": "http://www.wf-rakutouen.com/" }, "geometry": { "type": "Point", "coordinates": [ 135.8027626, 34.9937736 ] } },
{ "type": "Feature", "properties": { "内容": "ショートステイ　香東園やましな【短期入所生活介護】京都市山科区西野野色町15-88", "url": "https://www.kaigokensaku.mhlw.go.jp/26/index.php?action_kouhyou_detail_004_kani=true&JigyosyoCd=2654180070-00&ServiceCd=210&Type=search", "url2": "http://www.koutouen.com/yamashina/" }, "geometry": { "type": "Point", "coordinates": [ 135.8045591, 34.9856813 ] } },
{ "type": "Feature", "properties": { "内容": "老人短期入所　山科苑【短期入所生活介護】京都市山科区大塚野溝町3番地", "url": "https://www.kaigokensaku.mhlw.go.jp/26/index.php?action_kouhyou_detail_004_kani=true&JigyosyoCd=2674100025-00&ServiceCd=210&Type=search", "url2": "http://www.plala3.or.jp/ryokuju" }, "geometry": { "type": "Point", "coordinates": [ 135.8334423, 34.9833863 ] } },
{ "type": "Feature", "properties": { "内容": "長楽園短期入所生活介護事業所【短期入所生活介護】京都市山科区勧修寺仁王堂町13番地3", "url": "https://www.kaigokensaku.mhlw.go.jp/26/index.php?action_kouhyou_detail_004_kani=true&JigyosyoCd=2674100108-00&ServiceCd=210&Type=search", "url2": "http://care-netbiz/26/kanshu1985/" }, "geometry": { "type": "Point", "coordinates": [ 135.8085668, 34.9613786 ] } },
{ "type": "Feature", "properties": { "内容": "特別養護老人ホームそらの木短期入所事業所【短期入所生活介護】京都府京都市山科区大宅打明町１５番地", "url": "https://www.kaigokensaku.mhlw.go.jp/26/index.php?action_kouhyou_detail_004_kani=true&JigyosyoCd=2674100975-00&ServiceCd=210&Type=search", "url2": "http://www.toumonkai.net/" }, "geometry": { "type": "Point", "coordinates": [ 135.821389114016711, 34.973098837975321 ] } },
{ "type": "Feature", "properties": { "内容": "特別養護老人ホーム　山科積慶園【短期入所生活介護】京都府京都市山科区北花山大林町３４番地", "url": "https://www.kaigokensaku.mhlw.go.jp/26/index.php?action_kouhyou_detail_004_kani=true&JigyosyoCd=2674102211-00&ServiceCd=210&Type=search", "url2": "http://yamashinasekkeien.com/" }, "geometry": { "type": "Point", "coordinates": [ 135.798684512008435, 34.981789558247435 ] } },
{ "type": "Feature", "properties": { "内容": "特別養護老人ホーム　京都厚生園【短期入所生活介護】京都市西京区山田平尾町46番地", "url": "https://www.kaigokensaku.mhlw.go.jp/26/index.php?action_kouhyou_detail_004_kani=true&JigyosyoCd=2674000035-00&ServiceCd=210&Type=search", "url2": "http://www.kyotokouseien.com" }, "geometry": { "type": "Point", "coordinates": [ 135.684536900000012, 34.9823852 ] } },
{ "type": "Feature", "properties": { "内容": "桂まほろばテラスショートステイ【短期入所生活介護】下津林南大般若町1番地", "url": "https://www.kaigokensaku.mhlw.go.jp/26/index.php?action_kouhyou_detail_004_kani=true&JigyosyoCd=2674001371-00&ServiceCd=210&Type=search", "url2": "https://ooharanofukushikai.com/" }, "geometry": { "type": "Point", "coordinates": [ 135.711615292682467, 34.974876810291654 ] } },
{ "type": "Feature", "properties": { "内容": "短期入所生活介護西山寮【短期入所生活介護】京都市西京区大原野石作町256番地1", "url": "https://www.kaigokensaku.mhlw.go.jp/26/index.php?action_kouhyou_detail_004_kani=true&JigyosyoCd=2674000084-00&ServiceCd=210&Type=search", "url2": "https://seizanryo.jp/" }, "geometry": { "type": "Point", "coordinates": [ 135.65354160000004, 34.9503986 ] } },
{ "type": "Feature", "properties": { "内容": "まほろば短期入所生活介護事業所【短期入所生活介護】京都市西京区大原野上羽町39-1", "url": "https://www.kaigokensaku.mhlw.go.jp/26/index.php?action_kouhyou_detail_004_kani=true&JigyosyoCd=2674000027-00&ServiceCd=210&Type=search", "url2": "https://ooharanofukushikai.com/" }, "geometry": { "type": "Point", "coordinates": [ 135.674562199999968, 34.9527765 ] } },
{ "type": "Feature", "properties": { "内容": "京都市桂川特別養護老人ホーム【短期入所生活介護】京都市西京区下津林東大般若町32番地", "url": "https://www.kaigokensaku.mhlw.go.jp/26/index.php?action_kouhyou_detail_004_kani=true&JigyosyoCd=2674000050-00&ServiceCd=210&Type=search", "url2": "http://www.katsuragawaen.com/" }, "geometry": { "type": "Point", "coordinates": [ 135.713906599999973, 34.9760774 ] } },
{ "type": "Feature", "properties": { "内容": "特別養護老人ホーム沓掛寮【短期入所生活介護】京都府京都市西京区大枝北沓掛町1丁目2番地", "url": "https://www.kaigokensaku.mhlw.go.jp/26/index.php?action_kouhyou_detail_004_kani=true&JigyosyoCd=2674000076-00&ServiceCd=210&Type=search", "url2": "https://rakufuku.jp" }, "geometry": { "type": "Point", "coordinates": [ 135.654410399999961, 34.9883291 ] } },
{ "type": "Feature", "properties": { "内容": "ショートステイシオンの里【短期入所生活介護】京都市西京区樫原秤谷21-2", "url": "https://www.kaigokensaku.mhlw.go.jp/26/index.php?action_kouhyou_detail_004_kani=true&JigyosyoCd=2674000191-00&ServiceCd=210&Type=search", "url2": "http://zion1205.com" }, "geometry": { "type": "Point", "coordinates": [ 135.68330370000001, 34.9706446 ] } },
{ "type": "Feature", "properties": { "内容": "京都桂ケアセンターそよ風【短期入所生活介護】御陵塚ノ越町24-1", "url": "https://www.kaigokensaku.mhlw.go.jp/26/index.php?action_kouhyou_detail_004_kani=true&JigyosyoCd=2674000910-00&ServiceCd=210&Type=search", "url2": "https://corp.sykz.co.jp/" }, "geometry": { "type": "Point", "coordinates": [ 135.688900083189452, 34.978331214140361 ] } },
{ "type": "Feature", "properties": { "内容": "三頂福祉会　特別養護老人ホーム上桂　ショートステイ【短期入所生活介護】京都府京都市西京区上桂西居町33番地", "url": "https://www.kaigokensaku.mhlw.go.jp/26/index.php?action_kouhyou_detail_004_kani=true&JigyosyoCd=2674000936-00&ServiceCd=210&Type=search", "url2": null }, "geometry": { "type": "Point", "coordinates": [ 135.698719100000062, 34.9901956 ] } },
{ "type": "Feature", "properties": { "内容": "短期入所生活介護事業所くつかけ七彩の家【短期入所生活介護】京都府京都市西京区大枝北沓掛町一丁目３番地１", "url": "https://www.kaigokensaku.mhlw.go.jp/26/index.php?action_kouhyou_detail_004_kani=true&JigyosyoCd=2674001132-00&ServiceCd=210&Type=search", "url2": "https://rakufuku.jp" }, "geometry": { "type": "Point", "coordinates": [ 135.655002807934579, 34.98824864483322 ] } },
{ "type": "Feature", "properties": { "内容": "ショートステイセンター大枝美郷【短期入所生活介護】大枝西長町１２番地２５", "url": "https://www.kaigokensaku.mhlw.go.jp/26/index.php?action_kouhyou_detail_004_kani=true&JigyosyoCd=2674001512-00&ServiceCd=210&Type=search", "url2": "http://www.misugikai.jp/ooemisato/index.html" }, "geometry": { "type": "Point", "coordinates": [ 135.665738299999987, 34.9735434 ] } },
{ "type": "Feature", "properties": { "内容": "ショートステイ　ソラスト離宮【短期入所生活介護】京都府京都市西京区下津林南大般若町120", "url": "https://www.kaigokensaku.mhlw.go.jp/26/index.php?action_kouhyou_detail_004_kani=true&JigyosyoCd=2674001504-00&ServiceCd=210&Type=search", "url2": "https://solasto-kaigo.com/" }, "geometry": { "type": "Point", "coordinates": [ 135.711372186508214, 34.973579194824694 ] } },
{ "type": "Feature", "properties": { "内容": "ショートステイきらら【短期入所生活介護】京都府福知山市字行積141番地高齢者生活支援施設きらら", "url": "https://www.kaigokensaku.mhlw.go.jp/26/index.php?action_kouhyou_detail_004_kani=true&JigyosyoCd=2672600646-00&ServiceCd=210&Type=search", "url2": "http://www.isuzukai.org/" }, "geometry": { "type": "Point", "coordinates": [ 135.087161599999945, 35.3985735 ] } },
{ "type": "Feature", "properties": { "内容": "岩戸ホーム【短期入所生活介護】京都府福知山市字猪野々31-1", "url": "https://www.kaigokensaku.mhlw.go.jp/26/index.php?action_kouhyou_detail_004_kani=true&JigyosyoCd=2672600083-00&ServiceCd=210&Type=search", "url2": "http://www.iwato-home.jp/" }, "geometry": { "type": "Point", "coordinates": [ 135.043047900000033, 35.3280343 ] } },
{ "type": "Feature", "properties": { "内容": "三愛荘短期入所生活介護事業所【短期入所生活介護】京都府福知山市字猪崎25-1", "url": "https://www.kaigokensaku.mhlw.go.jp/26/index.php?action_kouhyou_detail_004_kani=true&JigyosyoCd=2672600109-00&ServiceCd=210&Type=search", "url2": "http://www.mitsumi.or.jp/" }, "geometry": { "type": "Point", "coordinates": [ 135.142555937434366, 35.307793460881804 ] } },
{ "type": "Feature", "properties": { "内容": "特別養護老人ホームみわの里短期入所【短期入所生活介護】福知山市三和町友渕小字大原野79番地132", "url": "https://www.kaigokensaku.mhlw.go.jp/26/index.php?action_kouhyou_detail_004_kani=true&JigyosyoCd=2671900252-00&ServiceCd=210&Type=search", "url2": null }, "geometry": { "type": "Point", "coordinates": [ 135.27059070416874, 35.183483308607443 ] } },
{ "type": "Feature", "properties": { "内容": "サンヒルズ紫豊館【短期入所生活介護】京都府福知山市字榎原小字平180番地の2", "url": "https://www.kaigokensaku.mhlw.go.jp/26/index.php?action_kouhyou_detail_004_kani=true&JigyosyoCd=2672600075-00&ServiceCd=210&Type=search", "url2": "https://swc-seikouen.jp/shihoukan/" }, "geometry": { "type": "Point", "coordinates": [ 135.062677945683276, 35.287334313537464 ] } },
{ "type": "Feature", "properties": { "内容": "にれの木園ショートステイ【短期入所生活介護】福知山市字天田小字大塚14番地の2", "url": "https://www.kaigokensaku.mhlw.go.jp/26/index.php?action_kouhyou_detail_004_kani=true&JigyosyoCd=2672600117-00&ServiceCd=210&Type=search", "url2": "http://www.skymind.jp" }, "geometry": { "type": "Point", "coordinates": [ 135.122643, 35.283398 ] } },
{ "type": "Feature", "properties": { "内容": "グリーンビラ夜久野【短期入所生活介護】京都府福知山市夜久野町平野1030番地", "url": "https://www.kaigokensaku.mhlw.go.jp/26/index.php?action_kouhyou_detail_004_kani=true&JigyosyoCd=2671900054-00&ServiceCd=210&Type=search", "url2": "http://www.greenvilla.kyoto.jp/" }, "geometry": { "type": "Point", "coordinates": [ 134.9356593, 35.344289 ] } },
{ "type": "Feature", "properties": { "内容": "社会福祉法人　福知山学園　地域密着型介護老人福祉施設　橘【短期入所生活介護】京都府福知山市三和町千束　８２４番地", "url": "https://www.kaigokensaku.mhlw.go.jp/26/index.php?action_kouhyou_detail_004_kani=true&JigyosyoCd=2672600539-00&ServiceCd=210&Type=search", "url2": "http://www.fukugaku.or.jp" }, "geometry": { "type": "Point", "coordinates": [ 135.231463800000029, 35.223542 ] } },
{ "type": "Feature", "properties": { "内容": "えるむショートステイ【短期入所生活介護】福知山市旭が丘92-2高齢者複合福祉施設えるむ", "url": "https://www.kaigokensaku.mhlw.go.jp/26/index.php?action_kouhyou_detail_004_kani=true&JigyosyoCd=2672600547-00&ServiceCd=210&Type=search", "url2": "http://www.skymind.jp" }, "geometry": { "type": "Point", "coordinates": [ 135.11779439999998, 35.2885927 ] } },
{ "type": "Feature", "properties": { "内容": "ショートステイ豊の郷【短期入所生活介護】京都府福知山市字大門900番地", "url": "https://www.kaigokensaku.mhlw.go.jp/26/index.php?action_kouhyou_detail_004_kani=true&JigyosyoCd=2672600448-00&ServiceCd=210&Type=search", "url2": "http://www.kibounooka.or.jp" }, "geometry": { "type": "Point", "coordinates": [ 135.078006499999987, 35.3040235 ] } },
{ "type": "Feature", "properties": { "内容": "晴風ショートステイ【短期入所生活介護】京都府福知山市大内3173－1高齢者複合福祉施設　晴風", "url": "https://www.kaigokensaku.mhlw.go.jp/26/index.php?action_kouhyou_detail_004_kani=true&JigyosyoCd=2672600422-00&ServiceCd=210&Type=search", "url2": "https://www.skymind.jp" }, "geometry": { "type": "Point", "coordinates": [ 135.174408, 35.2532543 ] } },
{ "type": "Feature", "properties": { "内容": "短期入所生活介護　ライフ・ステージ夢咲【短期入所生活介護】字引土小字河原田470番地", "url": "https://www.kaigokensaku.mhlw.go.jp/26/index.php?action_kouhyou_detail_004_kani=true&JigyosyoCd=2672700743-00&ServiceCd=210&Type=search", "url2": null }, "geometry": { "type": "Point", "coordinates": [ 135.323039, 35.4401909 ] } },
{ "type": "Feature", "properties": { "内容": "やすらぎショート【短期入所生活介護】京都府舞鶴市字安岡小字中山1076番地", "url": "https://www.kaigokensaku.mhlw.go.jp/26/index.php?action_kouhyou_detail_004_kani=true&JigyosyoCd=2672700644-00&ServiceCd=210&Type=search", "url2": "https://daijukai.jp" }, "geometry": { "type": "Point", "coordinates": [ 135.438660624853526, 35.490185866802904 ] } },
{ "type": "Feature", "properties": { "内容": "特別養護老人ホーム安寿苑【短期入所生活介護】京都府舞鶴市上安481番地", "url": "https://www.kaigokensaku.mhlw.go.jp/26/index.php?action_kouhyou_detail_004_kani=true&JigyosyoCd=2672700032-00&ServiceCd=210&Type=search", "url2": "https://maizuru-anjukai.net/" }, "geometry": { "type": "Point", "coordinates": [ 135.344651500000026, 35.455596 ] } },
{ "type": "Feature", "properties": { "内容": "グレイスヴィルまいづる【短期入所生活介護】京都府舞鶴市字布敷小字中島52-1", "url": "https://www.kaigokensaku.mhlw.go.jp/26/index.php?action_kouhyou_detail_004_kani=true&JigyosyoCd=2672700362-00&ServiceCd=210&Type=search", "url2": "https://gracemura.org/" }, "geometry": { "type": "Point", "coordinates": [ 135.385991800000056, 35.4747971 ] } },
{ "type": "Feature", "properties": { "内容": "ライフ・ステージ　舞夢【短期入所生活介護】京都府舞鶴市字桑飼上小字深田1088番地1", "url": "https://www.kaigokensaku.mhlw.go.jp/26/index.php?action_kouhyou_detail_004_kani=true&JigyosyoCd=2672700388-00&ServiceCd=210&Type=search", "url2": "http://www.maimu.jp/" }, "geometry": { "type": "Point", "coordinates": [ 135.385991800000056, 35.4747971 ] } },
{ "type": "Feature", "properties": { "内容": "特別養護老人ホーム　いこいの村梅の木寮【短期入所生活介護】綾部市十倉名畑町久瀬谷2番地", "url": "https://www.kaigokensaku.mhlw.go.jp/26/index.php?action_kouhyou_detail_004_kani=true&JigyosyoCd=2671800023-00&ServiceCd=210&Type=search", "url2": "http://www.kyoto-chogen.or.jp/ikoi/umenoki.htm" }, "geometry": { "type": "Point", "coordinates": [ 135.348437902902219, 35.338167305180477 ] } },
{ "type": "Feature", "properties": { "内容": "特別養護老人ホーム第２松寿苑【短期入所生活介護】京都府綾部市田野町田野山2-169", "url": "https://www.kaigokensaku.mhlw.go.jp/26/index.php?action_kouhyou_detail_004_kani=true&JigyosyoCd=2671800031-00&ServiceCd=210&Type=search", "url2": "http://www.asjn.jp" }, "geometry": { "type": "Point", "coordinates": [ 135.248691, 35.2870483 ] } },
{ "type": "Feature", "properties": { "内容": "特別養護老人ホーム松寿苑【短期入所生活介護】綾部市田野町田野山2番地の163", "url": "https://www.kaigokensaku.mhlw.go.jp/26/index.php?action_kouhyou_detail_004_kani=true&JigyosyoCd=2671800064-00&ServiceCd=210&Type=search", "url2": "http://www.asjn.jp" }, "geometry": { "type": "Point", "coordinates": [ 135.250232500000038, 35.2878982 ] } },
{ "type": "Feature", "properties": { "内容": "特別養護老人ホーム　丹の国荘【短期入所生活介護】綾部市小畑町埋野67番地", "url": "https://www.kaigokensaku.mhlw.go.jp/26/index.php?action_kouhyou_detail_004_kani=true&JigyosyoCd=2671800072-00&ServiceCd=210&Type=search", "url2": "http://www.ninokunifukusikai.com/" }, "geometry": { "type": "Point", "coordinates": [ 135.202648117196674, 35.344679419261269 ] } },
{ "type": "Feature", "properties": { "内容": "特別養護老人ホーム京都綾部ききょうの郷【短期入所生活介護】綾部市高津町遠所1番621", "url": "https://www.kaigokensaku.mhlw.go.jp/26/index.php?action_kouhyou_detail_004_kani=true&JigyosyoCd=2671800221-00&ServiceCd=210&Type=search", "url2": "http://www.shinseifukushikai.jp/hanamizuki/" }, "geometry": { "type": "Point", "coordinates": [ 135.2176627, 35.3042849 ] } },
{ "type": "Feature", "properties": { "内容": "特別養護老人ホーム桃花苑【短期入所生活介護】宇治市神明石塚３９－６２", "url": "https://www.kaigokensaku.mhlw.go.jp/26/index.php?action_kouhyou_detail_004_kani=true&JigyosyoCd=2671200182-00&ServiceCd=210&Type=search", "url2": "http://www.toukaen-uji.com" }, "geometry": { "type": "Point", "coordinates": [ 135.788011200000028, 34.8838272 ] } },
{ "type": "Feature", "properties": { "内容": "宇治明星園白川特別養護老人ホームショートステイ【短期入所生活介護】京都府宇治市白川鍋倉山22番地10", "url": "https://www.kaigokensaku.mhlw.go.jp/26/index.php?action_kouhyou_detail_004_kani=true&JigyosyoCd=2671200091-00&ServiceCd=210&Type=search", "url2": "http:/www.myoujyo.or.jp" }, "geometry": { "type": "Point", "coordinates": [ 135.812742500000013, 34.8651127 ] } },
{ "type": "Feature", "properties": { "内容": "特別養護老人ホームヴィラ鳳凰【短期入所生活介護】京都府宇治市宇治里尻36番35", "url": "https://www.kaigokensaku.mhlw.go.jp/26/index.php?action_kouhyou_detail_004_kani=true&JigyosyoCd=2671200554-00&ServiceCd=210&Type=search", "url2": "https://www.takedahp.or.jp/group/welfare/kyotoninchisho02/index.html" }, "geometry": { "type": "Point", "coordinates": [ 135.801778799999965, 34.8929819 ] } },
{ "type": "Feature", "properties": { "内容": "特別養護老人ホームまごころ園　短期入所生活介護【短期入所生活介護】京都府宇治市菟道薮里11番3", "url": "https://www.kaigokensaku.mhlw.go.jp/26/index.php?action_kouhyou_detail_004_kani=true&JigyosyoCd=2671200752-00&ServiceCd=210&Type=search", "url2": "http://micro-fukushikai.or.jp" }, "geometry": { "type": "Point", "coordinates": [ 135.808713799999964, 34.9030061 ] } },
{ "type": "Feature", "properties": { "内容": "伊勢田明星園小規模特別養護老人ホーム【短期入所生活介護】京都府宇治市伊勢田町若林41番地、42番地", "url": "https://www.kaigokensaku.mhlw.go.jp/26/index.php?action_kouhyou_detail_004_kani=true&JigyosyoCd=2671200778-00&ServiceCd=210&Type=search", "url2": "http://www.myoujyo.or.jp" }, "geometry": { "type": "Point", "coordinates": [ 135.776142700000037, 34.8864019 ] } },
{ "type": "Feature", "properties": { "内容": "ショートステイさわらび園【短期入所生活介護】宇治市槇島町郡５０－１", "url": "https://www.kaigokensaku.mhlw.go.jp/26/index.php?action_kouhyou_detail_004_kani=true&JigyosyoCd=2671200141-00&ServiceCd=210&Type=search", "url2": "http://www.sawarabi.or.jp/" }, "geometry": { "type": "Point", "coordinates": [ 135.792054199999939, 34.9029278 ] } },
{ "type": "Feature", "properties": { "内容": "特別養護老人ホーム　宇治愛の郷【短期入所生活介護】京都府宇治市槙島町石橋151-1", "url": "https://www.kaigokensaku.mhlw.go.jp/26/index.php?action_kouhyou_detail_004_kani=true&JigyosyoCd=2671200927-00&ServiceCd=210&Type=search", "url2": "http://www.uji-ainosato.jp/" }, "geometry": { "type": "Point", "coordinates": [ 135.7888405, 34.9033332 ] } },
{ "type": "Feature", "properties": { "内容": "特別養護老人ホーム　天ヶ瀬苑【短期入所生活介護】京都府宇治市白川東山15番地", "url": "https://www.kaigokensaku.mhlw.go.jp/26/index.php?action_kouhyou_detail_004_kani=true&JigyosyoCd=2671200034-00&ServiceCd=210&Type=search", "url2": "http://fudouen.com/" }, "geometry": { "type": "Point", "coordinates": [ 135.819455604368557, 34.875968497235 ] } },
{ "type": "Feature", "properties": { "内容": "宇治明星園特別養護老人ホーム【短期入所生活介護】京都府宇治市菟道岡谷16-3", "url": "https://www.kaigokensaku.mhlw.go.jp/26/index.php?action_kouhyou_detail_004_kani=true&JigyosyoCd=2671200042-00&ServiceCd=210&Type=search", "url2": "http://www.myoujyo.or.jp" }, "geometry": { "type": "Point", "coordinates": [ 135.820362899999964, 34.897343 ] } },
{ "type": "Feature", "properties": { "内容": "宇治明星園養護老人ホーム【短期入所生活介護】京都府宇治市菟道岡谷16-3", "url": "https://www.kaigokensaku.mhlw.go.jp/26/index.php?action_kouhyou_detail_004_kani=true&JigyosyoCd=2671200125-00&ServiceCd=210&Type=search", "url2": "http://www.myoujyo.or.jp" }, "geometry": { "type": "Point", "coordinates": [ 135.820362899999964, 34.897343 ] } },
{ "type": "Feature", "properties": { "内容": "笠取ふれあい福祉センター　ショートステイ【短期入所生活介護】京都府宇治市西笠取下荘川西7番地の2", "url": "https://www.kaigokensaku.mhlw.go.jp/26/index.php?action_kouhyou_detail_004_kani=true&JigyosyoCd=2671200893-00&ServiceCd=210&Type=search", "url2": "http://www.uji-hosp.or.jp/" }, "geometry": { "type": "Point", "coordinates": [ 135.854366199999959, 34.9261356 ] } },
{ "type": "Feature", "properties": { "内容": "医療法人社団神野医院　ショートステイじんの【短期入所生活介護】京都府宇治市木幡赤塚20番地", "url": "https://www.kaigokensaku.mhlw.go.jp/26/index.php?action_kouhyou_detail_004_kani=true&JigyosyoCd=2671201354-00&ServiceCd=210&Type=search", "url2": "https://www.jinno-mg.or.jp/" }, "geometry": { "type": "Point", "coordinates": [ 135.802817, 34.93252 ] } },
{ "type": "Feature", "properties": { "内容": "短期入所老人ホーム青嵐荘【短期入所生活介護】京都府宮津市字日置７８０番地", "url": "https://www.kaigokensaku.mhlw.go.jp/26/index.php?action_kouhyou_detail_004_kani=true&JigyosyoCd=2672100068-00&ServiceCd=210&Type=search", "url2": "http://www.seiransou.jp/" }, "geometry": { "type": "Point", "coordinates": [ 135.21680230000004, 35.6037805 ] } },
{ "type": "Feature", "properties": { "内容": "特別養護老人ホーム夕凪の里　短期入所生活介護【短期入所生活介護】宮津市字波路小字新町２４３３番地", "url": "https://www.kaigokensaku.mhlw.go.jp/26/index.php?action_kouhyou_detail_004_kani=true&JigyosyoCd=2672100134-00&ServiceCd=210&Type=search", "url2": "https://428kai.or.jp/" }, "geometry": { "type": "Point", "coordinates": [ 135.206596198147651, 35.537770195605503 ] } },
{ "type": "Feature", "properties": { "内容": "天橋の郷短期入所生活介護事業所【短期入所生活介護】京都府宮津市字獅子190番地の4", "url": "https://www.kaigokensaku.mhlw.go.jp/26/index.php?action_kouhyou_detail_004_kani=true&JigyosyoCd=2672100092-00&ServiceCd=210&Type=search", "url2": "http://www.hokuseikai.or.jp/tenkyonosato/" }, "geometry": { "type": "Point", "coordinates": [ 135.224325, 35.5616404 ] } },
{ "type": "Feature", "properties": { "内容": "ユニット型特別養護老人ホーム　安寿の里【短期入所生活介護】京都府宮津市字由良751番地", "url": "https://www.kaigokensaku.mhlw.go.jp/26/index.php?action_kouhyou_detail_004_kani=true&JigyosyoCd=2672100175-00&ServiceCd=210&Type=search", "url2": "https://www.kounankai.jp" }, "geometry": { "type": "Point", "coordinates": [ 135.280353295939705, 35.517671738999319 ] } },
{ "type": "Feature", "properties": { "内容": "特別養護老人ホーム　亀岡園【短期入所生活介護】京都府亀岡市河原林町河原尻上砂股100", "url": "https://www.kaigokensaku.mhlw.go.jp/26/index.php?action_kouhyou_detail_004_kani=true&JigyosyoCd=2671600043-00&ServiceCd=210&Type=search", "url2": "http://www.rishoukai.com" }, "geometry": { "type": "Point", "coordinates": [ 135.573780899999946, 35.0487448 ] } },
{ "type": "Feature", "properties": { "内容": "特別養護老人ホーム　第二亀岡園【短期入所生活介護】京都府亀岡市ひえ田野町奥条古畑2番地", "url": "https://www.kaigokensaku.mhlw.go.jp/26/index.php?action_kouhyou_detail_004_kani=true&JigyosyoCd=2671600035-00&ServiceCd=210&Type=search", "url2": "http://www.rishoukai.com/" }, "geometry": { "type": "Point", "coordinates": [ 135.50986469999998, 35.0297009 ] } },
{ "type": "Feature", "properties": { "内容": "ショートステイ　あゆみ【短期入所生活介護】京都府亀岡市篠町篠下中筋43番地3地域密着型特別養護老人ホームあゆみ", "url": "https://www.kaigokensaku.mhlw.go.jp/26/index.php?action_kouhyou_detail_004_kani=true&JigyosyoCd=2671600118-00&ServiceCd=210&Type=search", "url2": "http://www.kameoka-ayumi.com/fukushi/" }, "geometry": { "type": "Point", "coordinates": [ 135.612646853967277, 35.005166604284355 ] } },
{ "type": "Feature", "properties": { "内容": "亀岡友愛園【短期入所生活介護】京都府亀岡市本梅町ナベ倉11", "url": "https://www.kaigokensaku.mhlw.go.jp/26/index.php?action_kouhyou_detail_004_kani=true&JigyosyoCd=2671600019-00&ServiceCd=210&Type=search", "url2": "http://www.yuaien.or.jp" }, "geometry": { "type": "Point", "coordinates": [ 135.494016500000043, 35.0200016 ] } },
{ "type": "Feature", "properties": { "内容": "特別養護老人ホーム亀岡たなばたの郷【短期入所生活介護】京都府亀岡市余部町谷川尻１１番地５", "url": "https://www.kaigokensaku.mhlw.go.jp/26/index.php?action_kouhyou_detail_004_kani=true&JigyosyoCd=2671600423-00&ServiceCd=210&Type=search", "url2": "http://www.shinseifukushikai.jp/tanabata" }, "geometry": { "type": "Point", "coordinates": [ 135.5644155, 35.0114695 ] } },
{ "type": "Feature", "properties": { "内容": "特別養護老人ホーム　ビハーラ本願寺【短期入所生活介護】京都府城陽市奈島内垣内１番地", "url": "https://www.kaigokensaku.mhlw.go.jp/26/index.php?action_kouhyou_detail_004_kani=true&JigyosyoCd=2672800279-00&ServiceCd=210&Type=search", "url2": "http://www.vihara-hongwanji.jp" }, "geometry": { "type": "Point", "coordinates": [ 135.795372600000064, 34.8323658 ] } },
{ "type": "Feature", "properties": { "内容": "社会福祉法人和光会特別養護老人ホーム梅林園【短期入所生活介護】京都府城陽市中芦原55番地", "url": "https://www.kaigokensaku.mhlw.go.jp/26/index.php?action_kouhyou_detail_004_kani=true&JigyosyoCd=2672800071-00&ServiceCd=210&Type=search", "url2": "https://bairinen.jp/" }, "geometry": { "type": "Point", "coordinates": [ 135.819581500000027, 34.8322776 ] } },
{ "type": "Feature", "properties": { "内容": "短期入所生活介護事業所　ひだまり平川【短期入所生活介護】京都府　城陽市　平川浜道裏　20-1", "url": "https://www.kaigokensaku.mhlw.go.jp/26/index.php?action_kouhyou_detail_004_kani=true&JigyosyoCd=2672800063-00&ServiceCd=210&Type=search", "url2": "http://www.joyofukushikai.com" }, "geometry": { "type": "Point", "coordinates": [ 135.765275200000019, 34.8676013 ] } },
{ "type": "Feature", "properties": { "内容": "特別養護老人ホーム向陽苑短期入所生活介護【短期入所生活介護】京都府向日市上植野町五ノ坪1番地の2", "url": "https://www.kaigokensaku.mhlw.go.jp/26/index.php?action_kouhyou_detail_004_kani=true&JigyosyoCd=2673100018-00&ServiceCd=210&Type=search", "url2": "http://www.kouyou26.com/" }, "geometry": { "type": "Point", "coordinates": [ 135.711549360188286, 34.937539709499369 ] } },
{ "type": "Feature", "properties": { "内容": "せんしゅんかいショートステイ上植野【短期入所生活介護】京都府向日市上植野町上川原1-5", "url": "https://www.kaigokensaku.mhlw.go.jp/26/index.php?action_kouhyou_detail_004_kani=true&JigyosyoCd=2673100141-00&ServiceCd=210&Type=search", "url2": "http://www.senshunkai.or.jp" }, "geometry": { "type": "Point", "coordinates": [ 135.699615399999971, 34.9406865 ] } },
{ "type": "Feature", "properties": { "内容": "特別養護老人ホーム　サンフラワーガーデン【短期入所生活介護】京都府向日市物集女町森ノ下12番地1", "url": "https://www.kaigokensaku.mhlw.go.jp/26/index.php?action_kouhyou_detail_004_kani=true&JigyosyoCd=2673100133-00&ServiceCd=210&Type=search", "url2": "http://www.sgarden.or.jp" }, "geometry": { "type": "Point", "coordinates": [ 135.69982159999995, 34.962987 ] } },
{ "type": "Feature", "properties": { "内容": "せんしゅんかいショートステイ東向日【短期入所生活介護】向⽇市寺⼾町北前⽥29-1", "url": "https://www.kaigokensaku.mhlw.go.jp/26/index.php?action_kouhyou_detail_004_kani=true&JigyosyoCd=2673100224-00&ServiceCd=210&Type=search", "url2": "http://www.senshunkai.or.jp/" }, "geometry": { "type": "Point", "coordinates": [ 135.699635199999989, 34.9545462 ] } },
{ "type": "Feature", "properties": { "内容": "特別養護老人ホーム　旭が丘ホーム【短期入所生活介護】京都府長岡京市井ノ内朝日寺23番", "url": "https://www.kaigokensaku.mhlw.go.jp/26/index.php?action_kouhyou_detail_004_kani=true&JigyosyoCd=2673000051-00&ServiceCd=210&Type=search", "url2": "https://www.oz-well.jp" }, "geometry": { "type": "Point", "coordinates": [ 135.681494059524539, 34.939860170058843 ] } },
{ "type": "Feature", "properties": { "内容": "せんしゅんかい　ショートステイ　春風【短期入所生活介護】京都府長岡京市久貝1-6-23", "url": "https://www.kaigokensaku.mhlw.go.jp/26/index.php?action_kouhyou_detail_004_kani=true&JigyosyoCd=2653080032-00&ServiceCd=210&Type=search", "url2": "http://www.senshunkai.or.jp/" }, "geometry": { "type": "Point", "coordinates": [ 135.696682600000031, 34.9120919 ] } },
{ "type": "Feature", "properties": { "内容": "せんしゅんかいショートステイ西山天王山【短期入所生活介護】友岡川原25-3", "url": "https://www.kaigokensaku.mhlw.go.jp/26/index.php?action_kouhyou_detail_004_kani=true&JigyosyoCd=2653080040-00&ServiceCd=210&Type=search", "url2": "http://www.senshunkai.or.jp/" }, "geometry": { "type": "Point", "coordinates": [ 135.68786750000001, 34.9136985 ] } },
{ "type": "Feature", "properties": { "内容": "ショートステイ　天神の杜【短期入所生活介護】京都府長岡京市天神二丁目3番10号", "url": "https://www.kaigokensaku.mhlw.go.jp/26/index.php?action_kouhyou_detail_004_kani=true&JigyosyoCd=2673000168-00&ServiceCd=210&Type=search", "url2": "http://www.tenjin-no-mori.or.jp" }, "geometry": { "type": "Point", "coordinates": [ 135.686769499999969, 34.9254431 ] } },
{ "type": "Feature", "properties": { "内容": "ショートステイ　サニーリッジbio【短期入所生活介護】京都府長岡京市井ノ内南内畑67-11", "url": "https://www.kaigokensaku.mhlw.go.jp/26/index.php?action_kouhyou_detail_004_kani=true&JigyosyoCd=2673000739-00&ServiceCd=210&Type=search", "url2": null }, "geometry": { "type": "Point", "coordinates": [ 135.686037632273269, 34.941122537114239 ] } },
{ "type": "Feature", "properties": { "内容": "京都八勝館短期入所生活介護事業所【短期入所生活介護】京都府八幡市橋本塩釜21番地", "url": "https://www.kaigokensaku.mhlw.go.jp/26/index.php?action_kouhyou_detail_004_kani=true&JigyosyoCd=2672900020-00&ServiceCd=210&Type=search", "url2": "http://www.hassyoukan.jp" }, "geometry": { "type": "Point", "coordinates": [ 135.68543150000005, 34.8758594 ] } },
{ "type": "Feature", "properties": { "内容": "京都ひまわり園【短期入所生活介護】八幡市八幡清水井31番地", "url": "https://www.kaigokensaku.mhlw.go.jp/26/index.php?action_kouhyou_detail_004_kani=true&JigyosyoCd=2672900046-00&ServiceCd=210&Type=search", "url2": "http://www.ws-kyoto.jp/" }, "geometry": { "type": "Point", "coordinates": [ 135.7012244, 34.8716441 ] } },
{ "type": "Feature", "properties": { "内容": "短期入所生活介護事業所　有智の郷【短期入所生活介護】京都府八幡市内里北ノ口5-1", "url": "https://www.kaigokensaku.mhlw.go.jp/26/index.php?action_kouhyou_detail_004_kani=true&JigyosyoCd=2672900327-00&ServiceCd=210&Type=search", "url2": "http://ws-kyoto.jp" }, "geometry": { "type": "Point", "coordinates": [ 135.72822229999997, 34.8637933 ] } },
{ "type": "Feature", "properties": { "内容": "特別養護老人ホーム　セピアの園【短期入所生活介護】京都府京田辺市飯岡南原41番地", "url": "https://www.kaigokensaku.mhlw.go.jp/26/index.php?action_kouhyou_detail_004_kani=true&JigyosyoCd=2673200081-00&ServiceCd=210&Type=search", "url2": "http://sepianosono.jp" }, "geometry": { "type": "Point", "coordinates": [ 135.794051200000013, 34.8036433 ] } },
{ "type": "Feature", "properties": { "内容": "ショートステイ　つつきの郷【短期入所生活介護】京都府京田辺市三山木西ノ河原４３－２", "url": "https://www.kaigokensaku.mhlw.go.jp/26/index.php?action_kouhyou_detail_004_kani=true&JigyosyoCd=2673200222-00&ServiceCd=210&Type=search", "url2": "http://www.tsutsukinosato.or.jp" }, "geometry": { "type": "Point", "coordinates": [ 135.7778442, 34.800749 ] } },
{ "type": "Feature", "properties": { "内容": "ショートステイ九十九園【短期入所生活介護】京都府京田辺市大住池平99番1", "url": "https://www.kaigokensaku.mhlw.go.jp/26/index.php?action_kouhyou_detail_004_kani=true&JigyosyoCd=2673200032-00&ServiceCd=210&Type=search", "url2": "http://www.tsukumo-en.or.jp" }, "geometry": { "type": "Point", "coordinates": [ 135.740963500000021, 34.8390539 ] } },
{ "type": "Feature", "properties": { "内容": "社会福祉法人やすらぎ福祉会【短期入所生活介護】京都府京田辺市同志社山手二丁目1番2", "url": "https://www.kaigokensaku.mhlw.go.jp/26/index.php?action_kouhyou_detail_004_kani=true&JigyosyoCd=2673200396-00&ServiceCd=210&Type=search", "url2": "http://www.yasuragifukushikai.or.jp" }, "geometry": { "type": "Point", "coordinates": [ 135.776308299999982, 34.7901722 ] } },
{ "type": "Feature", "properties": { "内容": "久美浜苑くまのの里【短期入所生活介護】京丹後市久美浜町栃谷2375番地", "url": "https://www.kaigokensaku.mhlw.go.jp/26/index.php?action_kouhyou_detail_004_kani=true&JigyosyoCd=2673300246-00&ServiceCd=210&Type=search", "url2": "http://www.kitatango.jp" }, "geometry": { "type": "Point", "coordinates": [ 134.902113747221392, 35.598491942652124 ] } },
{ "type": "Feature", "properties": { "内容": "総合老人福祉施設はごろも苑【短期入所生活介護】京都府京丹後市峰山町長岡2093", "url": "https://www.kaigokensaku.mhlw.go.jp/26/index.php?action_kouhyou_detail_004_kani=true&JigyosyoCd=2672200017-00&ServiceCd=210&Type=search", "url2": "http://www.mineyama-fukusikai.jp/index.htm" }, "geometry": { "type": "Point", "coordinates": [ 135.066153785844449, 35.596933153686471 ] } },
{ "type": "Feature", "properties": { "内容": "特別養護老人ホーム　ふるさと【短期入所生活介護】京都府京丹後市網野町小浜613番地2", "url": "https://www.kaigokensaku.mhlw.go.jp/26/index.php?action_kouhyou_detail_004_kani=true&JigyosyoCd=2673300238-00&ServiceCd=210&Type=search", "url2": "https://www.furusatonokai.net" }, "geometry": { "type": "Point", "coordinates": [ 135.037314400000014, 35.6945482 ] } },
{ "type": "Feature", "properties": { "内容": "久美浜苑【短期入所生活介護】京都府京丹後市久美浜町169番地", "url": "https://www.kaigokensaku.mhlw.go.jp/26/index.php?action_kouhyou_detail_004_kani=true&JigyosyoCd=2672400013-00&ServiceCd=210&Type=search", "url2": "http://www.kitatango.jp" }, "geometry": { "type": "Point", "coordinates": [ 134.900484900000038, 35.5996228 ] } },
{ "type": "Feature", "properties": { "内容": "ショートステイ海山園【短期入所生活介護】京都府京丹後市久美浜町湊宮467-60", "url": "https://www.kaigokensaku.mhlw.go.jp/26/index.php?action_kouhyou_detail_004_kani=true&JigyosyoCd=2672400062-00&ServiceCd=210&Type=search", "url2": "http://taiyoufukushikai.jp/" }, "geometry": { "type": "Point", "coordinates": [ 134.925792, 35.6416938 ] } },
{ "type": "Feature", "properties": { "内容": "いちがお園短期入所施設【短期入所生活介護】京都府京丹後市丹後町岩木487番地", "url": "https://www.kaigokensaku.mhlw.go.jp/26/index.php?action_kouhyou_detail_004_kani=true&JigyosyoCd=2672300015-00&ServiceCd=210&Type=search", "url2": "http://www.ichigaoen.com/" }, "geometry": { "type": "Point", "coordinates": [ 135.108297499999907, 35.7255354 ] } },
{ "type": "Feature", "properties": { "内容": "特別養護老人ホーム丹後園【短期入所生活介護】京都府京丹後市網野町木津225番地の２", "url": "https://www.kaigokensaku.mhlw.go.jp/26/index.php?action_kouhyou_detail_004_kani=true&JigyosyoCd=2672300023-00&ServiceCd=210&Type=search", "url2": "https://tangoen.net/" }, "geometry": { "type": "Point", "coordinates": [ 134.965074299999969, 35.6558295 ] } },
{ "type": "Feature", "properties": { "内容": "特別養護老人ホーム第二丹後園【短期入所生活介護】京都府京丹後市網野町木津225番地の２", "url": "https://www.kaigokensaku.mhlw.go.jp/26/index.php?action_kouhyou_detail_004_kani=true&JigyosyoCd=2673300113-00&ServiceCd=210&Type=search", "url2": "https://tangoen.net/" }, "geometry": { "type": "Point", "coordinates": [ 134.965074299999969, 35.6558295 ] } },
{ "type": "Feature", "properties": { "内容": "総合老人福祉施設　弥栄はごろも苑【短期入所生活介護】京都府京丹後市弥栄町溝谷３５２４番地", "url": "https://www.kaigokensaku.mhlw.go.jp/26/index.php?action_kouhyou_detail_004_kani=true&JigyosyoCd=2673300162-00&ServiceCd=210&Type=search", "url2": "https://www.mineyama-fukusikai.jp/" }, "geometry": { "type": "Point", "coordinates": [ 135.089036299999947, 35.6613339 ] } },
{ "type": "Feature", "properties": { "内容": "特別養護老人ホーム満寿園【短期入所生活介護】京都府京丹後市弥栄町溝谷39番地の6社会福祉法人あしぎぬ福祉会　特別養護老人ホーム満寿園", "url": "https://www.kaigokensaku.mhlw.go.jp/26/index.php?action_kouhyou_detail_004_kani=true&JigyosyoCd=2673300204-00&ServiceCd=210&Type=search", "url2": "https://www.ashiginu.or.jp/" }, "geometry": { "type": "Point", "coordinates": [ 135.116473546740707, 35.654947858152674 ] } },
{ "type": "Feature", "properties": { "内容": "おおみや苑【短期入所生活介護】京丹後市大宮町口大野295番地", "url": "https://www.kaigokensaku.mhlw.go.jp/26/index.php?action_kouhyou_detail_004_kani=true&JigyosyoCd=2672200025-00&ServiceCd=210&Type=search", "url2": "http://www.oomiyaen.com" }, "geometry": { "type": "Point", "coordinates": [ 135.0827663, 35.5919342 ] } },
{ "type": "Feature", "properties": { "内容": "社会福祉法人　長生園【短期入所生活介護】京都府南丹市園部町上木崎町坪ノ内19番地", "url": "https://www.kaigokensaku.mhlw.go.jp/26/index.php?action_kouhyou_detail_004_kani=true&JigyosyoCd=2671500102-00&ServiceCd=210&Type=search", "url2": "http://www.choseien.com" }, "geometry": { "type": "Point", "coordinates": [ 135.472361699999965, 35.1156483 ] } },
{ "type": "Feature", "properties": { "内容": "美山やすらぎホーム【短期入所生活介護】京都府南丹市美山町島小栗栖山13番地1", "url": "https://www.kaigokensaku.mhlw.go.jp/26/index.php?action_kouhyou_detail_004_kani=true&JigyosyoCd=2671700017-00&ServiceCd=210&Type=search", "url2": "http://www.hokusoukai.com/" }, "geometry": { "type": "Point", "coordinates": [ 135.553292, 35.2620929 ] } },
{ "type": "Feature", "properties": { "内容": "特別養護老人ホームはぎの里【短期入所生活介護】京都府南丹市日吉町胡麻萩原15番地", "url": "https://www.kaigokensaku.mhlw.go.jp/26/index.php?action_kouhyou_detail_004_kani=true&JigyosyoCd=2671500078-00&ServiceCd=210&Type=search", "url2": "http://web1.kcn.jp/haginosato/" }, "geometry": { "type": "Point", "coordinates": [ 135.486066100000016, 35.1840992 ] } },
{ "type": "Feature", "properties": { "内容": "特別養護老人ホーム　ヴィラ多国山【短期入所生活介護】京都府南丹市八木町西田早田３番地", "url": "https://www.kaigokensaku.mhlw.go.jp/26/index.php?action_kouhyou_detail_004_kani=true&JigyosyoCd=2671500250-00&ServiceCd=210&Type=search", "url2": "https://www.shimizu-hospital.or.jp/kaigo/care/iris/" }, "geometry": { "type": "Point", "coordinates": [ 135.538773499999934, 35.0798971 ] } },
{ "type": "Feature", "properties": { "内容": "ラポールもろはた【短期入所生活介護】京都府南丹市八木町諸畑後町１０番地１", "url": "https://www.kaigokensaku.mhlw.go.jp/26/index.php?action_kouhyou_detail_004_kani=true&JigyosyoCd=2671500037-00&ServiceCd=210&Type=search", "url2": "http://www.misyoukai.com" }, "geometry": { "type": "Point", "coordinates": [ 135.532582100000013, 35.1016089 ] } },
{ "type": "Feature", "properties": { "内容": "社会福祉法人楽慈会【短期入所生活介護】京都府木津川市山城町上狛天竺堂1番地1山城ぬくもりの里", "url": "https://www.kaigokensaku.mhlw.go.jp/26/index.php?action_kouhyou_detail_004_kani=true&JigyosyoCd=2673500316-00&ServiceCd=210&Type=search", "url2": "https://www.s-rakuji.com" }, "geometry": { "type": "Point", "coordinates": [ 135.823574400000012, 34.7543484 ] } },
{ "type": "Feature", "properties": { "内容": "ショートステイ　ゆりのき【短期入所生活介護】京都府木津川市木津川台1丁目19番１", "url": "https://www.kaigokensaku.mhlw.go.jp/26/index.php?action_kouhyou_detail_004_kani=true&JigyosyoCd=2673500035-00&ServiceCd=210&Type=search", "url2": "http://www.iseikai.jp/yurinoki/index.html" }, "geometry": { "type": "Point", "coordinates": [ 135.79262719999997, 34.7469796 ] } },
{ "type": "Feature", "properties": { "内容": "木津芳梅園ショートステイ【短期入所生活介護】京都府木津川市鹿背山東大池4-1特別養護老人ホーム木津芳梅園", "url": "https://www.kaigokensaku.mhlw.go.jp/26/index.php?action_kouhyou_detail_004_kani=true&JigyosyoCd=2671400022-00&ServiceCd=210&Type=search", "url2": "http://www.houbaikai.com/" }, "geometry": { "type": "Point", "coordinates": [ 135.842078899999933, 34.7289081 ] } },
{ "type": "Feature", "properties": { "内容": "特別養護老人ホーム　加茂の里【短期入所生活介護】京都府木津川市加茂町駅東四丁目1番地3", "url": "https://www.kaigokensaku.mhlw.go.jp/26/index.php?action_kouhyou_detail_004_kani=true&JigyosyoCd=2671400048-00&ServiceCd=210&Type=search", "url2": "http://www.takedahp.or.jp/" }, "geometry": { "type": "Point", "coordinates": [ 135.871787, 34.7543971 ] } },
{ "type": "Feature", "properties": { "内容": "短期入所生活介護　きはだの郷【短期入所生活介護】京都府木津川市梅美台一丁目2-2", "url": "https://www.kaigokensaku.mhlw.go.jp/26/index.php?action_kouhyou_detail_004_kani=true&JigyosyoCd=2671400063-00&ServiceCd=210&Type=search", "url2": "https://www.kihada-kaigo.com/" }, "geometry": { "type": "Point", "coordinates": [ 135.83660297861536, 34.715214031749881 ] } },
{ "type": "Feature", "properties": { "内容": "洛和ヴィラ大山崎【短期入所生活介護】京都府乙訓郡大山崎町円明寺開キ3-3", "url": "https://www.kaigokensaku.mhlw.go.jp/26/index.php?action_kouhyou_detail_004_kani=true&JigyosyoCd=2671000046-00&ServiceCd=210&Type=search", "url2": "http://www.rakuwa.or.jp" }, "geometry": { "type": "Point", "coordinates": [ 135.68543139999997, 34.9039173 ] } },
{ "type": "Feature", "properties": { "内容": "ショートステイ　洛和ヴィラ天王山【短期入所生活介護】京都府乙訓郡大山崎町大山崎松原36-6", "url": "https://www.kaigokensaku.mhlw.go.jp/26/index.php?action_kouhyou_detail_004_kani=true&JigyosyoCd=2671000087-00&ServiceCd=210&Type=search", "url2": "http://www.rakuwa.or.jp/kaigo/tokuyou/tennouzan/index.html" }, "geometry": { "type": "Point", "coordinates": [ 135.687032583467072, 34.901577898660122 ] } },
{ "type": "Feature", "properties": { "内容": "楽生苑　指定短期入所生活介護事業所【短期入所生活介護】京都府久世郡久御山町坊之池坊村中66番地", "url": "https://www.kaigokensaku.mhlw.go.jp/26/index.php?action_kouhyou_detail_004_kani=true&JigyosyoCd=2671100028-00&ServiceCd=210&Type=search", "url2": "http://kumiyama-rakuseien.or.jp" }, "geometry": { "type": "Point", "coordinates": [ 135.732395600000018, 34.8915429 ] } },
{ "type": "Feature", "properties": { "内容": "久御山しみずの里ショートステイ【短期入所生活介護】京都府久世郡久御山町佐山西ノ口146番地1", "url": "https://www.kaigokensaku.mhlw.go.jp/26/index.php?action_kouhyou_detail_004_kani=true&JigyosyoCd=2671100150-00&ServiceCd=210&Type=search", "url2": "https://ksmcs.jp/kumiyama/" }, "geometry": { "type": "Point", "coordinates": [ 135.748841, 34.8741552 ] } },
{ "type": "Feature", "properties": { "内容": "特別養護老人ホーム　いでの里【短期入所生活介護】京都府綴喜郡井手町尾大字井手小字弥勒1番地の1", "url": "https://www.kaigokensaku.mhlw.go.jp/26/index.php?action_kouhyou_detail_004_kani=true&JigyosyoCd=2671300206-00&ServiceCd=210&Type=search", "url2": "http://www.fushimi-shimizu.jp/" }, "geometry": { "type": "Point", "coordinates": [ 135.803305799999947, 34.798408 ] } },
{ "type": "Feature", "properties": { "内容": "サンビレッジ宇治田原【短期入所生活介護】京都府綴喜郡宇治田原町大字禅定寺小字砂川１１５－１", "url": "https://www.kaigokensaku.mhlw.go.jp/26/index.php?action_kouhyou_detail_004_kani=true&JigyosyoCd=2671300057-00&ServiceCd=210&Type=search", "url2": "http://www.sunvillage-ujitawara.jp/" }, "geometry": { "type": "Point", "coordinates": [ 135.8776732, 34.8648442 ] } },
{ "type": "Feature", "properties": { "内容": "ショートステイ　わらく【短期入所生活介護】京都府相楽郡和束町大字釜塚小字縄手25番地", "url": "https://www.kaigokensaku.mhlw.go.jp/26/index.php?action_kouhyou_detail_004_kani=true&JigyosyoCd=2671400352-00&ServiceCd=210&Type=search", "url2": "http://www.waraku.or.jp" }, "geometry": { "type": "Point", "coordinates": [ 135.906288600000039, 34.794621 ] } },
{ "type": "Feature", "properties": { "内容": "短期入所生活介護センター　神の園【短期入所生活介護】京都府相楽郡精華町大字南稲八妻小字笛竹41", "url": "https://www.kaigokensaku.mhlw.go.jp/26/index.php?action_kouhyou_detail_004_kani=true&JigyosyoCd=2671400311-00&ServiceCd=210&Type=search", "url2": "http://kami-home.jp/" }, "geometry": { "type": "Point", "coordinates": [ 135.783188699999982, 34.762536 ] } },
{ "type": "Feature", "properties": { "内容": "ショートステイ金木犀【短期入所生活介護】京都府船井郡京丹波町三ノ宮縄手３９番地", "url": "https://www.kaigokensaku.mhlw.go.jp/26/index.php?action_kouhyou_detail_004_kani=true&JigyosyoCd=2671500359-00&ServiceCd=210&Type=search", "url2": "https://yamabikokai-kyoto.com" }, "geometry": { "type": "Point", "coordinates": [ 135.339191199999959, 35.2207317 ] } },
{ "type": "Feature", "properties": { "内容": "丹波高原荘短期入所センター【短期入所生活介護】京都府船井郡京丹波町蒲生蒲生野173番地", "url": "https://www.kaigokensaku.mhlw.go.jp/26/index.php?action_kouhyou_detail_004_kani=true&JigyosyoCd=2671500094-00&ServiceCd=210&Type=search", "url2": "https://kougensou.net/index.html" }, "geometry": { "type": "Point", "coordinates": [ 135.42460371738278, 35.167384953227568 ] } },
{ "type": "Feature", "properties": { "内容": "（福）山彦会特別養護老人ホーム瑞穂山彦苑【短期入所生活介護】京都府船井郡京丹波町三ノ宮小谷30番地", "url": "https://www.kaigokensaku.mhlw.go.jp/26/index.php?action_kouhyou_detail_004_kani=true&JigyosyoCd=2671500110-00&ServiceCd=210&Type=search", "url2": "https://yamabikokai-kyoto.com" }, "geometry": { "type": "Point", "coordinates": [ 135.331533499999978, 35.2215675 ] } },
{ "type": "Feature", "properties": { "内容": "特別養護老人ホーム　長老苑【短期入所生活介護】京都府船井郡京丹波町市場丸ヶ野８番地２", "url": "https://www.kaigokensaku.mhlw.go.jp/26/index.php?action_kouhyou_detail_004_kani=true&JigyosyoCd=2671500060-00&ServiceCd=210&Type=search", "url2": "http://tyorouen.com/" }, "geometry": { "type": "Point", "coordinates": [ 135.413355599999932, 35.2579235 ] } },
{ "type": "Feature", "properties": { "内容": "長寿苑短期入所生活介護事業所【短期入所生活介護】京都府与謝郡伊根町字六万部小字ヤクシノ１５４番地", "url": "https://www.kaigokensaku.mhlw.go.jp/26/index.php?action_kouhyou_detail_004_kani=true&JigyosyoCd=2672000011-00&ServiceCd=210&Type=search", "url2": "https://yosagun-fukushikai.net/" }, "geometry": { "type": "Point", "coordinates": [ 135.272639199999958, 35.6751459 ] } },
{ "type": "Feature", "properties": { "内容": "ショートステイ岩滝あじさい苑【短期入所生活介護】京都府与謝郡与謝野町弓木13-6", "url": "https://www.kaigokensaku.mhlw.go.jp/26/index.php?action_kouhyou_detail_004_kani=true&JigyosyoCd=2672000045-00&ServiceCd=210&Type=search", "url2": "https://yosagun-fukushikai.net/" }, "geometry": { "type": "Point", "coordinates": [ 135.144768518385263, 35.56548086433277 ] } },
{ "type": "Feature", "properties": { "内容": "特別養護老人ホーム虹ヶ丘【短期入所生活介護】京都府与謝郡与謝野町字岩屋小字庄内600番地3", "url": "https://www.kaigokensaku.mhlw.go.jp/26/index.php?action_kouhyou_detail_004_kani=true&JigyosyoCd=2672000029-00&ServiceCd=210&Type=search", "url2": "http://yofuku.or.jp/nijigaoka/" }, "geometry": { "type": "Point", "coordinates": [ 135.152841399999943, 35.5653085 ] } },
{ "type": "Feature", "properties": { "内容": "与謝の園短期入所生活介護事業所【短期入所生活介護】京都府与謝郡与謝野町字明石2120番地", "url": "https://www.kaigokensaku.mhlw.go.jp/26/index.php?action_kouhyou_detail_004_kani=true&JigyosyoCd=2672000094-00&ServiceCd=210&Type=search", "url2": "http://www.hokuseikai.or.jp/yozanoen/" }, "geometry": { "type": "Point", "coordinates": [ 135.106787856869886, 35.507977995510046 ] } }
]
}
