{
"type": "FeatureCollection",
"name": "geo_26_認知症対応型共同生活介護",
"crs": { "type": "name", "properties": { "name": "urn:ogc:def:crs:OGC:1.3:CRS84" } },
"features": [
{ "type": "Feature", "properties": { "内容": "そうごうケアホーム衣笠【認知症対応型共同生活介護】京都府京都市北区衣笠西御所ノ内町9番地", "url": "https://www.kaigokensaku.mhlw.go.jp/26/index.php?action_kouhyou_detail_004_kani=true&JigyosyoCd=2690100298-00&ServiceCd=320&Type=search", "url2": "https://www.sogo-care.co.jp/" }, "geometry": { "type": "Point", "coordinates": [ 135.732260599999989, 35.040513 ] } },
{ "type": "Feature", "properties": { "内容": "特定非営利活動法人　リアル･リンク京都　柏野の郷　グループホーム【認知症対応型共同生活介護】京都府京都市北区紫野中柏野町22番地", "url": "https://www.kaigokensaku.mhlw.go.jp/26/index.php?action_kouhyou_detail_004_kani=true&JigyosyoCd=2690100231-00&ServiceCd=320&Type=search", "url2": "http://www.reallink.or.jp/" }, "geometry": { "type": "Point", "coordinates": [ 135.738075833729567, 35.034513274407885 ] } },
{ "type": "Feature", "properties": { "内容": "愛の家グループホーム京都南箱ノ井【認知症対応型共同生活介護】京都市北区大宮南箱ノ井町7番地", "url": "https://www.kaigokensaku.mhlw.go.jp/26/index.php?action_kouhyou_detail_004_kani=true&JigyosyoCd=2690100355-00&ServiceCd=320&Type=search", "url2": "https://mcs-ainoie.com/search/kyoto/kyotoshi/gh304/" }, "geometry": { "type": "Point", "coordinates": [ 135.740402, 35.0529875 ] } },
{ "type": "Feature", "properties": { "内容": "医療法人　社団　都会　グループホームほっこり庵【認知症対応型共同生活介護】京都市北区大宮上ノ岸町６－６", "url": "https://www.kaigokensaku.mhlw.go.jp/26/index.php?action_kouhyou_detail_004_kani=true&JigyosyoCd=2690100074-00&ServiceCd=320&Type=search", "url2": "https://www.miyakokai-kyoto.com/hokkorian-gh" }, "geometry": { "type": "Point", "coordinates": [ 135.749630199999956, 35.0567122 ] } },
{ "type": "Feature", "properties": { "内容": "医療法人三幸会ケアサポートセンター鷹峯【認知症対応型共同生活介護】鷹峯南鷹峯町32-37", "url": "https://www.kaigokensaku.mhlw.go.jp/26/index.php?action_kouhyou_detail_004_kani=true&JigyosyoCd=2690100082-00&ServiceCd=320&Type=search", "url2": "http://www.sankokai.jp/caresupport/takagamine/index.html" }, "geometry": { "type": "Point", "coordinates": [ 135.732731699999931, 35.0542983 ] } },
{ "type": "Feature", "properties": { "内容": "グループホーム　衣笠シオン【認知症対応型共同生活介護】京都府北区衣笠赤阪町1-328", "url": "https://www.kaigokensaku.mhlw.go.jp/26/index.php?action_kouhyou_detail_004_kani=true&JigyosyoCd=2690100116-00&ServiceCd=320&Type=search", "url2": "http://castanet.jpn.com/" }, "geometry": { "type": "Point", "coordinates": [ 135.724365799999987, 35.0389829 ] } },
{ "type": "Feature", "properties": { "内容": "グループホームすないの家西賀茂【認知症対応型共同生活介護】京都府京都市北区西賀茂榿ノ木町32番グループホーム　すないの家西賀茂", "url": "https://www.kaigokensaku.mhlw.go.jp/26/index.php?action_kouhyou_detail_004_kani=true&JigyosyoCd=2690100397-00&ServiceCd=320&Type=search", "url2": "http://kanae-gr.or.jp" }, "geometry": { "type": "Point", "coordinates": [ 135.7482487, 35.0600521 ] } },
{ "type": "Feature", "properties": { "内容": "グループホームはつね【認知症対応型共同生活介護】京都府京都市北区小山下初音町２４番地　カマラーダ・ドーモ１Ｆ", "url": "https://www.kaigokensaku.mhlw.go.jp/26/index.php?action_kouhyou_detail_004_kani=true&JigyosyoCd=2670100078-00&ServiceCd=320&Type=search", "url2": "http://www.nananokai.com/index.html" }, "geometry": { "type": "Point", "coordinates": [ 135.75449648882315, 35.04512912232903 ] } },
{ "type": "Feature", "properties": { "内容": "グループホームたのしい家紫野【認知症対応型共同生活介護】京都府京都市北区紫野南舟岡町35-2", "url": "https://www.kaigokensaku.mhlw.go.jp/26/index.php?action_kouhyou_detail_004_kani=true&JigyosyoCd=2690100108-00&ServiceCd=320&Type=search", "url2": null }, "geometry": { "type": "Point", "coordinates": [ 135.744036300000062, 35.0359421 ] } },
{ "type": "Feature", "properties": { "内容": "グループホーム　京都北山の家【認知症対応型共同生活介護】京都府京都市北区鷹峯光悦町32-1", "url": "https://www.kaigokensaku.mhlw.go.jp/26/index.php?action_kouhyou_detail_004_kani=true&JigyosyoCd=2690100173-00&ServiceCd=320&Type=search", "url2": "http://www.kaigo.or.jp/" }, "geometry": { "type": "Point", "coordinates": [ 135.729930818385384, 35.054149405019338 ] } },
{ "type": "Feature", "properties": { "内容": "グループホーム　たのしい家きぬかけ【認知症対応型共同生活介護】京都府京都市北区衣笠天神森町20番地", "url": "https://www.kaigokensaku.mhlw.go.jp/26/index.php?action_kouhyou_detail_004_kani=true&JigyosyoCd=2690100371-00&ServiceCd=320&Type=search", "url2": null }, "geometry": { "type": "Point", "coordinates": [ 135.73165, 35.0368791 ] } },
{ "type": "Feature", "properties": { "内容": "えくせれんと衣笠【認知症対応型共同生活介護】北区北野東紅梅町１２エクセレント衣笠", "url": "https://www.kaigokensaku.mhlw.go.jp/26/index.php?action_kouhyou_detail_004_kani=true&JigyosyoCd=2690100140-00&ServiceCd=320&Type=search", "url2": "http:/www.excare.co.jp/" }, "geometry": { "type": "Point", "coordinates": [ 135.7332513, 35.0295563 ] } },
{ "type": "Feature", "properties": { "内容": "そうごうケアホーム西賀茂【認知症対応型共同生活介護】京都府京都市北区西賀茂北鎮守庵町135番", "url": "https://www.kaigokensaku.mhlw.go.jp/26/index.php?action_kouhyou_detail_004_kani=true&JigyosyoCd=2690100256-00&ServiceCd=320&Type=search", "url2": "https://www.sogo-care.co.jp/" }, "geometry": { "type": "Point", "coordinates": [ 135.740094137822894, 35.060806112453115 ] } },
{ "type": "Feature", "properties": { "内容": "グループホーム千本笹屋町【認知症対応型共同生活介護】京都市上京区笹屋町通千本東入笹屋３丁目６２２番地", "url": "https://www.kaigokensaku.mhlw.go.jp/26/index.php?action_kouhyou_detail_004_kani=true&JigyosyoCd=2690200023-00&ServiceCd=320&Type=search", "url2": "http://www.hiragino.or.jp" }, "geometry": { "type": "Point", "coordinates": [ 135.743211418601959, 35.02792783391277 ] } },
{ "type": "Feature", "properties": { "内容": "十四軒町グループホーム【認知症対応型共同生活介護】京都市上京区千本通出水下る十四軒町398", "url": "https://www.kaigokensaku.mhlw.go.jp/26/index.php?action_kouhyou_detail_004_kani=true&JigyosyoCd=2670200480-00&ServiceCd=320&Type=search", "url2": "http://www.kenkouen.jp/" }, "geometry": { "type": "Point", "coordinates": [ 135.741988331291168, 35.020916666456451 ] } },
{ "type": "Feature", "properties": { "内容": "医療法人三幸会ケアサポートセンター千本今出川【認知症対応型共同生活介護】京都市上京区元誓願寺通千本東入元四丁目424番地の2", "url": "https://www.kaigokensaku.mhlw.go.jp/26/index.php?action_kouhyou_detail_004_kani=true&JigyosyoCd=2690200106-00&ServiceCd=320&Type=search", "url2": "http://www.sankokai.jp/" }, "geometry": { "type": "Point", "coordinates": [ 135.749697, 35.0323732 ] } },
{ "type": "Feature", "properties": { "内容": "グループホームたのしい家西陣【認知症対応型共同生活介護】京都府京都市上京区中筋通大宮西入横大宮町219-1", "url": "https://www.kaigokensaku.mhlw.go.jp/26/index.php?action_kouhyou_detail_004_kani=true&JigyosyoCd=2690200114-00&ServiceCd=320&Type=search", "url2": null }, "geometry": { "type": "Point", "coordinates": [ 135.748250696682476, 35.029288794035345 ] } },
{ "type": "Feature", "properties": { "内容": "はるかぜガーデン御前【認知症対応型共同生活介護】京都府京都市上京区下立売通七本松西入西東町３３９", "url": "https://www.kaigokensaku.mhlw.go.jp/26/index.php?action_kouhyou_detail_004_kani=true&JigyosyoCd=2690200148-00&ServiceCd=320&Type=search", "url2": "https://kondo-naika.jp" }, "geometry": { "type": "Point", "coordinates": [ 135.736542186981978, 35.020328290673241 ] } },
{ "type": "Feature", "properties": { "内容": "えくせれんと聚楽第【認知症対応型共同生活介護】出水通土屋町東入東神明町290-1", "url": "https://www.kaigokensaku.mhlw.go.jp/26/index.php?action_kouhyou_detail_004_kani=true&JigyosyoCd=2690200130-00&ServiceCd=320&Type=search", "url2": "http://excare.jyurakudai.co.jp" }, "geometry": { "type": "Point", "coordinates": [ 135.744082845180401, 35.021395672544955 ] } },
{ "type": "Feature", "properties": { "内容": "洛和グループホーム二条城北【認知症対応型共同生活介護】京都市上京区黒門通下長者町下る吉野町687-2", "url": "https://www.kaigokensaku.mhlw.go.jp/26/index.php?action_kouhyou_detail_004_kani=true&JigyosyoCd=2690200080-00&ServiceCd=320&Type=search", "url2": null }, "geometry": { "type": "Point", "coordinates": [ 135.750086099999976, 35.0216936 ] } },
{ "type": "Feature", "properties": { "内容": "そうごうケアホーム下鴨【認知症対応型共同生活介護】京都府京都市左京区下鴨神殿町17番", "url": "https://www.kaigokensaku.mhlw.go.jp/26/index.php?action_kouhyou_detail_004_kani=true&JigyosyoCd=2690600248-00&ServiceCd=320&Type=search", "url2": "https://www.sogo-care.co.jp/" }, "geometry": { "type": "Point", "coordinates": [ 135.7704564, 35.0492235 ] } },
{ "type": "Feature", "properties": { "内容": "医療法人三幸会ケアサポートセンター岩倉長谷【認知症対応型共同生活介護】京都市左京区岩倉長谷町１６１７－１", "url": "https://www.kaigokensaku.mhlw.go.jp/26/index.php?action_kouhyou_detail_004_kani=true&JigyosyoCd=2690600065-00&ServiceCd=320&Type=search", "url2": "http://www.sankokai.jp/caresupport/iwakurahase/index.html" }, "geometry": { "type": "Point", "coordinates": [ 135.791859700000032, 35.0814787 ] } },
{ "type": "Feature", "properties": { "内容": "グループホーム　カノンしもがも【認知症対応型共同生活介護】京都府京都市左京区下鴨松ノ木町64-50", "url": "https://www.kaigokensaku.mhlw.go.jp/26/index.php?action_kouhyou_detail_004_kani=true&JigyosyoCd=2690600172-00&ServiceCd=320&Type=search", "url2": null }, "geometry": { "type": "Point", "coordinates": [ 135.771467499999972, 35.0400365 ] } },
{ "type": "Feature", "properties": { "内容": "グループホーム北白川【認知症対応型共同生活介護】京都府京都市左京区北白川東平井町13番地", "url": "https://www.kaigokensaku.mhlw.go.jp/26/index.php?action_kouhyou_detail_004_kani=true&JigyosyoCd=2670600309-00&ServiceCd=320&Type=search", "url2": null }, "geometry": { "type": "Point", "coordinates": [ 135.787936, 35.0352759 ] } },
{ "type": "Feature", "properties": { "内容": "そうごうケアホーム下鴨【認知症対応型共同生活介護】京都府京都市左京区下鴨神殿町１７番地", "url": "https://www.kaigokensaku.mhlw.go.jp/26/index.php?action_kouhyou_detail_004_kani=true&JigyosyoCd=2690600321-00&ServiceCd=320&Type=search", "url2": "https://sogo-care.co.jp/facility/shimogamo/" }, "geometry": { "type": "Point", "coordinates": [ 135.77046712883606, 35.049346465518568 ] } },
{ "type": "Feature", "properties": { "内容": "グループホーム虹　精華大前【認知症対応型共同生活介護】京都府京都市左京区静市市原町850番地グループホーム虹　精華大前", "url": "https://www.kaigokensaku.mhlw.go.jp/26/index.php?action_kouhyou_detail_004_kani=true&JigyosyoCd=2690600255-00&ServiceCd=320&Type=search", "url2": "https://www.iris-group.co.jp/" }, "geometry": { "type": "Point", "coordinates": [ 135.7693284, 35.0723215 ] } },
{ "type": "Feature", "properties": { "内容": "えくせれんと修学院【認知症対応型共同生活介護】京都府京都市左京区一乗寺東閉川原町２－２", "url": "https://www.kaigokensaku.mhlw.go.jp/26/index.php?action_kouhyou_detail_004_kani=true&JigyosyoCd=2690600115-00&ServiceCd=320&Type=search", "url2": "http://excare.co.jp/" }, "geometry": { "type": "Point", "coordinates": [ 135.787627603617238, 35.047569647209428 ] } },
{ "type": "Feature", "properties": { "内容": "えくせれんと岡崎【認知症対応型共同生活介護】岡崎南御所町38-1", "url": "https://www.kaigokensaku.mhlw.go.jp/26/index.php?action_kouhyou_detail_004_kani=true&JigyosyoCd=2690600123-00&ServiceCd=320&Type=search", "url2": "http://excare.co.jp/" }, "geometry": { "type": "Point", "coordinates": [ 135.785402900000037, 35.015243601855602 ] } },
{ "type": "Feature", "properties": { "内容": "ヒューマンライフケア岩倉グループホーム【認知症対応型共同生活介護】京都府京都市左京区岩倉長谷町193番", "url": "https://www.kaigokensaku.mhlw.go.jp/26/index.php?action_kouhyou_detail_004_kani=true&JigyosyoCd=2690600313-00&ServiceCd=320&Type=search", "url2": "https://kaigo.human-lifecare.jp/facilities/gh039_IwakuraGH/summary.html" }, "geometry": { "type": "Point", "coordinates": [ 135.789076200000011, 35.0809818 ] } },
{ "type": "Feature", "properties": { "内容": "グループホーム　やすらぎの家【認知症対応型共同生活介護】京都府京都市左京区大原井出町154", "url": "https://www.kaigokensaku.mhlw.go.jp/26/index.php?action_kouhyou_detail_004_kani=true&JigyosyoCd=2610605079-00&ServiceCd=320&Type=search", "url2": "http://www.kyotoohara.or.jp" }, "geometry": { "type": "Point", "coordinates": [ 135.8207438, 35.1046455 ] } },
{ "type": "Feature", "properties": { "内容": "医療法人三幸会　ケアサポートセンター市原野【認知症対応型共同生活介護】静市市原町１２２３－６９", "url": "https://www.kaigokensaku.mhlw.go.jp/26/index.php?action_kouhyou_detail_004_kani=true&JigyosyoCd=2690600057-00&ServiceCd=320&Type=search", "url2": "ichiharano@sankokai.jp" }, "geometry": { "type": "Point", "coordinates": [ 135.760101500000019, 35.0852505 ] } },
{ "type": "Feature", "properties": { "内容": "洛和グループホーム百万遍【認知症対応型共同生活介護】京都市左京区田中門前町103-27", "url": "https://www.kaigokensaku.mhlw.go.jp/26/index.php?action_kouhyou_detail_004_kani=true&JigyosyoCd=2670600200-00&ServiceCd=320&Type=search", "url2": "http://www.rakuwa.or.jp" }, "geometry": { "type": "Point", "coordinates": [ 135.781634250643833, 35.029797346800152 ] } },
{ "type": "Feature", "properties": { "内容": "医療法人三幸会　ケアサポートセンター宝ヶ池【認知症対応型共同生活介護】京都市左京区上高野薩田町11-1", "url": "https://www.kaigokensaku.mhlw.go.jp/26/index.php?action_kouhyou_detail_004_kani=true&JigyosyoCd=2690600032-00&ServiceCd=320&Type=search", "url2": "http://www.sankokai.jp/images/title_greeting.gif" }, "geometry": { "type": "Point", "coordinates": [ 135.791926500000045, 35.0647613 ] } },
{ "type": "Feature", "properties": { "内容": "医療法人　社団　都会　グループホーム一乗寺ほっこり庵【認知症対応型共同生活介護】京都市左京区一乗寺宮ノ東町３７", "url": "https://www.kaigokensaku.mhlw.go.jp/26/index.php?action_kouhyou_detail_004_kani=true&JigyosyoCd=2690600040-00&ServiceCd=320&Type=search", "url2": "https://miyakokai-kyoto.com" }, "geometry": { "type": "Point", "coordinates": [ 135.791177100000027, 35.0449609 ] } },
{ "type": "Feature", "properties": { "内容": "グループホーム京都左京の家【認知症対応型共同生活介護】京都府京都市左京区静市市原町646-2", "url": "https://www.kaigokensaku.mhlw.go.jp/26/index.php?action_kouhyou_detail_004_kani=true&JigyosyoCd=2690600131-00&ServiceCd=320&Type=search", "url2": null }, "geometry": { "type": "Point", "coordinates": [ 135.763559500000042, 35.0790679 ] } },
{ "type": "Feature", "properties": { "内容": "ニングルの森北白川【認知症対応型共同生活介護】京都府京都市左京区浄土寺石橋町６９", "url": "https://www.kaigokensaku.mhlw.go.jp/26/index.php?action_kouhyou_detail_004_kani=true&JigyosyoCd=2670600416-00&ServiceCd=320&Type=search", "url2": "http://www.ninguru.co.jp/" }, "geometry": { "type": "Point", "coordinates": [ 135.7954102, 35.026221200000023 ] } },
{ "type": "Feature", "properties": { "内容": "グループホーム　かすたねっと【認知症対応型共同生活介護】京都府京都市左京区岩倉花園町401", "url": "https://www.kaigokensaku.mhlw.go.jp/26/index.php?action_kouhyou_detail_004_kani=true&JigyosyoCd=2670600424-00&ServiceCd=320&Type=search", "url2": "http://castanet.jpn.com/" }, "geometry": { "type": "Point", "coordinates": [ 135.793759499999965, 35.0744796 ] } },
{ "type": "Feature", "properties": { "内容": "グループホームたのしい家静市【認知症対応型共同生活介護】静市市原町７４３－４", "url": "https://www.kaigokensaku.mhlw.go.jp/26/index.php?action_kouhyou_detail_004_kani=true&JigyosyoCd=2690600081-00&ServiceCd=320&Type=search", "url2": null }, "geometry": { "type": "Point", "coordinates": [ 135.7664648, 35.0734519 ] } },
{ "type": "Feature", "properties": { "内容": "グループホームみさき岩倉【認知症対応型共同生活介護】岩倉中町380グループホームみさき岩倉", "url": "https://www.kaigokensaku.mhlw.go.jp/26/index.php?action_kouhyou_detail_004_kani=true&JigyosyoCd=2690600156-00&ServiceCd=320&Type=search", "url2": "https://misaki-kaigo.co.jp/" }, "geometry": { "type": "Point", "coordinates": [ 135.78866, 35.0735547 ] } },
{ "type": "Feature", "properties": { "内容": "京都壬生ケアセンターそよ風【認知症対応型共同生活介護】京都府京都市中京区壬生天池町２４", "url": "https://www.kaigokensaku.mhlw.go.jp/26/index.php?action_kouhyou_detail_004_kani=true&JigyosyoCd=2690300021-00&ServiceCd=320&Type=search", "url2": "http://www.sykz-rc.co.jp/" }, "geometry": { "type": "Point", "coordinates": [ 135.739882, 35.0065252 ] } },
{ "type": "Feature", "properties": { "内容": "グループホーム姉小路【認知症対応型共同生活介護】京都府京都市中京区堀川通姉小路下ル姉東堀川町７６生活支援総合センター姉小路", "url": "https://www.kaigokensaku.mhlw.go.jp/26/index.php?action_kouhyou_detail_004_kani=true&JigyosyoCd=2670300447-00&ServiceCd=320&Type=search", "url2": "https://www.nananokai.com/" }, "geometry": { "type": "Point", "coordinates": [ 135.751411400000052, 35.0104252 ] } },
{ "type": "Feature", "properties": { "内容": "愛の家グループホーム京都円町【認知症対応型共同生活介護】京都府京都市中京区西ノ京南両町２３番", "url": "https://www.kaigokensaku.mhlw.go.jp/26/index.php?action_kouhyou_detail_004_kani=true&JigyosyoCd=2690300062-00&ServiceCd=320&Type=search", "url2": "http:/www.mcsg.co.jp" }, "geometry": { "type": "Point", "coordinates": [ 135.734712700000046, 35.0172769 ] } },
{ "type": "Feature", "properties": { "内容": "洛和グループホーム西ノ京【認知症対応型共同生活介護】京都市中京区西ノ京冷泉町140番地", "url": "https://www.kaigokensaku.mhlw.go.jp/26/index.php?action_kouhyou_detail_004_kani=true&JigyosyoCd=2670200217-00&ServiceCd=320&Type=search", "url2": "http://www.rakuwa.or.jp" }, "geometry": { "type": "Point", "coordinates": [ 135.749697, 35.0323732 ] } },
{ "type": "Feature", "properties": { "内容": "洛和グループホーム壬生【認知症対応型共同生活介護】京都市中京区壬生東大竹町４４－１", "url": "https://www.kaigokensaku.mhlw.go.jp/26/index.php?action_kouhyou_detail_004_kani=true&JigyosyoCd=2690300070-00&ServiceCd=320&Type=search", "url2": "http://www.rakuwa.or.jp" }, "geometry": { "type": "Point", "coordinates": [ 135.7351241, 35.0058363 ] } },
{ "type": "Feature", "properties": { "内容": "グループホーム都和のはな【認知症対応型共同生活介護】京都市中京区西ノ京小堀池町3番4", "url": "https://www.kaigokensaku.mhlw.go.jp/26/index.php?action_kouhyou_detail_004_kani=true&JigyosyoCd=2690300039-00&ServiceCd=320&Type=search", "url2": "http://www.hoken-fukushi.or.jp/ghtowa.html" }, "geometry": { "type": "Point", "coordinates": [ 135.726596800000038, 35.0149991 ] } },
{ "type": "Feature", "properties": { "内容": "医療法人三幸会ケアサポートセンター　壬生【認知症対応型共同生活介護】京都市中京区壬生相合町６３－１", "url": "https://www.kaigokensaku.mhlw.go.jp/26/index.php?action_kouhyou_detail_004_kani=true&JigyosyoCd=2690300047-00&ServiceCd=320&Type=search", "url2": "http://www.sankokai.jp/" }, "geometry": { "type": "Point", "coordinates": [ 135.744759400000021, 34.9999232 ] } },
{ "type": "Feature", "properties": { "内容": "グループホームたのしい家西ノ京【認知症対応型共同生活介護】京都市中京区西ノ京冷泉町119番地", "url": "https://www.kaigokensaku.mhlw.go.jp/26/index.php?action_kouhyou_detail_004_kani=true&JigyosyoCd=2690300120-00&ServiceCd=320&Type=search", "url2": null }, "geometry": { "type": "Point", "coordinates": [ 135.734746, 35.0158798 ] } },
{ "type": "Feature", "properties": { "内容": "グループホーム新町御池【認知症対応型共同生活介護】京都市中京区町頭町９２", "url": "https://www.kaigokensaku.mhlw.go.jp/26/index.php?action_kouhyou_detail_004_kani=true&JigyosyoCd=2690300054-00&ServiceCd=320&Type=search", "url2": "kyoto-jinkeikai.com" }, "geometry": { "type": "Point", "coordinates": [ 135.75646370000004, 35.0096754 ] } },
{ "type": "Feature", "properties": { "内容": "地域密着型ケアセンターいまくまの　グループホームいまくまの【認知症対応型共同生活介護】京都府京都市東山区今熊野北日吉町61-10", "url": "https://www.kaigokensaku.mhlw.go.jp/26/index.php?action_kouhyou_detail_004_kani=true&JigyosyoCd=2690800046-00&ServiceCd=320&Type=search", "url2": "https://www.villa.or.jp" }, "geometry": { "type": "Point", "coordinates": [ 135.778720199999952, 34.9890165 ] } },
{ "type": "Feature", "properties": { "内容": "はるかぜガーデン泉涌寺【認知症対応型共同生活介護】泉涌寺東林町１７番地の６２はるかぜガーデン泉涌寺", "url": "https://www.kaigokensaku.mhlw.go.jp/26/index.php?action_kouhyou_detail_004_kani=true&JigyosyoCd=2690800053-00&ServiceCd=320&Type=search", "url2": null }, "geometry": { "type": "Point", "coordinates": [ 135.776274854631112, 34.980327004077246 ] } },
{ "type": "Feature", "properties": { "内容": "えくせれんと東山【認知症対応型共同生活介護】京都市東山区大黒町通正面下ル塗師屋町５８５", "url": "https://www.kaigokensaku.mhlw.go.jp/26/index.php?action_kouhyou_detail_004_kani=true&JigyosyoCd=2690800038-00&ServiceCd=320&Type=search", "url2": "http://excare.co.jp/" }, "geometry": { "type": "Point", "coordinates": [ 135.770127499999916, 34.9902767 ] } },
{ "type": "Feature", "properties": { "内容": "東山ケアセンターそよ風【認知症対応型共同生活介護】京都府京都市東山区本町18町目386-1", "url": "https://www.kaigokensaku.mhlw.go.jp/26/index.php?action_kouhyou_detail_004_kani=true&JigyosyoCd=2690800012-00&ServiceCd=320&Type=search", "url2": "http://www.unimat-rc.co.jp/" }, "geometry": { "type": "Point", "coordinates": [ 135.771329199999968, 34.9763788 ] } },
{ "type": "Feature", "properties": { "内容": "社会福祉法人京都育和会　グループホーム　レット・イット・ビー【認知症対応型共同生活介護】本町20丁目441番1高齢者福祉施設レット・イット・ビー", "url": "https://www.kaigokensaku.mhlw.go.jp/26/index.php?action_kouhyou_detail_004_kani=true&JigyosyoCd=2690800061-00&ServiceCd=320&Type=search", "url2": "guruupu@kyotoikuwakai.jp" }, "geometry": { "type": "Point", "coordinates": [ 135.7709959, 34.9730486 ] } },
{ "type": "Feature", "properties": { "内容": "グループホーム四条大宮【認知症対応型共同生活介護】京都府京都市下京区大宮通綾小路下る綾大宮町５２番地", "url": "https://www.kaigokensaku.mhlw.go.jp/26/index.php?action_kouhyou_detail_004_kani=true&JigyosyoCd=2690400037-00&ServiceCd=320&Type=search", "url2": "http://www.hiragino.or.jp" }, "geometry": { "type": "Point", "coordinates": [ 135.749210529238866, 35.001950045942515 ] } },
{ "type": "Feature", "properties": { "内容": "グループホームきらら梅小路【認知症対応型共同生活介護】京都府京都市下京区梅小路西中町44", "url": "https://www.kaigokensaku.mhlw.go.jp/26/index.php?action_kouhyou_detail_004_kani=true&JigyosyoCd=2690400136-00&ServiceCd=320&Type=search", "url2": "https://www.starts-care.jp/kirara_umekoji" }, "geometry": { "type": "Point", "coordinates": [ 135.735113743357147, 34.98539673907829 ] } },
{ "type": "Feature", "properties": { "内容": "グループホーム　御所ノ内【認知症対応型共同生活介護】西七条南月読町１０２－１", "url": "https://www.kaigokensaku.mhlw.go.jp/26/index.php?action_kouhyou_detail_004_kani=true&JigyosyoCd=2690400060-00&ServiceCd=320&Type=search", "url2": "http://goshonouchi.com/goshohome" }, "geometry": { "type": "Point", "coordinates": [ 135.730460699999981, 34.9886516 ] } },
{ "type": "Feature", "properties": { "内容": "グループホーム　ぬくもりの里【認知症対応型共同生活介護】京都市下京区七条御所ノ内本町１５", "url": "https://www.kaigokensaku.mhlw.go.jp/26/index.php?action_kouhyou_detail_004_kani=true&JigyosyoCd=2670400155-00&ServiceCd=320&Type=search", "url2": "http://www.kyotominami.or.jp/" }, "geometry": { "type": "Point", "coordinates": [ 135.731124128836086, 34.984609827471466 ] } },
{ "type": "Feature", "properties": { "内容": "洛和グループホーム四条鉾町【認知症対応型共同生活介護】京都市下京区仏光寺通り油小路東入木賊山町165番地", "url": "https://www.kaigokensaku.mhlw.go.jp/26/index.php?action_kouhyou_detail_004_kani=true&JigyosyoCd=2670400437-00&ServiceCd=320&Type=search", "url2": "http://www.rakuwa.or.jp" }, "geometry": { "type": "Point", "coordinates": [ 135.7555334, 34.9876552 ] } },
{ "type": "Feature", "properties": { "内容": "グループホーム京都下京の家【認知症対応型共同生活介護】京都府京都市下京区夷馬場町30番地１", "url": "https://www.kaigokensaku.mhlw.go.jp/26/index.php?action_kouhyou_detail_004_kani=true&JigyosyoCd=2690400052-00&ServiceCd=320&Type=search", "url2": null }, "geometry": { "type": "Point", "coordinates": [ 135.745864023942545, 34.989653820683728 ] } },
{ "type": "Feature", "properties": { "内容": "グループホーム　京都五条ひまわりの郷【認知症対応型共同生活介護】京都市下京区中堂寺前田町26番地", "url": "https://www.kaigokensaku.mhlw.go.jp/26/index.php?action_kouhyou_detail_004_kani=true&JigyosyoCd=2690400086-00&ServiceCd=320&Type=search", "url2": "http://www.shinseifukushikai.jp/himawari/" }, "geometry": { "type": "Point", "coordinates": [ 138.252924, 36.204824 ] } },
{ "type": "Feature", "properties": { "内容": "グループホーム京・みやこ【認知症対応型共同生活介護】京都府京都市下京区西七条八幡町31", "url": "https://www.kaigokensaku.mhlw.go.jp/26/index.php?action_kouhyou_detail_004_kani=true&JigyosyoCd=2690400193-00&ServiceCd=320&Type=search", "url2": "https://yamabikokai-kyoto.com" }, "geometry": { "type": "Point", "coordinates": [ 135.729615, 34.9923342 ] } },
{ "type": "Feature", "properties": { "内容": "ツクイ京都洛南グループホーム【認知症対応型共同生活介護】吉祥院池田長31", "url": "https://www.kaigokensaku.mhlw.go.jp/26/index.php?action_kouhyou_detail_004_kani=true&JigyosyoCd=2690500190-00&ServiceCd=320&Type=search", "url2": "https://＠tsukui.net" }, "geometry": { "type": "Point", "coordinates": [ 135.7352209, 34.9668867 ] } },
{ "type": "Feature", "properties": { "内容": "認知症対応型共同生活介護さざなみ京都南【認知症対応型共同生活介護】京都市南区上鳥羽奈須野町202", "url": "https://www.kaigokensaku.mhlw.go.jp/26/index.php?action_kouhyou_detail_004_kani=true&JigyosyoCd=2690500042-00&ServiceCd=320&Type=search", "url2": "https://sazanami-g.co.jp/" }, "geometry": { "type": "Point", "coordinates": [ 135.742786900000027, 34.9552051 ] } },
{ "type": "Feature", "properties": { "内容": "グループホームソラストさんきち【認知症対応型共同生活介護】京都市南区吉祥院三ノ宮西町87-2", "url": "https://www.kaigokensaku.mhlw.go.jp/26/index.php?action_kouhyou_detail_004_kani=true&JigyosyoCd=2690500216-00&ServiceCd=320&Type=search", "url2": "http://solasto‐kaigo.com" }, "geometry": { "type": "Point", "coordinates": [ 135.7275857, 34.9763395 ] } },
{ "type": "Feature", "properties": { "内容": "はーとふるセゾン桂川【認知症対応型共同生活介護】京都府京都市南区久世上久世253-3", "url": "https://www.kaigokensaku.mhlw.go.jp/26/index.php?action_kouhyou_detail_004_kani=true&JigyosyoCd=2690500208-00&ServiceCd=320&Type=search", "url2": "http://heartfulsaison.com/katsuragawa/" }, "geometry": { "type": "Point", "coordinates": [ 135.714451851683293, 34.964685628154882 ] } },
{ "type": "Feature", "properties": { "内容": "洛和グループホーム久世【認知症対応型共同生活介護】京都市南区久世上久世町34-2", "url": "https://www.kaigokensaku.mhlw.go.jp/26/index.php?action_kouhyou_detail_004_kani=true&JigyosyoCd=2670500376-00&ServiceCd=320&Type=search", "url2": "http://www.rakuwa.or.jp" }, "geometry": { "type": "Point", "coordinates": [ 135.713976, 34.9681504 ] } },
{ "type": "Feature", "properties": { "内容": "医療法人三幸会　ケアサポートセンター吉祥院【認知症対応型共同生活介護】吉祥院里ノ内町７１－１", "url": "https://www.kaigokensaku.mhlw.go.jp/26/index.php?action_kouhyou_detail_004_kani=true&JigyosyoCd=2690500018-00&ServiceCd=320&Type=search", "url2": "http://www.sankokai.jp/caresupport/kishoin/index.html" }, "geometry": { "type": "Point", "coordinates": [ 135.733627100000035, 34.9735836 ] } },
{ "type": "Feature", "properties": { "内容": "洛和グループホーム桂川【認知症対応型共同生活介護】京都市南区久世中久世町1-63", "url": "https://www.kaigokensaku.mhlw.go.jp/26/index.php?action_kouhyou_detail_004_kani=true&JigyosyoCd=2690500091-00&ServiceCd=320&Type=search", "url2": null }, "geometry": { "type": "Point", "coordinates": [ 135.7111066, 34.9610429 ] } },
{ "type": "Feature", "properties": { "内容": "グループホーム京都久世の家【認知症対応型共同生活介護】京都市南区久世殿城町４５８番地", "url": "https://www.kaigokensaku.mhlw.go.jp/26/index.php?action_kouhyou_detail_004_kani=true&JigyosyoCd=2690500083-00&ServiceCd=320&Type=search", "url2": null }, "geometry": { "type": "Point", "coordinates": [ 135.717200400000024, 34.9560713 ] } },
{ "type": "Feature", "properties": { "内容": "グループホームたのしい家吉祥院【認知症対応型共同生活介護】京都府京都市南区吉祥院西ノ庄東屋敷町1-2たのしい家吉祥院", "url": "https://www.kaigokensaku.mhlw.go.jp/26/index.php?action_kouhyou_detail_004_kani=true&JigyosyoCd=2690500125-00&ServiceCd=320&Type=search", "url2": null }, "geometry": { "type": "Point", "coordinates": [ 135.728821, 34.9853039 ] } },
{ "type": "Feature", "properties": { "内容": "キャッビックケアホームすぃーとハンズ嵯峨野【認知症対応型共同生活介護】京都市右京区嵯峨野北野町7-1", "url": "https://www.kaigokensaku.mhlw.go.jp/26/index.php?action_kouhyou_detail_004_kani=true&JigyosyoCd=2690700188-00&ServiceCd=320&Type=search", "url2": "http://cabikcare.jp/" }, "geometry": { "type": "Point", "coordinates": [ 135.691691799999944, 35.0098911 ] } },
{ "type": "Feature", "properties": { "内容": "グループホーム走和の郷【認知症対応型共同生活介護】京都府京都市右京区梅津石灘町48番地", "url": "https://www.kaigokensaku.mhlw.go.jp/26/index.php?action_kouhyou_detail_004_kani=true&JigyosyoCd=2690700212-00&ServiceCd=320&Type=search", "url2": "www.reallink.or.jp" }, "geometry": { "type": "Point", "coordinates": [ 135.708296, 35.0009613 ] } },
{ "type": "Feature", "properties": { "内容": "洛和グループホーム太秦【認知症対応型共同生活介護】京都市右京区太秦袴田町9-1", "url": "https://www.kaigokensaku.mhlw.go.jp/26/index.php?action_kouhyou_detail_004_kani=true&JigyosyoCd=2670700364-00&ServiceCd=320&Type=search", "url2": "http://www.rakuwa.or.jp" }, "geometry": { "type": "Point", "coordinates": [ 135.699482799999942, 35.0083273 ] } },
{ "type": "Feature", "properties": { "内容": "医療法人三幸会ケアサポートセンターけいほく【認知症対応型共同生活介護】京都市右京区京北塔町中筋浦44-1http://www.sankokai.jp/caresupport/keihoku/index.html", "url": "https://www.kaigokensaku.mhlw.go.jp/26/index.php?action_kouhyou_detail_004_kani=true&JigyosyoCd=2670700471-00&ServiceCd=320&Type=search", "url2": "http://www.sankokai.jp/caresupport/keihoku/index.html" }, "geometry": { "type": "Point", "coordinates": [ 135.658448499999963, 35.1782831 ] } },
{ "type": "Feature", "properties": { "内容": "洛和グループホーム右京常盤【認知症対応型共同生活介護】京都市右京区常盤柏ノ木町15-1", "url": "https://www.kaigokensaku.mhlw.go.jp/26/index.php?action_kouhyou_detail_004_kani=true&JigyosyoCd=2690700063-00&ServiceCd=320&Type=search", "url2": "http://www.rakuwa.or.jp" }, "geometry": { "type": "Point", "coordinates": [ 135.708976, 35.0216733 ] } },
{ "type": "Feature", "properties": { "内容": "洛和グループホーム右京山ノ内【認知症対応型共同生活介護】京都市右京区山ノ内西浦町15番地", "url": "https://www.kaigokensaku.mhlw.go.jp/26/index.php?action_kouhyou_detail_004_kani=true&JigyosyoCd=2690700097-00&ServiceCd=320&Type=search", "url2": "http://www.rakuwa.or.jp" }, "geometry": { "type": "Point", "coordinates": [ 135.720397600000069, 35.007669 ] } },
{ "type": "Feature", "properties": { "内容": "グループホームきらら嵯峨嵐山【認知症対応型共同生活介護】嵯峨新宮町51-3", "url": "https://www.kaigokensaku.mhlw.go.jp/26/index.php?action_kouhyou_detail_004_kani=true&JigyosyoCd=2690700345-00&ServiceCd=320&Type=search", "url2": "https://www.starts-care.jp/kirara_sagaarashiyama/" }, "geometry": { "type": "Point", "coordinates": [ 135.685300099999949, 35.0222649 ] } },
{ "type": "Feature", "properties": { "内容": "洛和グループホーム花園【認知症対応型共同生活介護】京都市右京区花園猪ノ毛町８－３", "url": "https://www.kaigokensaku.mhlw.go.jp/26/index.php?action_kouhyou_detail_004_kani=true&JigyosyoCd=2690700139-00&ServiceCd=320&Type=search", "url2": "http://www.rakuwa.or.jp" }, "geometry": { "type": "Point", "coordinates": [ 135.723899599999982, 35.0235288 ] } },
{ "type": "Feature", "properties": { "内容": "洛和グループホーム西院【認知症対応型共同生活介護】西院日照町103", "url": "https://www.kaigokensaku.mhlw.go.jp/26/index.php?action_kouhyou_detail_004_kani=true&JigyosyoCd=2690700154-00&ServiceCd=320&Type=search", "url2": "http://www.rakuwa.or.jp/" }, "geometry": { "type": "Point", "coordinates": [ 135.724516799999947, 35.0007364 ] } },
{ "type": "Feature", "properties": { "内容": "グループホーム　御所ノ内ときわ【認知症対応型共同生活介護】京都府京都市右京区太秦青木ケ原町7-2", "url": "https://www.kaigokensaku.mhlw.go.jp/26/index.php?action_kouhyou_detail_004_kani=true&JigyosyoCd=2690700279-00&ServiceCd=320&Type=search", "url2": "http://goshonouchi.com/tokiwa" }, "geometry": { "type": "Point", "coordinates": [ 135.703621574868748, 35.019045881005738 ] } },
{ "type": "Feature", "properties": { "内容": "グループホーム　ごじょう西小路【認知症対応型共同生活介護】京都府京都市右京区西院追分町5番地", "url": "https://www.kaigokensaku.mhlw.go.jp/26/index.php?action_kouhyou_detail_004_kani=true&JigyosyoCd=2690700311-00&ServiceCd=320&Type=search", "url2": "http://goshonouchi.com/gojo/index.php" }, "geometry": { "type": "Point", "coordinates": [ 138.252924, 36.204824 ] } },
{ "type": "Feature", "properties": { "内容": "エクセレント嵯峨嵐山【認知症対応型共同生活介護】天龍寺椎野町12", "url": "https://www.kaigokensaku.mhlw.go.jp/26/index.php?action_kouhyou_detail_004_kani=true&JigyosyoCd=2690700360-00&ServiceCd=320&Type=search", "url2": "https://www.excare.co.jp/" }, "geometry": { "type": "Point", "coordinates": [ 135.685390454769873, 35.019238370317069 ] } },
{ "type": "Feature", "properties": { "内容": "グループホームたのしい家梅津【認知症対応型共同生活介護】京都市右京区梅津石灘町１１番", "url": "https://www.kaigokensaku.mhlw.go.jp/26/index.php?action_kouhyou_detail_004_kani=true&JigyosyoCd=2690700055-00&ServiceCd=320&Type=search", "url2": null }, "geometry": { "type": "Point", "coordinates": [ 135.7076042, 35.0012253 ] } },
{ "type": "Feature", "properties": { "内容": "グループホームたのしい家高雄【認知症対応型共同生活介護】京都府京都市右京区梅ヶ畑向ノ地町10番地", "url": "https://www.kaigokensaku.mhlw.go.jp/26/index.php?action_kouhyou_detail_004_kani=true&JigyosyoCd=2690700089-00&ServiceCd=320&Type=search", "url2": null }, "geometry": { "type": "Point", "coordinates": [ 135.69572119999998, 35.035111 ] } },
{ "type": "Feature", "properties": { "内容": "天神川ケアセンターそよ風【認知症対応型共同生活介護】京都府京都市右京区西院西田町６１番地", "url": "https://www.kaigokensaku.mhlw.go.jp/26/index.php?action_kouhyou_detail_004_kani=true&JigyosyoCd=2690700121-00&ServiceCd=320&Type=search", "url2": null }, "geometry": { "type": "Point", "coordinates": [ 135.717623, 34.9991476 ] } },
{ "type": "Feature", "properties": { "内容": "嵯峨野ケアセンターそよ風【認知症対応型共同生活介護】京都府京都市右京区嵯峨釈迦堂藤ノ木町19-1", "url": "https://www.kaigokensaku.mhlw.go.jp/26/index.php?action_kouhyou_detail_004_kani=true&JigyosyoCd=2670700349-00&ServiceCd=320&Type=search", "url2": "http://www.unimat-rc.co.jp/" }, "geometry": { "type": "Point", "coordinates": [ 135.6739781, 35.0245811 ] } },
{ "type": "Feature", "properties": { "内容": "グループホーム　マイスイートホーム【認知症対応型共同生活介護】京都府京都市伏見区日野奥出21", "url": "https://www.kaigokensaku.mhlw.go.jp/26/index.php?action_kouhyou_detail_004_kani=true&JigyosyoCd=2690900564-00&ServiceCd=320&Type=search", "url2": "http://my-sweethome.jp" }, "geometry": { "type": "Point", "coordinates": [ 135.816258299999987, 34.9298336 ] } },
{ "type": "Feature", "properties": { "内容": "グルーホームたのしい家墨染【認知症対応型共同生活介護】京都府京都市伏見区深草大亀谷東古御香町23番地", "url": "https://www.kaigokensaku.mhlw.go.jp/26/index.php?action_kouhyou_detail_004_kani=true&JigyosyoCd=2690900663-00&ServiceCd=320&Type=search", "url2": null }, "geometry": { "type": "Point", "coordinates": [ 135.78727182813455, 34.944778019488936 ] } },
{ "type": "Feature", "properties": { "内容": "グループホーム丹波橋の憩【認知症対応型共同生活介護】京都府京都市伏見区南寝小屋町５４番地", "url": "https://www.kaigokensaku.mhlw.go.jp/26/index.php?action_kouhyou_detail_004_kani=true&JigyosyoCd=2690900762-00&ServiceCd=320&Type=search", "url2": "https://www.frontier-gp.jp/nursing-home-search/detail/tanbabashi_gh" }, "geometry": { "type": "Point", "coordinates": [ 135.7499824, 34.9370987 ] } },
{ "type": "Feature", "properties": { "内容": "ヒューマンライフケア深草グループホーム【認知症対応型共同生活介護】京都市伏見区深草瓦町62番3", "url": "https://www.kaigokensaku.mhlw.go.jp/26/index.php?action_kouhyou_detail_004_kani=true&JigyosyoCd=2690900655-00&ServiceCd=320&Type=search", "url2": "https://kaigo.human-lifecare.jp/facilities/gh038_FukakusaGH/summary.html" }, "geometry": { "type": "Point", "coordinates": [ 135.776914476582334, 34.9564236073007 ] } },
{ "type": "Feature", "properties": { "内容": "洛和グループホーム伏見竹田【認知症対応型共同生活介護】京都市伏見区竹田三杭町59-3", "url": "https://www.kaigokensaku.mhlw.go.jp/26/index.php?action_kouhyou_detail_004_kani=true&JigyosyoCd=2690900275-00&ServiceCd=320&Type=search", "url2": "https://kaigo.rakuwa.or.jp/service/station/gh-fushimitakeda/" }, "geometry": { "type": "Point", "coordinates": [ 135.758585499999981, 34.9562275 ] } },
{ "type": "Feature", "properties": { "内容": "グループホーム　宝生苑【認知症対応型共同生活介護】伏見区桃山町山ノ下66番38", "url": "https://www.kaigokensaku.mhlw.go.jp/26/index.php?action_kouhyou_detail_004_kani=true&JigyosyoCd=2690900317-00&ServiceCd=320&Type=search", "url2": "http://yamato-fukushi.com/" }, "geometry": { "type": "Point", "coordinates": [ 135.795373300663755, 34.9414026749646 ] } },
{ "type": "Feature", "properties": { "内容": "ラプラース樹楽　醍醐【認知症対応型共同生活介護】京都府京都市伏見区醍醐中山町２０番地２", "url": "https://www.kaigokensaku.mhlw.go.jp/26/index.php?action_kouhyou_detail_004_kani=true&JigyosyoCd=2690900333-00&ServiceCd=320&Type=search", "url2": "http://www.kiraku-ac.com/shisetsu/home/kyoto/daigo.php" }, "geometry": { "type": "Point", "coordinates": [ 135.817654700000048, 34.9522769 ] } },
{ "type": "Feature", "properties": { "内容": "ヒューマンライフケア伏見グループホーム【認知症対応型共同生活介護】日野谷寺町68", "url": "https://www.kaigokensaku.mhlw.go.jp/26/index.php?action_kouhyou_detail_004_kani=true&JigyosyoCd=2690900374-00&ServiceCd=320&Type=search", "url2": "https://kaigo.human-lifecare.jp/facilities/gh018_FushimiGH/summary.html" }, "geometry": { "type": "Point", "coordinates": [ 135.814914006070723, 34.938944695662208 ] } },
{ "type": "Feature", "properties": { "内容": "医療法人啓信会　グループホーム　リエゾン羽束師【認知症対応型共同生活介護】京都市伏見区羽束師古川町１６８－１", "url": "https://www.kaigokensaku.mhlw.go.jp/26/index.php?action_kouhyou_detail_004_kani=true&JigyosyoCd=2690900119-00&ServiceCd=320&Type=search", "url2": "http://www.kyouto-keishinkai.or.jp" }, "geometry": { "type": "Point", "coordinates": [ 135.723435, 34.9267221 ] } },
{ "type": "Feature", "properties": { "内容": "グループホーム京都伏見の家【認知症対応型共同生活介護】京都府京都市伏見区深草西浦町二丁目１１５番地", "url": "https://www.kaigokensaku.mhlw.go.jp/26/index.php?action_kouhyou_detail_004_kani=true&JigyosyoCd=2690900127-00&ServiceCd=320&Type=search", "url2": null }, "geometry": { "type": "Point", "coordinates": [ 135.765185100000053, 34.960605100000038 ] } },
{ "type": "Feature", "properties": { "内容": "洛和グループホーム醍醐春日野【認知症対応型共同生活介護】京都市伏見区醍醐東合場町９番地１２", "url": "https://www.kaigokensaku.mhlw.go.jp/26/index.php?action_kouhyou_detail_004_kani=true&JigyosyoCd=2690900135-00&ServiceCd=320&Type=search", "url2": "http://www.rakuwa.or.jp" }, "geometry": { "type": "Point", "coordinates": [ 135.811485800000014, 34.9403444 ] } },
{ "type": "Feature", "properties": { "内容": "グループホームたのしい家伏見深草【認知症対応型共同生活介護】京都府京都市伏見区深草小久保町302", "url": "https://www.kaigokensaku.mhlw.go.jp/26/index.php?action_kouhyou_detail_004_kani=true&JigyosyoCd=2690900143-00&ServiceCd=320&Type=search", "url2": null }, "geometry": { "type": "Point", "coordinates": [ 135.76132364693288, 34.952262934817718 ] } },
{ "type": "Feature", "properties": { "内容": "グループホーム　京都納所淀の家【認知症対応型共同生活介護】京都府京都市伏見区納所北城堀7-11グループホーム京都納所淀の家", "url": "https://www.kaigokensaku.mhlw.go.jp/26/index.php?action_kouhyou_detail_004_kani=true&JigyosyoCd=2690900184-00&ServiceCd=320&Type=search", "url2": null }, "geometry": { "type": "Point", "coordinates": [ 135.721280818385338, 34.910335926813062 ] } },
{ "type": "Feature", "properties": { "内容": "グループホーム京都桃山の家【認知症対応型共同生活介護】桃山町泰長老１３２", "url": "https://www.kaigokensaku.mhlw.go.jp/26/index.php?action_kouhyou_detail_004_kani=true&JigyosyoCd=2690900218-00&ServiceCd=320&Type=search", "url2": null }, "geometry": { "type": "Point", "coordinates": [ 135.773653, 34.9290472 ] } },
{ "type": "Feature", "properties": { "内容": "グループホーム京都向島の家【認知症対応型共同生活介護】向島庚申町３２－５", "url": "https://www.kaigokensaku.mhlw.go.jp/26/index.php?action_kouhyou_detail_004_kani=true&JigyosyoCd=2690900259-00&ServiceCd=320&Type=search", "url2": null }, "geometry": { "type": "Point", "coordinates": [ 135.772161461238085, 34.925843040190621 ] } },
{ "type": "Feature", "properties": { "内容": "グループホームさいわい【認知症対応型共同生活介護】京都府京都市伏見区向島本丸町28-2さいわい介護センター", "url": "https://www.kaigokensaku.mhlw.go.jp/26/index.php?action_kouhyou_detail_004_kani=true&JigyosyoCd=2690900283-00&ServiceCd=320&Type=search", "url2": "http://www.mukaijima-hospital.or.jp" }, "geometry": { "type": "Point", "coordinates": [ 135.771256, 34.9229589 ] } },
{ "type": "Feature", "properties": { "内容": "観月橋グループホーム翔裕館【認知症対応型共同生活介護】京都府京都市伏見区向島立河原町67-1", "url": "https://www.kaigokensaku.mhlw.go.jp/26/index.php?action_kouhyou_detail_004_kani=true&JigyosyoCd=2690900622-00&ServiceCd=320&Type=search", "url2": "https://sangajapan.jp/kangetsukyou/kangetsukyou03/" }, "geometry": { "type": "Point", "coordinates": [ 135.775300056483445, 34.922860696825595 ] } },
{ "type": "Feature", "properties": { "内容": "洛和グループホーム醍醐寺【認知症対応型共同生活介護】京都市伏見区醍醐伽藍町21-1", "url": "https://www.kaigokensaku.mhlw.go.jp/26/index.php?action_kouhyou_detail_004_kani=true&JigyosyoCd=2670900501-00&ServiceCd=320&Type=search", "url2": "http://www.rakuwa.or.jp" }, "geometry": { "type": "Point", "coordinates": [ 135.820273248965464, 34.94909334192689 ] } },
{ "type": "Feature", "properties": { "内容": "グループホーム醍醐の家ほっこり【認知症対応型共同生活介護】京都市伏見区醍醐南里町30-1", "url": "https://www.kaigokensaku.mhlw.go.jp/26/index.php?action_kouhyou_detail_004_kani=true&JigyosyoCd=2670900618-00&ServiceCd=320&Type=search", "url2": "http://www.kyoro.or.jp" }, "geometry": { "type": "Point", "coordinates": [ 135.814835499999958, 34.9465523 ] } },
{ "type": "Feature", "properties": { "内容": "グループホーム藤城の家【認知症対応型共同生活介護】京都市伏見区深草大亀谷万帖敷町４番１", "url": "https://www.kaigokensaku.mhlw.go.jp/26/index.php?action_kouhyou_detail_004_kani=true&JigyosyoCd=2690900093-00&ServiceCd=320&Type=search", "url2": "http://www.kenkouen.jp/" }, "geometry": { "type": "Point", "coordinates": [ 135.7774723, 34.9423488 ] } },
{ "type": "Feature", "properties": { "内容": "グループホームふかくさ【認知症対応型共同生活介護】京都府京都市伏見区深草西浦町8丁目19番地グループホームふかくさ", "url": "https://www.kaigokensaku.mhlw.go.jp/26/index.php?action_kouhyou_detail_004_kani=true&JigyosyoCd=2690900226-00&ServiceCd=320&Type=search", "url2": "http:/www.kuno-hospital.or.jp" }, "geometry": { "type": "Point", "coordinates": [ 135.763060200000041, 34.9598579 ] } },
{ "type": "Feature", "properties": { "内容": "グループホームたのしい家醍醐【認知症対応型共同生活介護】京都府京都市伏見区醍醐新町裏町5", "url": "https://www.kaigokensaku.mhlw.go.jp/26/index.php?action_kouhyou_detail_004_kani=true&JigyosyoCd=2690900309-00&ServiceCd=320&Type=search", "url2": null }, "geometry": { "type": "Point", "coordinates": [ 135.815564299999977, 34.9571124 ] } },
{ "type": "Feature", "properties": { "内容": "まどかⅡ番館　グループホーム【認知症対応型共同生活介護】京都府京都市伏見区下鳥羽南円面田町122番地まどかⅡ番館", "url": "https://www.kaigokensaku.mhlw.go.jp/26/index.php?action_kouhyou_detail_004_kani=true&JigyosyoCd=2690900424-00&ServiceCd=320&Type=search", "url2": "http://soseien.jp" }, "geometry": { "type": "Point", "coordinates": [ 135.7400338, 34.9315881 ] } },
{ "type": "Feature", "properties": { "内容": "グループホーム　京都指月の郷　2号館【認知症対応型共同生活介護】京都府京都市桃山町泰長老176-5", "url": "https://www.kaigokensaku.mhlw.go.jp/26/index.php?action_kouhyou_detail_004_kani=true&JigyosyoCd=2690900432-00&ServiceCd=320&Type=search", "url2": "http://www.shinseifukushikai.jp/" }, "geometry": { "type": "Point", "coordinates": [ 135.768987166131637, 34.930646274166506 ] } },
{ "type": "Feature", "properties": { "内容": "グループホーム　京都指月あさがおの郷　1号館【認知症対応型共同生活介護】京都府京都市伏見区常盤町40-3", "url": "https://www.kaigokensaku.mhlw.go.jp/26/index.php?action_kouhyou_detail_004_kani=true&JigyosyoCd=2690900440-00&ServiceCd=320&Type=search", "url2": "http://www.shinseifukushikai.jp/" }, "geometry": { "type": "Point", "coordinates": [ 135.768415139008994, 34.930617196605645 ] } },
{ "type": "Feature", "properties": { "内容": "グランメゾン輪舞館京都羽束師【認知症対応型共同生活介護】京都府京都市伏見区羽束師菱川町　628-5グランメゾン輪舞館京都羽束師", "url": "https://www.kaigokensaku.mhlw.go.jp/26/index.php?action_kouhyou_detail_004_kani=true&JigyosyoCd=2690900499-00&ServiceCd=320&Type=search", "url2": "https://grand-maison.jp/homelist/hazukashi/" }, "geometry": { "type": "Point", "coordinates": [ 135.723881657672081, 34.934170419753009 ] } },
{ "type": "Feature", "properties": { "内容": "グループホームよろこび伏見【認知症対応型共同生活介護】京都府京都市伏見区向島二ノ丸町32", "url": "https://www.kaigokensaku.mhlw.go.jp/26/index.php?action_kouhyou_detail_004_kani=true&JigyosyoCd=2690900614-00&ServiceCd=320&Type=search", "url2": "http://yorokobifushimi.com/" }, "geometry": { "type": "Point", "coordinates": [ 135.771814230688477, 34.921299057987554 ] } },
{ "type": "Feature", "properties": { "内容": "グループホーム　リヤンド京都伏見【認知症対応型共同生活介護】京都府京都市伏見区日野奥出21番地", "url": "https://www.kaigokensaku.mhlw.go.jp/26/index.php?action_kouhyou_detail_004_kani=true&JigyosyoCd=2690900804-00&ServiceCd=320&Type=search", "url2": "https://liende-kizuna.jp/kyoto-fushimi/" }, "geometry": { "type": "Point", "coordinates": [ 135.816027630024706, 34.930013919391918 ] } },
{ "type": "Feature", "properties": { "内容": "医療法人　松寿会　グループホーム小野【認知症対応型共同生活介護】京都市山科区勧修寺閑林寺８３－６", "url": "https://www.kaigokensaku.mhlw.go.jp/26/index.php?action_kouhyou_detail_004_kani=true&JigyosyoCd=2614102172-00&ServiceCd=320&Type=search", "url2": "http://www.kyouwa-hp.jp" }, "geometry": { "type": "Point", "coordinates": [ 135.811430400000063, 34.9560403 ] } },
{ "type": "Feature", "properties": { "内容": "洛和グループホーム音羽【認知症対応型共同生活介護】京都市山科区音羽森廻り町34-8", "url": "https://www.kaigokensaku.mhlw.go.jp/26/index.php?action_kouhyou_detail_004_kani=true&JigyosyoCd=2674100272-00&ServiceCd=320&Type=search", "url2": "http://www.rakuwa.or.jp" }, "geometry": { "type": "Point", "coordinates": [ 135.824620699999969, 34.9864818 ] } },
{ "type": "Feature", "properties": { "内容": "なぎつじグループホーム【認知症対応型共同生活介護】京都府京都市山科区椥辻封シ川町43－2なぎつじ翔裕館Ⅰ号館", "url": "https://www.kaigokensaku.mhlw.go.jp/26/index.php?action_kouhyou_detail_004_kani=true&JigyosyoCd=2694100328-00&ServiceCd=320&Type=search", "url2": "http://www.sangajapan.jp" }, "geometry": { "type": "Point", "coordinates": [ 135.810217099999988, 34.9735292 ] } },
{ "type": "Feature", "properties": { "内容": "洛和グループホーム勧修II番館【認知症対応型共同生活介護】京都市山科区勧修寺西金ケ崎238番地", "url": "https://www.kaigokensaku.mhlw.go.jp/26/index.php?action_kouhyou_detail_004_kani=true&JigyosyoCd=2674100439-00&ServiceCd=320&Type=search", "url2": "https://kaigo.rakuwa.or.jp/service/station/gh-kanshu2ban/" }, "geometry": { "type": "Point", "coordinates": [ 135.804328599999963, 34.9688306 ] } },
{ "type": "Feature", "properties": { "内容": "ヒューマンライフケア山科グループホーム【認知症対応型共同生活介護】西野山中鳥井町28", "url": "https://www.kaigokensaku.mhlw.go.jp/26/index.php?action_kouhyou_detail_004_kani=true&JigyosyoCd=2694100161-00&ServiceCd=320&Type=search", "url2": "https://kaigo.human-lifecare.jp/facilities/gh017_YamashinaGH/summary.html" }, "geometry": { "type": "Point", "coordinates": [ 135.79806936718137, 34.970580004098302 ] } },
{ "type": "Feature", "properties": { "内容": "グループホームたのしい家山科小野【認知症対応型共同生活介護】京都府京都市山科区勧修寺御所内町１２２", "url": "https://www.kaigokensaku.mhlw.go.jp/26/index.php?action_kouhyou_detail_004_kani=true&JigyosyoCd=2694100054-00&ServiceCd=320&Type=search", "url2": null }, "geometry": { "type": "Point", "coordinates": [ 135.810533299999946, 34.958234500000017 ] } },
{ "type": "Feature", "properties": { "内容": "グループホーム香東園やましな【認知症対応型共同生活介護】京都府京都市山科区西野野色町15-88地域密着型複合施設　香東園やましな", "url": "https://www.kaigokensaku.mhlw.go.jp/26/index.php?action_kouhyou_detail_004_kani=true&JigyosyoCd=2694100112-00&ServiceCd=320&Type=search", "url2": "hppt://www.koutouen.com/yamashina/" }, "geometry": { "type": "Point", "coordinates": [ 135.8045591, 34.9856813 ] } },
{ "type": "Feature", "properties": { "内容": "グループホームたのしい家山科音羽【認知症対応型共同生活介護】京都府京都市山科区音羽初田町5-1", "url": "https://www.kaigokensaku.mhlw.go.jp/26/index.php?action_kouhyou_detail_004_kani=true&JigyosyoCd=2694100195-00&ServiceCd=320&Type=search", "url2": null }, "geometry": { "type": "Point", "coordinates": [ 135.8207258, 34.9856678 ] } },
{ "type": "Feature", "properties": { "内容": "洛和グループホーム山科小山【認知症対応型共同生活介護】京都市山科区小山鎮守町9-1", "url": "https://www.kaigokensaku.mhlw.go.jp/26/index.php?action_kouhyou_detail_004_kani=true&JigyosyoCd=2694100039-00&ServiceCd=320&Type=search", "url2": "http://www.rakuwa.or.jp" }, "geometry": { "type": "Point", "coordinates": [ 135.83392559999993, 34.9873763 ] } },
{ "type": "Feature", "properties": { "内容": "洛和グループホーム山科鏡山【認知症対応型共同生活介護】京都市山科区北花山河原町8番地", "url": "https://www.kaigokensaku.mhlw.go.jp/26/index.php?action_kouhyou_detail_004_kani=true&JigyosyoCd=2694100070-00&ServiceCd=320&Type=search", "url2": "http://www.rakuwa.or.jp" }, "geometry": { "type": "Point", "coordinates": [ 135.8006623, 34.9881782 ] } },
{ "type": "Feature", "properties": { "内容": "洛和グループホーム山科西野【認知症対応型共同生活介護】京都市山科区西野広見町27-1", "url": "https://www.kaigokensaku.mhlw.go.jp/26/index.php?action_kouhyou_detail_004_kani=true&JigyosyoCd=2694100088-00&ServiceCd=320&Type=search", "url2": "http://www.rakuwa.or.jp" }, "geometry": { "type": "Point", "coordinates": [ 135.807725399999981, 34.9824957 ] } },
{ "type": "Feature", "properties": { "内容": "グループホーム上桂【認知症対応型共同生活介護】上桂北村町１１４番地", "url": "https://www.kaigokensaku.mhlw.go.jp/26/index.php?action_kouhyou_detail_004_kani=true&JigyosyoCd=2694000056-00&ServiceCd=320&Type=search", "url2": "http://www.hiragino.or.jp" }, "geometry": { "type": "Point", "coordinates": [ 135.699827300000038, 34.992401 ] } },
{ "type": "Feature", "properties": { "内容": "洛和グループホーム桂【認知症対応型共同生活介護】京都市西京区川島調子町35-1", "url": "https://www.kaigokensaku.mhlw.go.jp/26/index.php?action_kouhyou_detail_004_kani=true&JigyosyoCd=2674000316-00&ServiceCd=320&Type=search", "url2": "http://www.rakuwa.or.jp" }, "geometry": { "type": "Point", "coordinates": [ 135.687356200000067, 34.9768857 ] } },
{ "type": "Feature", "properties": { "内容": "グループホーム安らぎ【認知症対応型共同生活介護】京都市西京区御陵谷町29-2", "url": "https://www.kaigokensaku.mhlw.go.jp/26/index.php?action_kouhyou_detail_004_kani=true&JigyosyoCd=2690100058-00&ServiceCd=320&Type=search", "url2": "http://asahi-yasuragi.jimdo.com" }, "geometry": { "type": "Point", "coordinates": [ 135.687327690833001, 34.976827401766229 ] } },
{ "type": "Feature", "properties": { "内容": "愛の家グループホーム京都洛西【認知症対応型共同生活介護】大枝東長町1番地68", "url": "https://www.kaigokensaku.mhlw.go.jp/26/index.php?action_kouhyou_detail_004_kani=true&JigyosyoCd=2694000049-00&ServiceCd=320&Type=search", "url2": "gh-137@mcsg.co.jp" }, "geometry": { "type": "Point", "coordinates": [ 135.677728900000034, 34.9657005 ] } },
{ "type": "Feature", "properties": { "内容": "えくせれんと桂【認知症対応型共同生活介護】牛ヶ瀬西柿町75", "url": "https://www.kaigokensaku.mhlw.go.jp/26/index.php?action_kouhyou_detail_004_kani=true&JigyosyoCd=2694000098-00&ServiceCd=320&Type=search", "url2": "http://excare.co.jp/" }, "geometry": { "type": "Point", "coordinates": [ 135.716173776721234, 34.971088949889946 ] } },
{ "type": "Feature", "properties": { "内容": "グループホーム桂坂【認知症対応型共同生活介護】京都市西京区大枝北沓掛町１丁目２１番地の９４地域密着型サービスセンター桂坂", "url": "https://www.kaigokensaku.mhlw.go.jp/26/index.php?action_kouhyou_detail_004_kani=true&JigyosyoCd=2694000171-00&ServiceCd=320&Type=search", "url2": "http://katsurazaka.sakura.ne.jp" }, "geometry": { "type": "Point", "coordinates": [ 135.655618835582032, 34.988337098288646 ] } },
{ "type": "Feature", "properties": { "内容": "社会福祉法人　京都市社会福祉協議会　グループホームかたぎはら【認知症対応型共同生活介護】樫原百々ケ池３１番地の１８西京ふれあい地域福祉センター内", "url": "https://www.kaigokensaku.mhlw.go.jp/26/index.php?action_kouhyou_detail_004_kani=true&JigyosyoCd=2694000296-00&ServiceCd=320&Type=search", "url2": "https://www.syakyo-kyoto.net/katagihara/" }, "geometry": { "type": "Point", "coordinates": [ 135.688428149598764, 34.972200365290711 ] } },
{ "type": "Feature", "properties": { "内容": "グループホームラポールしらかば【認知症対応型共同生活介護】樫原盆山15番地8", "url": "https://www.kaigokensaku.mhlw.go.jp/26/index.php?action_kouhyou_detail_004_kani=true&JigyosyoCd=2674000209-00&ServiceCd=320&Type=search", "url2": "http://www.misyoukai.com" }, "geometry": { "type": "Point", "coordinates": [ 135.68725059999997, 34.9735999 ] } },
{ "type": "Feature", "properties": { "内容": "すいーと上桂【認知症対応型共同生活介護】京都府京都市西京区上桂前田町55-4", "url": "https://www.kaigokensaku.mhlw.go.jp/26/index.php?action_kouhyou_detail_004_kani=true&JigyosyoCd=2694000163-00&ServiceCd=320&Type=search", "url2": "http://www.excare.co.jp" }, "geometry": { "type": "Point", "coordinates": [ 135.699759790212966, 34.989183394855061 ] } },
{ "type": "Feature", "properties": { "内容": "すいーと嵐山【認知症対応型共同生活介護】京都府京都市西京区嵐山内田町25－4すいーと嵐山", "url": "https://www.kaigokensaku.mhlw.go.jp/26/index.php?action_kouhyou_detail_004_kani=true&JigyosyoCd=2694000205-00&ServiceCd=320&Type=search", "url2": "https://www.excare.co.jp/facility/03/arashiyama/" }, "geometry": { "type": "Point", "coordinates": [ 135.6840856, 35.0047856 ] } },
{ "type": "Feature", "properties": { "内容": "グループホームたのしい家桂【認知症対応型共同生活介護】京都府京都市西京区桂稲荷山町12番2", "url": "https://www.kaigokensaku.mhlw.go.jp/26/index.php?action_kouhyou_detail_004_kani=true&JigyosyoCd=2694000213-00&ServiceCd=320&Type=search", "url2": null }, "geometry": { "type": "Point", "coordinates": [ 138.252924, 36.204824 ] } },
{ "type": "Feature", "properties": { "内容": "グループホーム洛西【認知症対応型共同生活介護】大枝東長町１番地６１０", "url": "https://www.kaigokensaku.mhlw.go.jp/26/index.php?action_kouhyou_detail_004_kani=true&JigyosyoCd=2694000254-00&ServiceCd=320&Type=search", "url2": "http://sancyou-fukushikai.kyoto.jp/" }, "geometry": { "type": "Point", "coordinates": [ 135.677565000728464, 34.965512720561279 ] } },
{ "type": "Feature", "properties": { "内容": "はるかぜガーデン桂川【認知症対応型共同生活介護】京都府京都市西京区桂上野西町234医療法人近藤内科医院　はるかぜガーデン桂川", "url": "https://www.kaigokensaku.mhlw.go.jp/26/index.php?action_kouhyou_detail_004_kani=true&JigyosyoCd=2694000270-00&ServiceCd=320&Type=search", "url2": "http://www.harukaze-garden.or.jp/" }, "geometry": { "type": "Point", "coordinates": [ 135.700971699999968, 34.9953618 ] } },
{ "type": "Feature", "properties": { "内容": "ニチイケアセンター京都洛西【認知症対応型共同生活介護】大枝中山町3-3", "url": "https://www.kaigokensaku.mhlw.go.jp/26/index.php?action_kouhyou_detail_004_kani=true&JigyosyoCd=2694000411-00&ServiceCd=320&Type=search", "url2": null }, "geometry": { "type": "Point", "coordinates": [ 135.6760117, 34.9680498 ] } },
{ "type": "Feature", "properties": { "内容": "洛和グループホーム桂【認知症対応型共同生活介護】京都市西京区川島調子町３５－１", "url": "https://www.kaigokensaku.mhlw.go.jp/26/index.php?action_kouhyou_detail_004_kani=true&JigyosyoCd=2694000478-00&ServiceCd=320&Type=search", "url2": "http://www.rakuwa.or.jp" }, "geometry": { "type": "Point", "coordinates": [ 135.698323499999987, 34.973398 ] } },
{ "type": "Feature", "properties": { "内容": "グループホームソラスト金閣アネックス【認知症対応型共同生活介護】下津林楠町98-1", "url": "https://www.kaigokensaku.mhlw.go.jp/26/index.php?action_kouhyou_detail_004_kani=true&JigyosyoCd=2694000346-00&ServiceCd=320&Type=search", "url2": "www.solasto.co.jp" }, "geometry": { "type": "Point", "coordinates": [ 135.7103036, 34.9746268 ] } },
{ "type": "Feature", "properties": { "内容": "グループホームさくら【認知症対応型共同生活介護】京都市西京区大枝中山町２－４１", "url": "https://www.kaigokensaku.mhlw.go.jp/26/index.php?action_kouhyou_detail_004_kani=true&JigyosyoCd=2674000308-00&ServiceCd=320&Type=search", "url2": "https//asahi-care-service.com" }, "geometry": { "type": "Point", "coordinates": [ 135.677862299999987, 34.970253 ] } },
{ "type": "Feature", "properties": { "内容": "京都ケアセンターそよ風【認知症対応型共同生活介護】京都府京都市西京区大枝東新林町2-13", "url": "https://www.kaigokensaku.mhlw.go.jp/26/index.php?action_kouhyou_detail_004_kani=true&JigyosyoCd=2694000072-00&ServiceCd=320&Type=search", "url2": null }, "geometry": { "type": "Point", "coordinates": [ 135.674862500000017, 34.9685364 ] } },
{ "type": "Feature", "properties": { "内容": "愛の家グループホーム京都桂【認知症対応型共同生活介護】京都府京都市西京区桂上野東町135-1", "url": "https://www.kaigokensaku.mhlw.go.jp/26/index.php?action_kouhyou_detail_004_kani=true&JigyosyoCd=2694000155-00&ServiceCd=320&Type=search", "url2": "https://www.mcsg.co.jp" }, "geometry": { "type": "Point", "coordinates": [ 135.70418, 34.9946026 ] } },
{ "type": "Feature", "properties": { "内容": "ぐるーぷほーむ　森の家【認知症対応型共同生活介護】京都府福知山市夜久野町直見4番地の7", "url": "https://www.kaigokensaku.mhlw.go.jp/26/index.php?action_kouhyou_detail_004_kani=true&JigyosyoCd=2692600279-00&ServiceCd=320&Type=search", "url2": "nakaji-morinoie.com" }, "geometry": { "type": "Point", "coordinates": [ 134.9719551, 35.3700887 ] } },
{ "type": "Feature", "properties": { "内容": "グループホーム風花【認知症対応型共同生活介護】字行積１４１番地", "url": "https://www.kaigokensaku.mhlw.go.jp/26/index.php?action_kouhyou_detail_004_kani=true&JigyosyoCd=2692600212-00&ServiceCd=320&Type=search", "url2": "https://www.isuzukai.org/" }, "geometry": { "type": "Point", "coordinates": [ 135.087161599999945, 35.3985735 ] } },
{ "type": "Feature", "properties": { "内容": "今安ニコニコハウス【認知症対応型共同生活介護】京都府福知山市字今安1004番地の1", "url": "https://www.kaigokensaku.mhlw.go.jp/26/index.php?action_kouhyou_detail_004_kani=true&JigyosyoCd=2692600188-00&ServiceCd=320&Type=search", "url2": "http://www.nikonikoplaza.com" }, "geometry": { "type": "Point", "coordinates": [ 135.0894537, 35.2959478 ] } },
{ "type": "Feature", "properties": { "内容": "グループホーム　すこやかの家【認知症対応型共同生活介護】福知山市三和町友渕小字大原野79番地132", "url": "https://www.kaigokensaku.mhlw.go.jp/26/index.php?action_kouhyou_detail_004_kani=true&JigyosyoCd=2671900252-00&ServiceCd=320&Type=search", "url2": null }, "geometry": { "type": "Point", "coordinates": [ 135.270483415808144, 35.183649915561823 ] } },
{ "type": "Feature", "properties": { "内容": "グループホームえるむ【認知症対応型共同生活介護】京都府福知山市旭が丘92-2高齢者複合福祉施設えるむ", "url": "https://www.kaigokensaku.mhlw.go.jp/26/index.php?action_kouhyou_detail_004_kani=true&JigyosyoCd=2692600162-00&ServiceCd=320&Type=search", "url2": "http://www.skymind,jp" }, "geometry": { "type": "Point", "coordinates": [ 135.11779439999998, 35.2885927 ] } },
{ "type": "Feature", "properties": { "内容": "社会福祉法人　みつみ福祉会　認知症高齢者　グループホーム　とだ【認知症対応型共同生活介護】京都府福知山市字戸田小字宮ノ段82", "url": "https://www.kaigokensaku.mhlw.go.jp/26/index.php?action_kouhyou_detail_004_kani=true&JigyosyoCd=2692600030-00&ServiceCd=320&Type=search", "url2": "http://www.mitsumi.or.jp/toda/" }, "geometry": { "type": "Point", "coordinates": [ 135.126562799999988, 35.2967 ] } },
{ "type": "Feature", "properties": { "内容": "やすらぎ苑しょうちゃんの家【認知症対応型共同生活介護】京都府舞鶴市字安岡小字中山1076番地", "url": "https://www.kaigokensaku.mhlw.go.jp/26/index.php?action_kouhyou_detail_004_kani=true&JigyosyoCd=2692700046-00&ServiceCd=320&Type=search", "url2": "http://dajukai.jp/" }, "geometry": { "type": "Point", "coordinates": [ 135.385991800000056, 35.4747971 ] } },
{ "type": "Feature", "properties": { "内容": "モンファミーユ舞鶴【認知症対応型共同生活介護】舞鶴市大字和田小字中田1065", "url": "https://www.kaigokensaku.mhlw.go.jp/26/index.php?action_kouhyou_detail_004_kani=true&JigyosyoCd=2672700297-00&ServiceCd=320&Type=search", "url2": "https://seihoukai-grp.jp/facility_post/maizuru-gh" }, "geometry": { "type": "Point", "coordinates": [ 135.342501047962969, 35.472524454074495 ] } },
{ "type": "Feature", "properties": { "内容": "医療法人社団　外松医院　　ハーモニーグループホーム【認知症対応型共同生活介護】京都府舞鶴市字竹屋９８番地の１", "url": "https://www.kaigokensaku.mhlw.go.jp/26/index.php?action_kouhyou_detail_004_kani=true&JigyosyoCd=2692700020-00&ServiceCd=320&Type=search", "url2": "https://www.sotomatsu-iin.com" }, "geometry": { "type": "Point", "coordinates": [ 135.326556100000062, 35.4505158 ] } },
{ "type": "Feature", "properties": { "内容": "グループ・ホーム　舞夢【認知症対応型共同生活介護】舞鶴市字桑飼上小字深田１０８８番地1", "url": "https://www.kaigokensaku.mhlw.go.jp/26/index.php?action_kouhyou_detail_004_kani=true&JigyosyoCd=2692700053-00&ServiceCd=320&Type=search", "url2": "http://www.maimu.jp/" }, "geometry": { "type": "Point", "coordinates": [ 135.218924, 35.4222532 ] } },
{ "type": "Feature", "properties": { "内容": "医療法人弘愛会西村内科グループホームさくらプラザ倉梯【認知症対応型共同生活介護】京都府舞鶴市倉梯中町３番地の２", "url": "https://www.kaigokensaku.mhlw.go.jp/26/index.php?action_kouhyou_detail_004_kani=true&JigyosyoCd=2672700313-00&ServiceCd=320&Type=search", "url2": "http://www.eonet.ne.jp/~sakuraplaza/" }, "geometry": { "type": "Point", "coordinates": [ 135.395702300000039, 35.4614793 ] } },
{ "type": "Feature", "properties": { "内容": "ニチイケアセンターゆらの里【認知症対応型共同生活介護】綾部市豊里町福垣243番地", "url": "https://www.kaigokensaku.mhlw.go.jp/26/index.php?action_kouhyou_detail_004_kani=true&JigyosyoCd=2691800102-00&ServiceCd=320&Type=search", "url2": null }, "geometry": { "type": "Point", "coordinates": [ 135.214361727964018, 35.321659535302629 ] } },
{ "type": "Feature", "properties": { "内容": "グループホーム京都綾部こすもすの郷1号館【認知症対応型共同生活介護】京都府綾部市高津町遠所1番621", "url": "https://www.kaigokensaku.mhlw.go.jp/26/index.php?action_kouhyou_detail_004_kani=true&JigyosyoCd=2691800086-00&ServiceCd=320&Type=search", "url2": "http://www.shinseifukushikai.jp/anzu/" }, "geometry": { "type": "Point", "coordinates": [ 135.2176627, 35.3042849 ] } },
{ "type": "Feature", "properties": { "内容": "グループホーム京都綾部こすもすの郷2号館【認知症対応型共同生活介護】京都府綾部市高津町遠所1番621", "url": "https://www.kaigokensaku.mhlw.go.jp/26/index.php?action_kouhyou_detail_004_kani=true&JigyosyoCd=2691800136-00&ServiceCd=320&Type=search", "url2": "http://shinseifukushikai.jp/anzu/" }, "geometry": { "type": "Point", "coordinates": [ 135.217659499999968, 35.3042363 ] } },
{ "type": "Feature", "properties": { "内容": "グループホームたのやま【認知症対応型共同生活介護】京都府綾部市田野町田野山２番地１８３", "url": "https://www.kaigokensaku.mhlw.go.jp/26/index.php?action_kouhyou_detail_004_kani=true&JigyosyoCd=2671800155-00&ServiceCd=320&Type=search", "url2": "http://www.asjn.jp" }, "geometry": { "type": "Point", "coordinates": [ 135.247252200000048, 35.2869788 ] } },
{ "type": "Feature", "properties": { "内容": "ミストラルとよさと【認知症対応型共同生活介護】京都府綾部市栗町土居ノ内31", "url": "https://www.kaigokensaku.mhlw.go.jp/26/index.php?action_kouhyou_detail_004_kani=true&JigyosyoCd=2691800078-00&ServiceCd=320&Type=search", "url2": "http://www.mistralservice.co.jp/" }, "geometry": { "type": "Point", "coordinates": [ 135.22428119999995, 35.3159055 ] } },
{ "type": "Feature", "properties": { "内容": "宇治グループホームそよ風【認知症対応型共同生活介護】京都府宇治市広野町西裏42番地の5", "url": "https://www.kaigokensaku.mhlw.go.jp/26/index.php?action_kouhyou_detail_004_kani=true&JigyosyoCd=2691200287-00&ServiceCd=320&Type=search", "url2": "http://www.unimat-rc.co.jp/" }, "geometry": { "type": "Point", "coordinates": [ 135.779146200000014, 34.876574 ] } },
{ "type": "Feature", "properties": { "内容": "グループホーム　リエゾン宇治おおくぼ【認知症対応型共同生活介護】京都府宇治市大久保町山ノ内55-2", "url": "https://www.kaigokensaku.mhlw.go.jp/26/index.php?action_kouhyou_detail_004_kani=true&JigyosyoCd=2691200188-00&ServiceCd=320&Type=search", "url2": "http://www.kyoto-keishinkai.or.jp/" }, "geometry": { "type": "Point", "coordinates": [ 135.77273, 34.8711676 ] } },
{ "type": "Feature", "properties": { "内容": "グループホームまごころ大久保【認知症対応型共同生活介護】京都府宇治市広野町宮谷69番1", "url": "https://www.kaigokensaku.mhlw.go.jp/26/index.php?action_kouhyou_detail_004_kani=true&JigyosyoCd=2691200030-00&ServiceCd=320&Type=search", "url2": "https://www.micro-fukushikai.or.jp/" }, "geometry": { "type": "Point", "coordinates": [ 135.785545400000046, 34.873334 ] } },
{ "type": "Feature", "properties": { "内容": "洛和グループホーム宇治【認知症対応型共同生活介護】京都府宇治市宇治山本２５－２", "url": "https://www.kaigokensaku.mhlw.go.jp/26/index.php?action_kouhyou_detail_004_kani=true&JigyosyoCd=2671200471-00&ServiceCd=320&Type=search", "url2": "http://www.rakuwa.or.jp" }, "geometry": { "type": "Point", "coordinates": [ 135.810268375418389, 34.894560001039672 ] } },
{ "type": "Feature", "properties": { "内容": "グループホームまごころ西宇治【認知症対応型共同生活介護】京都府宇治市伊勢田町中山45番1", "url": "https://www.kaigokensaku.mhlw.go.jp/26/index.php?action_kouhyou_detail_004_kani=true&JigyosyoCd=2691200071-00&ServiceCd=320&Type=search", "url2": "https://www.micro-fukushikai.or.jp" }, "geometry": { "type": "Point", "coordinates": [ 135.7770511, 34.8829551 ] } },
{ "type": "Feature", "properties": { "内容": "グループホームヴィラ鳳凰【認知症対応型共同生活介護】京都府宇治市宇治里尻36番35", "url": "https://www.kaigokensaku.mhlw.go.jp/26/index.php?action_kouhyou_detail_004_kani=true&JigyosyoCd=2691200212-00&ServiceCd=320&Type=search", "url2": "https://www.takedahp.or.jp/group/welfare/kyotoninchisho02/villa_h.html" }, "geometry": { "type": "Point", "coordinates": [ 135.801778799999965, 34.8929819 ] } },
{ "type": "Feature", "properties": { "内容": "グループホーム鳳凰槇島【認知症対応型共同生活介護】京都府宇治市槇島町大川原35-5", "url": "https://www.kaigokensaku.mhlw.go.jp/26/index.php?action_kouhyou_detail_004_kani=true&JigyosyoCd=2691200154-00&ServiceCd=320&Type=search", "url2": "http://www.takedahp.or.jp/" }, "geometry": { "type": "Point", "coordinates": [ 135.782220557147184, 34.905064373831422 ] } },
{ "type": "Feature", "properties": { "内容": "ヤマト株式会社　ニングルの森　平尾【認知症対応型共同生活介護】京都府宇治市平尾台一丁目3-8", "url": "https://www.kaigokensaku.mhlw.go.jp/26/index.php?action_kouhyou_detail_004_kani=true&JigyosyoCd=2671200117-00&ServiceCd=320&Type=search", "url2": "http://www.ninguru.co.jp/" }, "geometry": { "type": "Point", "coordinates": [ 135.8118829, 34.9242709 ] } },
{ "type": "Feature", "properties": { "内容": "グループホームニングルの森木幡【認知症対応型共同生活介護】京都府宇治市木幡中村29番地2", "url": "https://www.kaigokensaku.mhlw.go.jp/26/index.php?action_kouhyou_detail_004_kani=true&JigyosyoCd=2691200097-00&ServiceCd=320&Type=search", "url2": "http://www.ninguru.co.jp/" }, "geometry": { "type": "Point", "coordinates": [ 135.7986869, 34.9221985 ] } },
{ "type": "Feature", "properties": { "内容": "グループホームおりーぶ【認知症対応型共同生活介護】京都府宇治市神明宮北２２-３８", "url": "https://www.kaigokensaku.mhlw.go.jp/26/index.php?action_kouhyou_detail_004_kani=true&JigyosyoCd=2691200279-00&ServiceCd=320&Type=search", "url2": "https://care-net.biz/26/wahhahha1088/" }, "geometry": { "type": "Point", "coordinates": [ 135.7886316, 34.8806608 ] } },
{ "type": "Feature", "properties": { "内容": "グループホームすみれ【認知症対応型共同生活介護】京都府宇治市神明石塚25-21", "url": "https://www.kaigokensaku.mhlw.go.jp/26/index.php?action_kouhyou_detail_004_kani=true&JigyosyoCd=2691200238-00&ServiceCd=320&Type=search", "url2": "http://care-net.biz/26/wahhahha1088/" }, "geometry": { "type": "Point", "coordinates": [ 135.7904638, 34.882732900000015 ] } },
{ "type": "Feature", "properties": { "内容": "グループホームナイスライフいせだ【認知症対応型共同生活介護】京都府宇治市伊勢田町毛語27-1", "url": "https://www.kaigokensaku.mhlw.go.jp/26/index.php?action_kouhyou_detail_004_kani=true&JigyosyoCd=2671200307-00&ServiceCd=320&Type=search", "url2": "http://www.myoujyo.or.jp/" }, "geometry": { "type": "Point", "coordinates": [ 135.773168199999986, 34.8823218 ] } },
{ "type": "Feature", "properties": { "内容": "グループホームなごみの里伊勢田【認知症対応型共同生活介護】京都府宇治市伊勢田町毛語45番地", "url": "https://www.kaigokensaku.mhlw.go.jp/26/index.php?action_kouhyou_detail_004_kani=true&JigyosyoCd=2671200331-00&ServiceCd=320&Type=search", "url2": "http://www.myoujyo.or.jp" }, "geometry": { "type": "Point", "coordinates": [ 135.774665199999959, 34.8830912 ] } },
{ "type": "Feature", "properties": { "内容": "社会福祉法人柏樹会グループホームやまぶきの郷【認知症対応型共同生活介護】莵道段ノ上20-1", "url": "https://www.kaigokensaku.mhlw.go.jp/26/index.php?action_kouhyou_detail_004_kani=true&JigyosyoCd=2691200329-00&ServiceCd=320&Type=search", "url2": null }, "geometry": { "type": "Point", "coordinates": [ 135.8121802, 34.903645700000041 ] } },
{ "type": "Feature", "properties": { "内容": "地域密着サービス　ハーモニーやまはた【認知症対応型共同生活介護】京都府宇治市木幡北山畑23-1", "url": "https://www.kaigokensaku.mhlw.go.jp/26/index.php?action_kouhyou_detail_004_kani=true&JigyosyoCd=2691200162-00&ServiceCd=320&Type=search", "url2": "http://www.kurashino-harmony.or.jp/" }, "geometry": { "type": "Point", "coordinates": [ 135.799753399999986, 34.9243928 ] } },
{ "type": "Feature", "properties": { "内容": "そうごうケアホーム六地蔵【認知症対応型共同生活介護】京都府宇治市木幡赤塚24-6", "url": "https://www.kaigokensaku.mhlw.go.jp/26/index.php?action_kouhyou_detail_004_kani=true&JigyosyoCd=2691200337-00&ServiceCd=320&Type=search", "url2": "http://www.sogo-care.co.jp" }, "geometry": { "type": "Point", "coordinates": [ 135.803656600000011, 34.9322883 ] } },
{ "type": "Feature", "properties": { "内容": "グループホーム　メイプルリーフ【認知症対応型共同生活介護】木幡南山74-7", "url": "https://www.kaigokensaku.mhlw.go.jp/26/index.php?action_kouhyou_detail_004_kani=true&JigyosyoCd=2671200109-00&ServiceCd=320&Type=search", "url2": "http://www.ujimepleleaf.com/" }, "geometry": { "type": "Point", "coordinates": [ 135.809433099999978, 34.9201906 ] } },
{ "type": "Feature", "properties": { "内容": "グループホームメイプルリーフ宇治【認知症対応型共同生活介護】宇治市槇島町本屋敷１０－１", "url": "https://www.kaigokensaku.mhlw.go.jp/26/index.php?action_kouhyou_detail_004_kani=true&JigyosyoCd=2671200364-00&ServiceCd=320&Type=search", "url2": "http://www.ujimapleleaf.com/" }, "geometry": { "type": "Point", "coordinates": [ 135.777655399999958, 34.9135488 ] } },
{ "type": "Feature", "properties": { "内容": "宇治やすらぎの家【認知症対応型共同生活介護】宇治市戸ノ内22-6", "url": "https://www.kaigokensaku.mhlw.go.jp/26/index.php?action_kouhyou_detail_004_kani=true&JigyosyoCd=2691200105-00&ServiceCd=320&Type=search", "url2": "https://fudouen.com/" }, "geometry": { "type": "Point", "coordinates": [ 135.8003809, 34.8909935 ] } },
{ "type": "Feature", "properties": { "内容": "グループホームおおわだの郷【認知症対応型共同生活介護】京都府宇治五ケ庄折坂55-1", "url": "https://www.kaigokensaku.mhlw.go.jp/26/index.php?action_kouhyou_detail_004_kani=true&JigyosyoCd=2691200311-00&ServiceCd=320&Type=search", "url2": null }, "geometry": { "type": "Point", "coordinates": [ 135.806314674868815, 34.909376819953863 ] } },
{ "type": "Feature", "properties": { "内容": "ニチイケアセンター三室戸【認知症対応型共同生活介護】京都府宇治市莵道薮里３７番地", "url": "https://www.kaigokensaku.mhlw.go.jp/26/index.php?action_kouhyou_detail_004_kani=true&JigyosyoCd=2691200220-00&ServiceCd=320&Type=search", "url2": "https://www.nichiigakkan.co.jp" }, "geometry": { "type": "Point", "coordinates": [ 135.809897099999944, 34.9010868 ] } },
{ "type": "Feature", "properties": { "内容": "グループホーム天橋の家【認知症対応型共同生活介護】京都府宮津市字宮村1277番地", "url": "https://www.kaigokensaku.mhlw.go.jp/26/index.php?action_kouhyou_detail_004_kani=true&JigyosyoCd=2672100027-00&ServiceCd=320&Type=search", "url2": "http://www.hokuseikai.or.jp" }, "geometry": { "type": "Point", "coordinates": [ 135.200556680287178, 35.530930839415205 ] } },
{ "type": "Feature", "properties": { "内容": "グループホームせいらん【認知症対応型共同生活介護】京都府宮津市字小松下ヶ濱３２６番地の１", "url": "https://www.kaigokensaku.mhlw.go.jp/26/index.php?action_kouhyou_detail_004_kani=true&JigyosyoCd=2692100023-00&ServiceCd=320&Type=search", "url2": "http://www.seiransou.jp" }, "geometry": { "type": "Point", "coordinates": [ 135.187399173549665, 35.578642118272384 ] } },
{ "type": "Feature", "properties": { "内容": "グループホーム亀岡陽風荘【認知症対応型共同生活介護】亀岡市本梅町東加舎九日田9-6", "url": "https://www.kaigokensaku.mhlw.go.jp/26/index.php?action_kouhyou_detail_004_kani=true&JigyosyoCd=2691600049-00&ServiceCd=320&Type=search", "url2": "http://kameoka-yofusou.purerowju.com/" }, "geometry": { "type": "Point", "coordinates": [ 135.481551299999978, 35.0060504 ] } },
{ "type": "Feature", "properties": { "内容": "グループホーム亀岡清泉荘【認知症対応型共同生活介護】曽我部町南条下河原8番", "url": "https://www.kaigokensaku.mhlw.go.jp/26/index.php?action_kouhyou_detail_004_kani=true&JigyosyoCd=2691600072-00&ServiceCd=320&Type=search", "url2": "http://www.care-community.co.jp/" }, "geometry": { "type": "Point", "coordinates": [ 135.5524193, 34.9989373 ] } },
{ "type": "Feature", "properties": { "内容": "医療法人亀岡病院　けやきグループホーム【認知症対応型共同生活介護】京都府亀岡市追分町八ノ坪43-8", "url": "https://www.kaigokensaku.mhlw.go.jp/26/index.php?action_kouhyou_detail_004_kani=true&JigyosyoCd=2691600106-00&ServiceCd=320&Type=search", "url2": "http://www.kameokahp.com/" }, "geometry": { "type": "Point", "coordinates": [ 135.5766893, 35.0169606 ] } },
{ "type": "Feature", "properties": { "内容": "あゆみの家【認知症対応型共同生活介護】京都府亀岡市篠町篠下中筋44番地5", "url": "https://www.kaigokensaku.mhlw.go.jp/26/index.php?action_kouhyou_detail_004_kani=true&JigyosyoCd=2691600031-00&ServiceCd=320&Type=search", "url2": "http://www.kameoka-ayumi.com/index.html" }, "geometry": { "type": "Point", "coordinates": [ 135.611024899999961, 35.0053206 ] } },
{ "type": "Feature", "properties": { "内容": "グループホーム三愛の里【認知症対応型共同生活介護】京都府亀岡市千歳町千歳白髭17番地", "url": "https://www.kaigokensaku.mhlw.go.jp/26/index.php?action_kouhyou_detail_004_kani=true&JigyosyoCd=2671600233-00&ServiceCd=320&Type=search", "url2": "http://san-ainosato.com" }, "geometry": { "type": "Point", "coordinates": [ 135.58036130000005, 35.0576271 ] } },
{ "type": "Feature", "properties": { "内容": "グループホーム三愛の里うつね【認知症対応型共同生活介護】京都府亀岡市宇津根町土井ノ内48番地１", "url": "https://www.kaigokensaku.mhlw.go.jp/26/index.php?action_kouhyou_detail_004_kani=true&JigyosyoCd=2691600114-00&ServiceCd=320&Type=search", "url2": "http://san-ainosato.com/" }, "geometry": { "type": "Point", "coordinates": [ 135.567358799999965, 35.023023900000034 ] } },
{ "type": "Feature", "properties": { "内容": "グループホーム　つつじの家【認知症対応型共同生活介護】京都府亀岡市篠町広田１丁目３１－２０", "url": "https://www.kaigokensaku.mhlw.go.jp/26/index.php?action_kouhyou_detail_004_kani=true&JigyosyoCd=2691600023-00&ServiceCd=320&Type=search", "url2": null }, "geometry": { "type": "Point", "coordinates": [ 135.595373600000016, 35.0040398 ] } },
{ "type": "Feature", "properties": { "内容": "すずらん【認知症対応型共同生活介護】京都府亀岡市余部町中条17番地", "url": "https://www.kaigokensaku.mhlw.go.jp/26/index.php?action_kouhyou_detail_004_kani=true&JigyosyoCd=2691600015-00&ServiceCd=320&Type=search", "url2": "http://www.yuaien.or.jp" }, "geometry": { "type": "Point", "coordinates": [ 135.567173700000012, 35.0183605 ] } },
{ "type": "Feature", "properties": { "内容": "グループホームひだまり浜道裏【認知症対応型共同生活介護】京都府城陽市平川浜道裏29－5", "url": "https://www.kaigokensaku.mhlw.go.jp/26/index.php?action_kouhyou_detail_004_kani=true&JigyosyoCd=2692800036-00&ServiceCd=320&Type=search", "url2": "http://www.joyofukushikai.com/" }, "geometry": { "type": "Point", "coordinates": [ 135.764475299999958, 34.8673847 ] } },
{ "type": "Feature", "properties": { "内容": "グループホームゆうあい寺田【認知症対応型共同生活介護】城陽市寺田乾出北４５番地", "url": "https://www.kaigokensaku.mhlw.go.jp/26/index.php?action_kouhyou_detail_004_kani=true&JigyosyoCd=2692800044-00&ServiceCd=320&Type=search", "url2": "https://uihm.jp/" }, "geometry": { "type": "Point", "coordinates": [ 135.770263699999987, 34.8560801 ] } },
{ "type": "Feature", "properties": { "内容": "グループホームまごころ城陽【認知症対応型共同生活介護】京都府城陽市富野南清水68番5", "url": "https://www.kaigokensaku.mhlw.go.jp/26/index.php?action_kouhyou_detail_004_kani=true&JigyosyoCd=2672800204-00&ServiceCd=320&Type=search", "url2": "https://www.micro-fukushikai.or.jp/" }, "geometry": { "type": "Point", "coordinates": [ 135.788931400000024, 34.839851 ] } },
{ "type": "Feature", "properties": { "内容": "グループホーム　リエゾン萌木の村【認知症対応型共同生活介護】京都府城陽市寺田新池65-1", "url": "https://www.kaigokensaku.mhlw.go.jp/26/index.php?action_kouhyou_detail_004_kani=true&JigyosyoCd=2692800028-00&ServiceCd=320&Type=search", "url2": "http://www.kyoto-keishinkai.or.jp/" }, "geometry": { "type": "Point", "coordinates": [ 135.783406900000045, 34.8479753 ] } },
{ "type": "Feature", "properties": { "内容": "社会福祉法人和光会グループホーム梅林園【認知症対応型共同生活介護】京都府城陽市中芦原55", "url": "https://www.kaigokensaku.mhlw.go.jp/26/index.php?action_kouhyou_detail_004_kani=true&JigyosyoCd=2672800071-00&ServiceCd=320&Type=search", "url2": "https://bairinen.jp/" }, "geometry": { "type": "Point", "coordinates": [ 135.819581500000027, 34.8322776 ] } },
{ "type": "Feature", "properties": { "内容": "グループホーム友愛【認知症対応型共同生活介護】城陽市市辺中垣内４番地", "url": "https://www.kaigokensaku.mhlw.go.jp/26/index.php?action_kouhyou_detail_004_kani=true&JigyosyoCd=2672800147-00&ServiceCd=320&Type=search", "url2": "http://uikaigo.sakura.ne.jp" }, "geometry": { "type": "Point", "coordinates": [ 135.804880200000071, 34.8252306 ] } },
{ "type": "Feature", "properties": { "内容": "グループホームひだまり鍜治塚【認知症対応型共同生活介護】京都府城陽市平川鍜治塚53番地", "url": "https://www.kaigokensaku.mhlw.go.jp/26/index.php?action_kouhyou_detail_004_kani=true&JigyosyoCd=2692800069-00&ServiceCd=320&Type=search", "url2": "http://www.joyofukushikai.com/" }, "geometry": { "type": "Point", "coordinates": [ 135.779220389549238, 34.867594761656875 ] } },
{ "type": "Feature", "properties": { "内容": "キャビックケアホーム　すいーとハンズ向日【認知症対応型共同生活介護】京都府向日市上植野町下川原46-4", "url": "https://www.kaigokensaku.mhlw.go.jp/26/index.php?action_kouhyou_detail_004_kani=true&JigyosyoCd=2693100022-00&ServiceCd=320&Type=search", "url2": "ooishi@cabik.co.jp" }, "geometry": { "type": "Point", "coordinates": [ 135.699957, 34.935992 ] } },
{ "type": "Feature", "properties": { "内容": "キャビックケアホームすぃーとハンズ物集女【認知症対応型共同生活介護】物集女町五ノ坪21-4", "url": "https://www.kaigokensaku.mhlw.go.jp/26/index.php?action_kouhyou_detail_004_kani=true&JigyosyoCd=2693100030-00&ServiceCd=320&Type=search", "url2": "http://www.cabikcare.jp/carehome/mozume" }, "geometry": { "type": "Point", "coordinates": [ 135.698505100000034, 34.9641147 ] } },
{ "type": "Feature", "properties": { "内容": "グループホームソラストかいで【認知症対応型共同生活介護】京都府向日市鶏冠井町祓所67", "url": "https://www.kaigokensaku.mhlw.go.jp/26/index.php?action_kouhyou_detail_004_kani=true&JigyosyoCd=2693100089-00&ServiceCd=320&Type=search", "url2": null }, "geometry": { "type": "Point", "coordinates": [ 135.7044296, 34.9434157 ] } },
{ "type": "Feature", "properties": { "内容": "長岡京ケアハートガーデングループホーム「西山の郷」【認知症対応型共同生活介護】京都府長岡京市奥海印寺多貝垣外17-1", "url": "https://www.kaigokensaku.mhlw.go.jp/26/index.php?action_kouhyou_detail_004_kani=true&JigyosyoCd=2673000127-00&ServiceCd=320&Type=search", "url2": "http://www.mdlife.co.jp" }, "geometry": { "type": "Point", "coordinates": [ 135.676441019071206, 34.923607472473059 ] } },
{ "type": "Feature", "properties": { "内容": "グループホーム　ローズマリー【認知症対応型共同生活介護】京都府長岡京市友岡4丁目17番8号（4丁目43番地）", "url": "https://www.kaigokensaku.mhlw.go.jp/26/index.php?action_kouhyou_detail_004_kani=true&JigyosyoCd=2693000123-00&ServiceCd=320&Type=search", "url2": "http://www.nagaoka.or.jp/rosemary/" }, "geometry": { "type": "Point", "coordinates": [ 135.690064067459133, 34.914486343362803 ] } },
{ "type": "Feature", "properties": { "内容": "ニチイケアセンター長岡京　グループホームニチイのほほえみ【認知症対応型共同生活介護】京都府長岡京市神足芝本4番", "url": "https://www.kaigokensaku.mhlw.go.jp/26/index.php?action_kouhyou_detail_004_kani=true&JigyosyoCd=2693000073-00&ServiceCd=320&Type=search", "url2": "http://www.nichii-kaigo.jp/base/base-result/05F50/" }, "geometry": { "type": "Point", "coordinates": [ 135.706554489826999, 34.922072988698368 ] } },
{ "type": "Feature", "properties": { "内容": "プラチナ・グループホーム長岡京【認知症対応型共同生活介護】京都府長岡京市開田4丁目20番21号", "url": "https://www.kaigokensaku.mhlw.go.jp/26/index.php?action_kouhyou_detail_004_kani=true&JigyosyoCd=2693000214-00&ServiceCd=320&Type=search", "url2": "https://lakes21.co.jp" }, "geometry": { "type": "Point", "coordinates": [ 135.694509900000014, 34.9222301 ] } },
{ "type": "Feature", "properties": { "内容": "せんしゅんかいグループホーム小春【認知症対応型共同生活介護】京都府長岡京市今里庄ノ渕32せんしゅんかい　介護複合施設　今里", "url": "https://www.kaigokensaku.mhlw.go.jp/26/index.php?action_kouhyou_detail_004_kani=true&JigyosyoCd=2693000131-00&ServiceCd=320&Type=search", "url2": "http://www.senshunkai.or.jp" }, "geometry": { "type": "Point", "coordinates": [ 135.691907, 34.937082400000023 ] } },
{ "type": "Feature", "properties": { "内容": "長岡京ケアハートガーデングループホーム「今里」【認知症対応型共同生活介護】京都府長岡京市今里畔町21-1", "url": "https://www.kaigokensaku.mhlw.go.jp/26/index.php?action_kouhyou_detail_004_kani=true&JigyosyoCd=2693000230-00&ServiceCd=320&Type=search", "url2": null }, "geometry": { "type": "Point", "coordinates": [ 135.6921221, 34.9390696 ] } },
{ "type": "Feature", "properties": { "内容": "グループホームだいのじ【認知症対応型共同生活介護】京都府長岡京市奥海印寺竹ノ下１８－１", "url": "https://www.kaigokensaku.mhlw.go.jp/26/index.php?action_kouhyou_detail_004_kani=true&JigyosyoCd=2693000099-00&ServiceCd=320&Type=search", "url2": "kagudouraku.com" }, "geometry": { "type": "Point", "coordinates": [ 135.6718266, 34.9235247 ] } },
{ "type": "Feature", "properties": { "内容": "長岡京ケアハートガーデン　グループホーム「西山の郷」【認知症対応型共同生活介護】奥海印寺多貝垣外１７－１", "url": "https://www.kaigokensaku.mhlw.go.jp/26/index.php?action_kouhyou_detail_004_kani=true&JigyosyoCd=2693000222-00&ServiceCd=320&Type=search", "url2": null }, "geometry": { "type": "Point", "coordinates": [ 135.676347260713186, 34.922825529145591 ] } },
{ "type": "Feature", "properties": { "内容": "グループホーム京都ひまわり園【認知症対応型共同生活介護】京都府八幡市八幡清水井20番地", "url": "https://www.kaigokensaku.mhlw.go.jp/26/index.php?action_kouhyou_detail_004_kani=true&JigyosyoCd=2672900293-00&ServiceCd=320&Type=search", "url2": "http://www.ws-kyoto.jp/" }, "geometry": { "type": "Point", "coordinates": [ 135.701702100000034, 34.8721663 ] } },
{ "type": "Feature", "properties": { "内容": "グループホームふくろくの郷【認知症対応型共同生活介護】八幡市八幡福禄谷166番地1", "url": "https://www.kaigokensaku.mhlw.go.jp/26/index.php?action_kouhyou_detail_004_kani=true&JigyosyoCd=2692900067-00&ServiceCd=320&Type=search", "url2": "http://www.kiyoukai.com" }, "geometry": { "type": "Point", "coordinates": [ 135.697994466934233, 34.854560569019895 ] } },
{ "type": "Feature", "properties": { "内容": "洛和グループホーム八幡橋本【認知症対応型共同生活介護】京都府八幡市橋本東原６５番地４", "url": "https://www.kaigokensaku.mhlw.go.jp/26/index.php?action_kouhyou_detail_004_kani=true&JigyosyoCd=2692900059-00&ServiceCd=320&Type=search", "url2": "https://kaigo.rakuwa.or.jp/service/station/gh-yawata/" }, "geometry": { "type": "Point", "coordinates": [ 135.684753799999953, 34.8754539 ] } },
{ "type": "Feature", "properties": { "内容": "医療法人啓信会　グループホームリエゾン健康村【認知症対応型共同生活介護】京都府京田辺市大住大坪55-14リエゾン健康村", "url": "https://www.kaigokensaku.mhlw.go.jp/26/index.php?action_kouhyou_detail_004_kani=true&JigyosyoCd=2693200020-00&ServiceCd=320&Type=search", "url2": "http://www.kyoto-keishinkai.or.jp" }, "geometry": { "type": "Point", "coordinates": [ 135.7571815, 34.8305658 ] } },
{ "type": "Feature", "properties": { "内容": "洛和グループホーム京田辺【認知症対応型共同生活介護】京都府京田辺市興戸郡塚57-3", "url": "https://www.kaigokensaku.mhlw.go.jp/26/index.php?action_kouhyou_detail_004_kani=true&JigyosyoCd=2673200263-00&ServiceCd=320&Type=search", "url2": "http://www.rakuwa.or.jp" }, "geometry": { "type": "Point", "coordinates": [ 135.771683400000029, 34.8074984 ] } },
{ "type": "Feature", "properties": { "内容": "医療法人健和会　ふれあいの里京田辺【認知症対応型共同生活介護】京都府京田辺市宮津池ノ内36番地", "url": "https://www.kaigokensaku.mhlw.go.jp/26/index.php?action_kouhyou_detail_004_kani=true&JigyosyoCd=2693200012-00&ServiceCd=320&Type=search", "url2": null }, "geometry": { "type": "Point", "coordinates": [ 135.786518699999988, 34.7904471 ] } },
{ "type": "Feature", "properties": { "内容": "ニチイケアセンター京田辺【認知症対応型共同生活介護】京田辺市興戸北落延４４－１", "url": "https://www.kaigokensaku.mhlw.go.jp/26/index.php?action_kouhyou_detail_004_kani=true&JigyosyoCd=2693200053-00&ServiceCd=320&Type=search", "url2": null }, "geometry": { "type": "Point", "coordinates": [ 135.781546599999956, 34.8079983 ] } },
{ "type": "Feature", "properties": { "内容": "グループホームいきがい【認知症対応型共同生活介護】京都府京丹後市久美浜町湊宮467番地の60", "url": "https://www.kaigokensaku.mhlw.go.jp/26/index.php?action_kouhyou_detail_004_kani=true&JigyosyoCd=2672400062-00&ServiceCd=320&Type=search", "url2": "http://taiyoufukushikai.jp/" }, "geometry": { "type": "Point", "coordinates": [ 134.925792, 35.6416938 ] } },
{ "type": "Feature", "properties": { "内容": "高齢者グループホームいわきの里【認知症対応型共同生活介護】京都府京丹後市丹後町岩木985番地", "url": "https://www.kaigokensaku.mhlw.go.jp/26/index.php?action_kouhyou_detail_004_kani=true&JigyosyoCd=2673300071-00&ServiceCd=320&Type=search", "url2": "http://www.ichigaoenn.com" }, "geometry": { "type": "Point", "coordinates": [ 135.1093363, 35.7210109 ] } },
{ "type": "Feature", "properties": { "内容": "グループホーム　あみの【認知症対応型共同生活介護】京都府京丹後市網野町網野390-10", "url": "https://www.kaigokensaku.mhlw.go.jp/26/index.php?action_kouhyou_detail_004_kani=true&JigyosyoCd=2693300044-00&ServiceCd=320&Type=search", "url2": "https://tangoen.net/" }, "geometry": { "type": "Point", "coordinates": [ 135.026021, 35.6822465 ] } },
{ "type": "Feature", "properties": { "内容": "グループホームおおみや【認知症対応型共同生活介護】京都府京丹後市大宮町三坂132番地の3", "url": "https://www.kaigokensaku.mhlw.go.jp/26/index.php?action_kouhyou_detail_004_kani=true&JigyosyoCd=2693300119-00&ServiceCd=320&Type=search", "url2": "http://www.oomiyaen.com" }, "geometry": { "type": "Point", "coordinates": [ 135.101371400000062, 35.5811905 ] } },
{ "type": "Feature", "properties": { "内容": "グループホームもみじ【認知症対応型共同生活介護】京都府京丹後市峰山町吉原７１－４", "url": "https://www.kaigokensaku.mhlw.go.jp/26/index.php?action_kouhyou_detail_004_kani=true&JigyosyoCd=2672200066-00&ServiceCd=320&Type=search", "url2": "http://www.mineyama-fukusikai.jp/mineyamahukusikai_010.htm" }, "geometry": { "type": "Point", "coordinates": [ 135.055078699999967, 35.629139500000015 ] } },
{ "type": "Feature", "properties": { "内容": "グループホームかえで【認知症対応型共同生活介護】京都府京丹後市弥栄町溝谷３５８１番地", "url": "https://www.kaigokensaku.mhlw.go.jp/26/index.php?action_kouhyou_detail_004_kani=true&JigyosyoCd=2672300106-00&ServiceCd=320&Type=search", "url2": "http://www.minayama-fukusikai.jp" }, "geometry": { "type": "Point", "coordinates": [ 135.090311199999974, 35.6618283 ] } },
{ "type": "Feature", "properties": { "内容": "グループホーム　善王寺【認知症対応型共同生活介護】京丹後市大宮町善王寺527-1", "url": "https://www.kaigokensaku.mhlw.go.jp/26/index.php?action_kouhyou_detail_004_kani=true&JigyosyoCd=2693300150-00&ServiceCd=320&Type=search", "url2": null }, "geometry": { "type": "Point", "coordinates": [ 135.08129370000006, 35.5998114 ] } },
{ "type": "Feature", "properties": { "内容": "グループホーム長岡【認知症対応型共同生活介護】京都府京丹後市峰山町長岡3-3", "url": "https://www.kaigokensaku.mhlw.go.jp/26/index.php?action_kouhyou_detail_004_kani=true&JigyosyoCd=2693300200-00&ServiceCd=320&Type=search", "url2": null }, "geometry": { "type": "Point", "coordinates": [ 135.059352699999977, 35.6044617 ] } },
{ "type": "Feature", "properties": { "内容": "グループホーム幸せの里【認知症対応型共同生活介護】京都府南丹市園部町上木崎町坪ノ内19番地", "url": "https://www.kaigokensaku.mhlw.go.jp/26/index.php?action_kouhyou_detail_004_kani=true&JigyosyoCd=2671500102-00&ServiceCd=320&Type=search", "url2": "http://www.choseien.com" }, "geometry": { "type": "Point", "coordinates": [ 135.472361699999965, 35.1156483 ] } },
{ "type": "Feature", "properties": { "内容": "グループホーム　みやま【認知症対応型共同生活介護】京都府南丹市美山町高野素崎１４－２", "url": "https://www.kaigokensaku.mhlw.go.jp/26/index.php?action_kouhyou_detail_004_kani=true&JigyosyoCd=2671700116-00&ServiceCd=320&Type=search", "url2": "http://www.nananokai.com/" }, "geometry": { "type": "Point", "coordinates": [ 135.554592599999978, 35.3016866 ] } },
{ "type": "Feature", "properties": { "内容": "グループホームちくりんえん【認知症対応型共同生活介護】京都府南丹市八木町諸畑後町14番地", "url": "https://www.kaigokensaku.mhlw.go.jp/26/index.php?action_kouhyou_detail_004_kani=true&JigyosyoCd=2671500037-00&ServiceCd=320&Type=search", "url2": "http://www.misyoukai.com" }, "geometry": { "type": "Point", "coordinates": [ 135.531654938622978, 35.10353489676038 ] } },
{ "type": "Feature", "properties": { "内容": "認知症対応型共同生活介護事業所　はぎの里オアシス【認知症対応型共同生活介護】京都府南丹市園部町横田二号111番地1", "url": "https://www.kaigokensaku.mhlw.go.jp/26/index.php?action_kouhyou_detail_004_kani=true&JigyosyoCd=2693400042-00&ServiceCd=320&Type=search", "url2": "http://web1.kcn.jp/haginosato" }, "geometry": { "type": "Point", "coordinates": [ 135.460624199999984, 35.1108124 ] } },
{ "type": "Feature", "properties": { "内容": "グループホームかたらいの家【認知症対応型共同生活介護】京都府南丹市八木町西田早田３番地", "url": "https://www.kaigokensaku.mhlw.go.jp/26/index.php?action_kouhyou_detail_004_kani=true&JigyosyoCd=2671500250-00&ServiceCd=320&Type=search", "url2": "https://www.shimizu-hospital.or.jp/kaigo/care/iris/" }, "geometry": { "type": "Point", "coordinates": [ 135.539014898811274, 35.079199090340111 ] } },
{ "type": "Feature", "properties": { "内容": "グループホーム美山やすらぎホーム【認知症対応型共同生活介護】京都府南丹市美山町島小栗栖山13-1", "url": "https://www.kaigokensaku.mhlw.go.jp/26/index.php?action_kouhyou_detail_004_kani=true&JigyosyoCd=2671700017-00&ServiceCd=320&Type=search", "url2": "http://www.hokusoukai.com/" }, "geometry": { "type": "Point", "coordinates": [ 135.553353799999968, 35.2618986 ] } },
{ "type": "Feature", "properties": { "内容": "フレンド平城山・山城【認知症対応型共同生活介護】京都府木津川市梅美台2丁目1-1", "url": "https://www.kaigokensaku.mhlw.go.jp/26/index.php?action_kouhyou_detail_004_kani=true&JigyosyoCd=2671400253-00&ServiceCd=320&Type=search", "url2": "http://www.wellcomsul.co.jp" }, "geometry": { "type": "Point", "coordinates": [ 135.834807599999976, 34.7189948 ] } },
{ "type": "Feature", "properties": { "内容": "エバホーム【認知症対応型共同生活介護】京都府木津川市梅美台2丁目1-1", "url": "https://www.kaigokensaku.mhlw.go.jp/26/index.php?action_kouhyou_detail_004_kani=true&JigyosyoCd=2671400261-00&ServiceCd=320&Type=search", "url2": null }, "geometry": { "type": "Point", "coordinates": [ 135.834807599999976, 34.7189948 ] } },
{ "type": "Feature", "properties": { "内容": "グループホーム涌出ぬくもりの里【認知症対応型共同生活介護】京都府木津川市山城町平尾里屋敷69-4", "url": "https://www.kaigokensaku.mhlw.go.jp/26/index.php?action_kouhyou_detail_004_kani=true&JigyosyoCd=2693500056-00&ServiceCd=320&Type=search", "url2": "s-rakuji.con" }, "geometry": { "type": "Point", "coordinates": [ 135.817555700000014, 34.7746945 ] } },
{ "type": "Feature", "properties": { "内容": "グループホーム西木津ぬくもりの里【認知症対応型共同生活介護】京都府木津川市木津南後背３０番地５", "url": "https://www.kaigokensaku.mhlw.go.jp/26/index.php?action_kouhyou_detail_004_kani=true&JigyosyoCd=2693500064-00&ServiceCd=320&Type=search", "url2": "http://www.s-rakuji.com" }, "geometry": { "type": "Point", "coordinates": [ 135.808549199999987, 34.7379847 ] } },
{ "type": "Feature", "properties": { "内容": "グループホーム加茂ぬくもりの里【認知症対応型共同生活介護】京都府木津川市加茂町里字留志40", "url": "https://www.kaigokensaku.mhlw.go.jp/26/index.php?action_kouhyou_detail_004_kani=true&JigyosyoCd=2693500072-00&ServiceCd=320&Type=search", "url2": "https://s-rakuji.com/" }, "geometry": { "type": "Point", "coordinates": [ 135.8662529, 34.7555584 ] } },
{ "type": "Feature", "properties": { "内容": "グループホーム山城ぬくもりの里【認知症対応型共同生活介護】山城町上狛小杉谷6番地", "url": "https://www.kaigokensaku.mhlw.go.jp/26/index.php?action_kouhyou_detail_004_kani=true&JigyosyoCd=2693500098-00&ServiceCd=320&Type=search", "url2": "http://www.s-rakuji.com" }, "geometry": { "type": "Point", "coordinates": [ 135.8243971, 34.7546095 ] } },
{ "type": "Feature", "properties": { "内容": "洛和グループホーム大山崎【認知症対応型共同生活介護】京都府乙訓郡大山崎町円明寺稲葉1-5", "url": "https://www.kaigokensaku.mhlw.go.jp/26/index.php?action_kouhyou_detail_004_kani=true&JigyosyoCd=2671000038-00&ServiceCd=320&Type=search", "url2": "https://www.rakuwa.or.jp/" }, "geometry": { "type": "Point", "coordinates": [ 135.6845803, 34.903882 ] } },
{ "type": "Feature", "properties": { "内容": "洛和グループホーム天王山【認知症対応型共同生活介護】京都府乙訓郡大山崎町大山崎松原36-6", "url": "https://www.kaigokensaku.mhlw.go.jp/26/index.php?action_kouhyou_detail_004_kani=true&JigyosyoCd=2691000018-00&ServiceCd=320&Type=search", "url2": "https://kaigo.rakuwa.or.jp/service/station/gh-tennouzan/" }, "geometry": { "type": "Point", "coordinates": [ 135.686834099999942, 34.9015647 ] } },
{ "type": "Feature", "properties": { "内容": "医療法人啓信会　グループホームリエゾンくみやま【認知症対応型共同生活介護】久御山町林中垣内38-1", "url": "https://www.kaigokensaku.mhlw.go.jp/26/index.php?action_kouhyou_detail_004_kani=true&JigyosyoCd=2671100101-00&ServiceCd=320&Type=search", "url2": "http://www.kyoto-keishinkai.or.jp/liaizon-kumiyama/gh/index.html" }, "geometry": { "type": "Point", "coordinates": [ 135.759553099999948, 34.8771363 ] } },
{ "type": "Feature", "properties": { "内容": "グループホーム　いでの里【認知症対応型共同生活介護】京都府綴喜郡井手町大字井手小字弥勒1番地の1", "url": "https://www.kaigokensaku.mhlw.go.jp/26/index.php?action_kouhyou_detail_004_kani=true&JigyosyoCd=2671300206-00&ServiceCd=320&Type=search", "url2": "http://www.fushimi-shimizu.jp/" }, "geometry": { "type": "Point", "coordinates": [ 135.817804099999989, 34.7986139 ] } },
{ "type": "Feature", "properties": { "内容": "グループホーム　花笑み【認知症対応型共同生活介護】京都府相楽郡精華町光台七丁目11-3", "url": "https://www.kaigokensaku.mhlw.go.jp/26/index.php?action_kouhyou_detail_004_kani=true&JigyosyoCd=2691400044-00&ServiceCd=320&Type=search", "url2": "http://kami-home.jp/" }, "geometry": { "type": "Point", "coordinates": [ 135.756902797483804, 34.741932740443595 ] } },
{ "type": "Feature", "properties": { "内容": "グループホームわたしの親元【認知症対応型共同生活介護】京都府船井郡京丹波町三ノ宮小谷３０番地", "url": "https://www.kaigokensaku.mhlw.go.jp/26/index.php?action_kouhyou_detail_004_kani=true&JigyosyoCd=2671500110-00&ServiceCd=320&Type=search", "url2": "https://yamabikokai-kyoto.com" }, "geometry": { "type": "Point", "coordinates": [ 135.331533499999978, 35.2215675 ] } },
{ "type": "Feature", "properties": { "内容": "グループホームささゆり【認知症対応型共同生活介護】京都府船井郡京丹波町本庄宮ノ下2番地", "url": "https://www.kaigokensaku.mhlw.go.jp/26/index.php?action_kouhyou_detail_004_kani=true&JigyosyoCd=2691500058-00&ServiceCd=320&Type=search", "url2": "https://yamabikokai-kyoto.com" }, "geometry": { "type": "Point", "coordinates": [ 135.399743628597264, 35.264565900266263 ] } },
{ "type": "Feature", "properties": { "内容": "グループホームふれあい【認知症対応型共同生活介護】京都府与謝郡与謝野町明石６５２－１", "url": "https://www.kaigokensaku.mhlw.go.jp/26/index.php?action_kouhyou_detail_004_kani=true&JigyosyoCd=2672000110-00&ServiceCd=320&Type=search", "url2": "http://uemori201.com/" }, "geometry": { "type": "Point", "coordinates": [ 135.10975140000005, 35.5166243 ] } },
{ "type": "Feature", "properties": { "内容": "グループホームよさの【認知症対応型共同生活介護】京都府与謝郡与謝野町字三河内883番地2", "url": "https://www.kaigokensaku.mhlw.go.jp/26/index.php?action_kouhyou_detail_004_kani=true&JigyosyoCd=2692000033-00&ServiceCd=320&Type=search", "url2": "http://gh-yosano.com/" }, "geometry": { "type": "Point", "coordinates": [ 135.095494199999962, 35.520971 ] } },
{ "type": "Feature", "properties": { "内容": "グループホーム芳寿館【認知症対応型共同生活介護】京都府与謝郡与謝野町字四辻36-2", "url": "https://www.kaigokensaku.mhlw.go.jp/26/index.php?action_kouhyou_detail_004_kani=true&JigyosyoCd=2672000136-00&ServiceCd=320&Type=search", "url2": "https://js-kaigo.jp/" }, "geometry": { "type": "Point", "coordinates": [ 135.098346399999969, 35.530111500000025 ] } },
{ "type": "Feature", "properties": { "内容": "グループホーム昴【認知症対応型共同生活介護】京都府与謝郡与謝野町下山田97-1", "url": "https://www.kaigokensaku.mhlw.go.jp/26/index.php?action_kouhyou_detail_004_kani=true&JigyosyoCd=2692000157-00&ServiceCd=320&Type=search", "url2": "https://nantorokusei.com/" }, "geometry": { "type": "Point", "coordinates": [ 135.120931043786527, 35.541290968544921 ] } }
]
}
