{
"type": "FeatureCollection",
"name": "geo_26_1",
"crs": { "type": "name", "properties": { "name": "urn:ogc:def:crs:OGC:1.3:CRS84" } },
"features": [
{ "type": "Feature", "properties": { "ID": 2612610000004, "正式名称": "宮津武田病院", "機関区分": 1, "都道府県コード": 26, "市区町村コード": 205, "所在地": "京都府宮津市字鶴賀２０５９番地の１", "緯度": 35.536385, "経度": 135.198288, "url": "https://www.iryou.teikyouseido.mhlw.go.jp/znk-web/juminkanja/S2430/initialize?prefCd=26&kikanCd=2610000004&kikanKbn=1", "url2": "https://www.takedahp.or.jp/group/medical/miyazu/", "内容": "宮津武田病院【1:病院】【診療科目:内科_循環器内科_消化器内科_外科_消化器外科_整形外科_皮膚科_泌尿器科】【一般病床数:64療養病床数:0精神病床数:0感染症病床数:0合計病床数:64】京都府宮津市字鶴賀２０５９番地の１" }, "geometry": { "type": "Point", "coordinates": [ 135.198288, 35.536385 ] } },
{ "type": "Feature", "properties": { "ID": 2612610000005, "正式名称": "京丹後市立弥栄病院", "機関区分": 1, "都道府県コード": 26, "市区町村コード": 212, "所在地": "京都府京丹後市弥栄町溝谷３４５２番地の１", "緯度": 35.658342, "経度": 135.090791, "url": "https://www.iryou.teikyouseido.mhlw.go.jp/znk-web/juminkanja/S2430/initialize?prefCd=26&kikanCd=2610000005&kikanKbn=1", "url2": "https://www.city.kyotango.lg.jp/yasaka_hospital/index.html", "内容": "京丹後市立弥栄病院【1:病院】【診療科目:内科_糖尿病内科_脳神経内科_呼吸器内科_循環器内科_消化器内科_人工透析内科_外科_整形外科_小児科_小児心臓科（改行）小児神経科_産婦人科_眼科_耳鼻いんこう科_皮膚科_泌尿器科_精神科_歯科_リウマチ科_リハビリテーション科_放射線科_臨床検査科_麻酔科】【一般病床数:199療養病床数:0精神病床数:0感染症病床数:0合計病床数:199】京都府京丹後市弥栄町溝谷３４５２番地の１" }, "geometry": { "type": "Point", "coordinates": [ 135.090791, 35.658342 ] } },
{ "type": "Feature", "properties": { "ID": 2612610000006, "正式名称": "公益財団法人　丹後中央病院", "機関区分": 1, "都道府県コード": 26, "市区町村コード": 212, "所在地": "京都府京丹後市峰山町杉谷１５８番地の１", "緯度": 35.626651, "経度": 135.060378, "url": "https://www.iryou.teikyouseido.mhlw.go.jp/znk-web/juminkanja/S2430/initialize?prefCd=26&kikanCd=2610000006&kikanKbn=1", "url2": "https://www.tangohp.com/", "内容": "公益財団法人　丹後中央病院【1:病院】【診療科目:内科_血液内科_糖尿病・内分泌内科_脳神経内科_呼吸器内科_循環器内科_消化器内科_外科_脳神経外科_整形外科_形成外科_小児科_婦人科_眼科_耳鼻いんこう科_皮膚科_泌尿器科_リウマチ科_リハビリテーション科_放射線科_救急科_麻酔科】【一般病床数:256療養病床数:50精神病床数:0感染症病床数:0合計病床数:306】京都府京丹後市峰山町杉谷１５８番地の１" }, "geometry": { "type": "Point", "coordinates": [ 135.060378, 35.626651 ] } },
{ "type": "Feature", "properties": { "ID": 2612610000007, "正式名称": "医療法人　綾冨士会　綾部ルネス病院", "機関区分": 1, "都道府県コード": 26, "市区町村コード": 203, "所在地": "京都府綾部市大島町二反田７番地の１６", "緯度": 35.30291, "経度": 135.230851, "url": "https://www.iryou.teikyouseido.mhlw.go.jp/znk-web/juminkanja/S2430/initialize?prefCd=26&kikanCd=2610000007&kikanKbn=1", "url2": "http://www.a-renaiss.jp/", "内容": "医療法人　綾冨士会　綾部ルネス病院【1:病院】【診療科目:内科_脳神経内科_消化器内科_人工透析内科_外科_脳神経外科_泌尿器科_リハビリテーション科_放射線科_麻酔科】【一般病床数:86療養病床数:0精神病床数:0感染症病床数:0合計病床数:86】京都府綾部市大島町二反田７番地の１６" }, "geometry": { "type": "Point", "coordinates": [ 135.230851, 35.30291 ] } },
{ "type": "Feature", "properties": { "ID": 2612610000008, "正式名称": "綾部市立病院", "機関区分": 1, "都道府県コード": 26, "市区町村コード": 203, "所在地": "京都府綾部市青野町大塚２０番地の１", "緯度": 35.307133, "経度": 135.254877, "url": "https://www.iryou.teikyouseido.mhlw.go.jp/znk-web/juminkanja/S2430/initialize?prefCd=26&kikanCd=2610000008&kikanKbn=1", "url2": "http://www.ayabe-hsp.or.jp/", "内容": "綾部市立病院【1:病院】【診療科目:内科_糖尿病・内分泌内科_脳神経内科_呼吸器内科_循環器内科_消化器内科_外科_呼吸器外科_心臓血管外科_消化器外科_乳腺外科_整形外科_小児科_産婦人科_眼科_耳鼻いんこう科_皮膚科_泌尿器科_精神科_リハビリテーション科_放射線科_麻酔科】【一般病床数:206療養病床数:0精神病床数:0感染症病床数:0合計病床数:206】京都府綾部市青野町大塚２０番地の１" }, "geometry": { "type": "Point", "coordinates": [ 135.254877, 35.307133 ] } },
{ "type": "Feature", "properties": { "ID": 2612610000010, "正式名称": "公益社団法人　京都保健会　京都協立病院", "機関区分": 1, "都道府県コード": 26, "市区町村コード": 203, "所在地": "京都府綾部市高津町三反田１番地", "緯度": 35.304326, "経度": 135.204826, "url": "https://www.iryou.teikyouseido.mhlw.go.jp/znk-web/juminkanja/S2430/initialize?prefCd=26&kikanCd=2610000010&kikanKbn=1", "url2": "http://www.kyoto-kyoritsu.org/", "内容": "公益社団法人　京都保健会　京都協立病院【1:病院】【診療科目:内科_血液内科_糖尿病内科_呼吸器内科_循環器内科_腎臓内科_神経内科_外科_肛門外科_整形外科_小児科_皮膚科_リハビリテーション科_放射線科】【一般病床数:52療養病床数:47精神病床数:0感染症病床数:0合計病床数:99】京都府綾部市高津町三反田１番地" }, "geometry": { "type": "Point", "coordinates": [ 135.204826, 35.304326 ] } },
{ "type": "Feature", "properties": { "ID": 2612610000011, "正式名称": "医療法人岸本病院", "機関区分": 1, "都道府県コード": 26, "市区町村コード": 202, "所在地": "京都府舞鶴市字浜１１３１番地", "緯度": 35.470201, "経度": 135.393636, "url": "https://www.iryou.teikyouseido.mhlw.go.jp/znk-web/juminkanja/S2430/initialize?prefCd=26&kikanCd=2610000011&kikanKbn=1", "url2": "http://www.kisimoto-hp.jp/", "内容": "医療法人岸本病院【1:病院】【診療科目:内科_呼吸器内科_消化器内科_小児科_リハビリテーション科_放射線科】【一般病床数:0療養病床数:40精神病床数:0感染症病床数:0合計病床数:0】京都府舞鶴市字浜１１３１番地" }, "geometry": { "type": "Point", "coordinates": [ 135.393636, 35.470201 ] } },
{ "type": "Feature", "properties": { "ID": 2612610000012, "正式名称": "国家公務員共済組合連合会　舞鶴共済病院", "機関区分": 1, "都道府県コード": 26, "市区町村コード": 202, "所在地": "京都府舞鶴市字浜１０３５番地", "緯度": 35.469368, "経度": 135.391497, "url": "https://www.iryou.teikyouseido.mhlw.go.jp/znk-web/juminkanja/S2430/initialize?prefCd=26&kikanCd=2610000012&kikanKbn=1", "url2": "https://maizuru.kkr.or.jp/", "内容": "国家公務員共済組合連合会　舞鶴共済病院【1:病院】【診療科目:内科_血液内科_呼吸器内科_循環器内科_消化器内科_心臓血管外科_消化器外科_整形外科_小児科_産婦人科_耳鼻いんこう科_皮膚科_泌尿器科_歯科口腔外科_リハビリテーション科_放射線科_麻酔科】【一般病床数:250療養病床数:0精神病床数:0感染症病床数:0合計病床数:250】京都府舞鶴市字浜１０３５番地" }, "geometry": { "type": "Point", "coordinates": [ 135.391497, 35.469368 ] } },
{ "type": "Feature", "properties": { "ID": 2612610000013, "正式名称": "市立舞鶴市民病院", "機関区分": 1, "都道府県コード": 26, "市区町村コード": 202, "所在地": "京都府舞鶴市字倉谷１３５０番地の１１", "緯度": 35.444453, "経度": 135.338697, "url": "https://www.iryou.teikyouseido.mhlw.go.jp/znk-web/juminkanja/S2430/initialize?prefCd=26&kikanCd=2610000013&kikanKbn=1", "url2": "https://www.city.maizuru.kyoto.jp/kurashi/0000004346.html", "内容": "市立舞鶴市民病院【1:病院】【診療科目:内科_リハビリテーション科】【一般病床数:0療養病床数:100精神病床数:0感染症病床数:0合計病床数:0】京都府舞鶴市字倉谷１３５０番地の１１" }, "geometry": { "type": "Point", "coordinates": [ 135.338697, 35.444453 ] } },
{ "type": "Feature", "properties": { "ID": 2612610000014, "正式名称": "医療法人医誠会東舞鶴医誠会病院", "機関区分": 1, "都道府県コード": 26, "市区町村コード": 202, "所在地": "京都府舞鶴市字大字大波下小字前田７６５番１６", "緯度": 35.502642, "経度": 135.398745, "url": "https://www.iryou.teikyouseido.mhlw.go.jp/znk-web/juminkanja/S2430/initialize?prefCd=26&kikanCd=2610000014&kikanKbn=1", "url2": "http://www.higashimaizuruhp.or.jp/", "内容": "医療法人医誠会東舞鶴医誠会病院【1:病院】【診療科目:内科_精神科_心療内科】【一般病床数:0療養病床数:0精神病床数:255感染症病床数:0合計病床数:255】京都府舞鶴市字大字大波下小字前田７６５番１６" }, "geometry": { "type": "Point", "coordinates": [ 135.398745, 35.502642 ] } },
{ "type": "Feature", "properties": { "ID": 2612610000016, "正式名称": "京都府立舞鶴こども療育センター", "機関区分": 1, "都道府県コード": 26, "市区町村コード": 202, "所在地": "京都府舞鶴市字行永２４１０番地３７", "緯度": 35.462174, "経度": 135.402385, "url": "https://www.iryou.teikyouseido.mhlw.go.jp/znk-web/juminkanja/S2430/initialize?prefCd=26&kikanCd=2610000016&kikanKbn=1", "url2": "http://maizuru-ryouiku.jp/", "内容": "京都府立舞鶴こども療育センター【1:病院】【診療科目:整形外科_小児科_小児外科_精神科_歯科_リハビリテーション科】【一般病床数:35療養病床数:0精神病床数:0感染症病床数:0合計病床数:0】京都府舞鶴市字行永２４１０番地３７" }, "geometry": { "type": "Point", "coordinates": [ 135.402385, 35.462174 ] } },
{ "type": "Feature", "properties": { "ID": 2612610000018, "正式名称": "舞鶴赤十字病院", "機関区分": 1, "都道府県コード": 26, "市区町村コード": 202, "所在地": "京都府舞鶴市字倉谷４２７", "緯度": 35.444453, "経度": 135.337308, "url": "https://www.iryou.teikyouseido.mhlw.go.jp/znk-web/juminkanja/S2430/initialize?prefCd=26&kikanCd=2610000018&kikanKbn=1", "url2": "https://maizuru.jrc.or.jp/", "内容": "舞鶴赤十字病院【1:病院】【診療科目:内科_循環器内科_消化器内科_神経内科_外科_整形外科_小児科_眼科_耳鼻いんこう科_皮膚科_泌尿器科_リハビリテーション科_放射線科_麻酔科】【一般病床数:198療養病床数:0精神病床数:0感染症病床数:0合計病床数:198】京都府舞鶴市字倉谷４２７" }, "geometry": { "type": "Point", "coordinates": [ 135.337308, 35.444453 ] } },
{ "type": "Feature", "properties": { "ID": 2612610000019, "正式名称": "医療法人　　福知会　　もみじヶ丘病院", "機関区分": 1, "都道府県コード": 26, "市区町村コード": 201, "所在地": "京都府福知山市荒木３３７４", "緯度": 35.271301, "経度": 135.124473, "url": "https://www.iryou.teikyouseido.mhlw.go.jp/znk-web/juminkanja/S2430/initialize?prefCd=26&kikanCd=2610000019&kikanKbn=1", "url2": "http://www.fukuchikai.or.jp/", "内容": "医療法人　　福知会　　もみじヶ丘病院【1:病院】【診療科目:内科_精神科_心療内科_歯科_放射線科】【一般病床数:0療養病床数:0精神病床数:380感染症病床数:0合計病床数:0】京都府福知山市荒木３３７４" }, "geometry": { "type": "Point", "coordinates": [ 135.124473, 35.271301 ] } },
{ "type": "Feature", "properties": { "ID": 2612610000020, "正式名称": "市立福知山市民病院大江分院", "機関区分": 1, "都道府県コード": 26, "市区町村コード": 201, "所在地": "京都府福知山市大江町河守１８０番地", "緯度": 35.392871, "経度": 135.148187, "url": "https://www.iryou.teikyouseido.mhlw.go.jp/znk-web/juminkanja/S2430/initialize?prefCd=26&kikanCd=2610000020&kikanKbn=1", "url2": "http://www.fukuchiyama-hosp.jp/ooebunin/ooebranch.htm", "内容": "市立福知山市民病院大江分院【1:病院】【診療科目:内科_小児科_リハビリテーション科】【一般病床数:0療養病床数:52精神病床数:0感染症病床数:0合計病床数:0】京都府福知山市大江町河守１８０番地" }, "geometry": { "type": "Point", "coordinates": [ 135.148187, 35.392871 ] } },
{ "type": "Feature", "properties": { "ID": 2612610000021, "正式名称": "医療法人　福冨士会　京都ルネス病院", "機関区分": 1, "都道府県コード": 26, "市区町村コード": 201, "所在地": "京都府福知山市末広町４丁目１３番地", "緯度": 35.299964, "経度": 135.118361, "url": "https://www.iryou.teikyouseido.mhlw.go.jp/znk-web/juminkanja/S2430/initialize?prefCd=26&kikanCd=2610000021&kikanKbn=1", "url2": "http://www.renaiss.jp/", "内容": "医療法人　福冨士会　京都ルネス病院【1:病院】【診療科目:内科_脳神経内科_呼吸器内科_循環器内科_心臓血管内科_消化器内科_内視鏡内科_ペインクリニック内科_外科_脳神経外科_呼吸器外科_血管外科_心臓血管外科_消化器外科_肝臓外科_膵臓外科_乳腺外科_肛門外科_腫瘍外科_胸部外科_腹部外科_内視鏡外科_整形外科_形成外科_美容外科_小児科_婦人科_眼科_頭頸部・耳鼻いんこう科_皮膚科_泌尿器科_泌尿器科（人工透析）_歯科_歯科口腔外科_リハビリテーション科_放射線科_麻酔科_外科（がん）】【一般病床数:171療養病床数:0精神病床数:0感染症病床数:0合計病床数:171】京都府福知山市末広町４丁目１３番地" }, "geometry": { "type": "Point", "coordinates": [ 135.118361, 35.299964 ] } },
{ "type": "Feature", "properties": { "ID": 2612610000022, "正式名称": "市立福知山市民病院", "機関区分": 1, "都道府県コード": 26, "市区町村コード": 201, "所在地": "京都府福知山市厚中町２３１番地", "緯度": 35.303797, "経度": 135.111417, "url": "https://www.iryou.teikyouseido.mhlw.go.jp/znk-web/juminkanja/S2430/initialize?prefCd=26&kikanCd=2610000022&kikanKbn=1", "url2": "https://www.city.fukuchiyama.lg.jp/site/hosp/", "内容": "市立福知山市民病院【1:病院】【診療科目:内科_血液内科_糖尿病内科_糖尿病・内分泌内科_脳神経内科_呼吸器内科_循環器内科_消化器内科_腎臓内科_神経内科_腫瘍内科_外科_脳神経外科_呼吸器外科_心臓血管外科_消化器外科_乳腺外科_整形外科_形成外科_小児科_小児外科_産婦人科_眼科_耳鼻いんこう科_皮膚科_泌尿器科_精神科_リハビリテーション科_放射線科_病理診断科_救急科_麻酔科】【一般病床数:344療養病床数:0精神病床数:0感染症病床数:4合計病床数:353】京都府福知山市厚中町２３１番地" }, "geometry": { "type": "Point", "coordinates": [ 135.111417, 35.303797 ] } },
{ "type": "Feature", "properties": { "ID": 2612610000023, "正式名称": "医療法人　静寿会　渡辺病院", "機関区分": 1, "都道府県コード": 26, "市区町村コード": 201, "所在地": "京都府福知山市字牧１６１６番地１", "緯度": 35.332516, "経度": 135.096306, "url": "https://www.iryou.teikyouseido.mhlw.go.jp/znk-web/juminkanja/S2430/initialize?prefCd=26&kikanCd=2610000023&kikanKbn=1", "url2": "http://www.seijukai-watanabehp.jp/", "内容": "医療法人　静寿会　渡辺病院【1:病院】【診療科目:内科_消化器内科_リハビリテーション科】【一般病床数:0療養病床数:96精神病床数:0感染症病床数:0合計病床数:96】京都府福知山市字牧１６１６番地１" }, "geometry": { "type": "Point", "coordinates": [ 135.096306, 35.332516 ] } },
{ "type": "Feature", "properties": { "ID": 2612610000025, "正式名称": "亀岡市立病院", "機関区分": 1, "都道府県コード": 26, "市区町村コード": 206, "所在地": "京都府亀岡市篠町篠野田１番地１", "緯度": 35.007254, "経度": 135.604862, "url": "https://www.iryou.teikyouseido.mhlw.go.jp/znk-web/juminkanja/S2430/initialize?prefCd=26&kikanCd=2610000025&kikanKbn=1", "url2": "http://www.city.kameoka.kyoto.jp/hospital/", "内容": "亀岡市立病院【1:病院】【診療科目:内科_糖尿病内科_呼吸器内科_循環器内科_消化器内科_神経内科_外科_整形外科_小児科_眼科_皮膚科_泌尿器科_リハビリテーション科_放射線科_麻酔科】【一般病床数:100療養病床数:0精神病床数:0感染症病床数:0合計病床数:100】京都府亀岡市篠町篠野田１番地１" }, "geometry": { "type": "Point", "coordinates": [ 135.604862, 35.007254 ] } },
{ "type": "Feature", "properties": { "ID": 2612610000026, "正式名称": "医療法人　睦会　ムツミ医院", "機関区分": 1, "都道府県コード": 26, "市区町村コード": 206, "所在地": "京都府亀岡市下矢田町君塚８", "緯度": 35.002004, "経度": 135.577725, "url": "https://www.iryou.teikyouseido.mhlw.go.jp/znk-web/juminkanja/S2430/initialize?prefCd=26&kikanCd=2610000026&kikanKbn=1", "url2": "https://www.mutsumi-hospital.com/", "内容": "医療法人　睦会　ムツミ医院【1:病院】【診療科目:内科_整形外科_皮膚科_リハビリテーション科】【一般病床数:0療養病床数:0精神病床数:0感染症病床数:0合計病床数:0】京都府亀岡市下矢田町君塚８" }, "geometry": { "type": "Point", "coordinates": [ 135.577725, 35.002004 ] } },
{ "type": "Feature", "properties": { "ID": 2612610000027, "正式名称": "京都中部総合医療センター", "機関区分": 1, "都道府県コード": 26, "市区町村コード": 213, "所在地": "京都府南丹市八木町八木上野２５番地", "緯度": 35.071107, "経度": 135.530587, "url": "https://www.iryou.teikyouseido.mhlw.go.jp/znk-web/juminkanja/S2430/initialize?prefCd=26&kikanCd=2610000027&kikanKbn=1", "url2": "https://www.kyoto-chubumedc.or.jp/", "内容": "京都中部総合医療センター【1:病院】【診療科目:内科_血液内科_脳神経内科_呼吸器内科_循環器内科_消化器内科_腎臓内科_肝臓内科_内分泌・糖尿病・代謝内科_外科_脳神経外科_呼吸器外科_心臓血管外科_消化器外科_乳腺外科_整形外科_小児科_小児外科_産婦人科_眼科_耳鼻いんこう科_皮膚科_泌尿器科_精神科_歯科_歯科口腔外科_リウマチ科_リハビリテーション科_放射線科_病理診断科_麻酔科】【一般病床数:449療養病床数:0精神病床数:0感染症病床数:4合計病床数:463】京都府南丹市八木町八木上野２５番地" }, "geometry": { "type": "Point", "coordinates": [ 135.530587, 35.071107 ] } },
{ "type": "Feature", "properties": { "ID": 2612610000030, "正式名称": "医療法人社団　菫会　園部病院", "機関区分": 1, "都道府県コード": 26, "市区町村コード": 213, "所在地": "京都府南丹市園部町美園町５号８番地７", "緯度": 35.108796, "経度": 135.474035, "url": "https://www.iryou.teikyouseido.mhlw.go.jp/znk-web/juminkanja/S2430/initialize?prefCd=26&kikanCd=2610000030&kikanKbn=1", "url2": "http://www.myclinic.ne.jp./sonobetani/pc/index.html", "内容": "医療法人社団　菫会　園部病院【1:病院】【診療科目:内科_循環器内科_胃腸内科_外科_整形外科_リハビリテーション科_放射線科】【一般病床数:60療養病床数:0精神病床数:0感染症病床数:0合計病床数:60】京都府南丹市園部町美園町５号８番地７" }, "geometry": { "type": "Point", "coordinates": [ 135.474035, 35.108796 ] } },
{ "type": "Feature", "properties": { "ID": 2612610000031, "正式名称": "医療法人　亀岡病院", "機関区分": 1, "都道府県コード": 26, "市区町村コード": 206, "所在地": "京都府亀岡市古世町三丁目２１番１号", "緯度": 35.010003, "経度": 135.581169, "url": "https://www.iryou.teikyouseido.mhlw.go.jp/znk-web/juminkanja/S2430/initialize?prefCd=26&kikanCd=2610000031&kikanKbn=1", "url2": "https://kameokahp.com/", "内容": "医療法人　亀岡病院【1:病院】【診療科目:内科_呼吸器内科_循環器内科_消化器内科_腎臓内科_神経内科_整形外科_眼科_皮膚科_泌尿器科_リウマチ科_リハビリテーション科_放射線科】【一般病床数:108療養病床数:0精神病床数:0感染症病床数:0合計病床数:108】京都府亀岡市古世町三丁目２１番１号" }, "geometry": { "type": "Point", "coordinates": [ 135.581169, 35.010003 ] } },
{ "type": "Feature", "properties": { "ID": 2612610000032, "正式名称": "医療法人清仁会　亀岡シミズ病院", "機関区分": 1, "都道府県コード": 26, "市区町村コード": 206, "所在地": "京都府亀岡市篠町広田１丁目３２の１５号", "緯度": 35.00334, "経度": 135.595468, "url": "https://www.iryou.teikyouseido.mhlw.go.jp/znk-web/juminkanja/S2430/initialize?prefCd=26&kikanCd=2610000032&kikanKbn=1", "url2": "http://www.shimizu-hospital.or.jp/", "内容": "医療法人清仁会　亀岡シミズ病院【1:病院】【診療科目:内科_呼吸器内科_循環器内科_消化器内科_腎臓内科_外科_脳神経外科_消化器外科_整形外科_皮膚科_泌尿器科_精神科_リハビリテーション科_放射線科】【一般病床数:132療養病床数:45精神病床数:0感染症病床数:0合計病床数:177】京都府亀岡市篠町広田１丁目３２の１５号" }, "geometry": { "type": "Point", "coordinates": [ 135.595468, 35.00334 ] } },
{ "type": "Feature", "properties": { "ID": 2612610000033, "正式名称": "重症心身障害児施設　花ノ木医療福祉センター", "機関区分": 1, "都道府県コード": 26, "市区町村コード": 206, "所在地": "京都府亀岡市大井町小金岐北浦３７番地１", "緯度": 35.04136, "経度": 135.542115, "url": "https://www.iryou.teikyouseido.mhlw.go.jp/znk-web/juminkanja/S2430/initialize?prefCd=26&kikanCd=2610000033&kikanKbn=1", "url2": "https://kyoto-hananoki.jp/", "内容": "重症心身障害児施設　花ノ木医療福祉センター【1:病院】【診療科目:内科_整形外科_小児科_耳鼻いんこう科_皮膚科_精神科_神経科_歯科_リハビリテーション科】【一般病床数:152療養病床数:0精神病床数:0感染症病床数:0合計病床数:0】京都府亀岡市大井町小金岐北浦３７番地１" }, "geometry": { "type": "Point", "coordinates": [ 135.542115, 35.04136 ] } },
{ "type": "Feature", "properties": { "ID": 2612610000034, "正式名称": "国保京丹波町病院", "機関区分": 1, "都道府県コード": 26, "市区町村コード": 407, "所在地": "京都府船井郡京丹波町和田大下２８番地", "緯度": 35.180954, "経度": 135.373262, "url": "https://www.iryou.teikyouseido.mhlw.go.jp/znk-web/juminkanja/S2430/initialize?prefCd=26&kikanCd=2610000034&kikanKbn=1", "url2": "http://www.kyotamba-hospital.jp/", "内容": "国保京丹波町病院【1:病院】【診療科目:内科_外科_整形外科_小児科_皮膚科_精神科】【一般病床数:47療養病床数:0精神病床数:0感染症病床数:0合計病床数:47】京都府船井郡京丹波町和田大下２８番地" }, "geometry": { "type": "Point", "coordinates": [ 135.373262, 35.180954 ] } },
{ "type": "Feature", "properties": { "ID": 2612610000035, "正式名称": "一般財団法人長岡記念財団　長岡病院", "機関区分": 1, "都道府県コード": 26, "市区町村コード": 209, "所在地": "京都府長岡京市友岡４丁目１８番１号", "緯度": 34.91396, "経度": 135.689942, "url": "https://www.iryou.teikyouseido.mhlw.go.jp/znk-web/juminkanja/S2430/initialize?prefCd=26&kikanCd=2610000035&kikanKbn=1", "url2": "http://www.nagaoka.or.jp/healthcare/", "内容": "一般財団法人長岡記念財団　長岡病院【1:病院】【診療科目:内科_精神科_心療内科_歯科】【一般病床数:0療養病床数:0精神病床数:388感染症病床数:0合計病床数:388】京都府長岡京市友岡４丁目１８番１号" }, "geometry": { "type": "Point", "coordinates": [ 135.689942, 34.91396 ] } },
{ "type": "Feature", "properties": { "ID": 2612610000037, "正式名称": "社会福祉法人恩賜財団京都府済生会　京都済生会病院", "機関区分": 1, "都道府県コード": 26, "市区町村コード": 209, "所在地": "京都府長岡京市下海印寺下内田１０１番地", "緯度": 34.916071, "経度": 135.686609, "url": "https://www.iryou.teikyouseido.mhlw.go.jp/znk-web/juminkanja/S2430/initialize?prefCd=26&kikanCd=2610000037&kikanKbn=1", "url2": "https://www.kyoto.saiseikai.or.jp/", "内容": "社会福祉法人恩賜財団京都府済生会　京都済生会病院【1:病院】【診療科目:内科_血液内科_糖尿病内科_脳神経内科_呼吸器内科_循環器内科_消化器内科_腎臓内科_外科_脳神経外科_呼吸器外科_心臓血管外科_消化器外科_乳腺外科_整形外科_形成外科_小児科_産婦人科_眼科_耳鼻いんこう科_皮膚科_泌尿器科_精神科_リハビリテーション科_放射線科_麻酔科】【一般病床数:288療養病床数:0精神病床数:0感染症病床数:0合計病床数:288】京都府長岡京市下海印寺下内田１０１番地" }, "geometry": { "type": "Point", "coordinates": [ 135.686609, 34.916071 ] } },
{ "type": "Feature", "properties": { "ID": 2612610000038, "正式名称": "医療法人総心会　　長岡京病院", "機関区分": 1, "都道府県コード": 26, "市区町村コード": 209, "所在地": "京都府長岡京市天神１丁目２０番１０号", "緯度": 34.922876, "経度": 135.690331, "url": "https://www.iryou.teikyouseido.mhlw.go.jp/znk-web/juminkanja/S2430/initialize?prefCd=26&kikanCd=2610000038&kikanKbn=1", "url2": "http://nagaokakyo-hospital.or.jp/", "内容": "医療法人総心会　　長岡京病院【1:病院】【診療科目:内科_糖尿病内科_循環器内科_消化器内科_神経内科_外科_消化器外科_肛門外科_整形外科_リハビリテーション科_放射線科】【一般病床数:97療養病床数:0精神病床数:0感染症病床数:0合計病床数:0】京都府長岡京市天神１丁目２０番１０号" }, "geometry": { "type": "Point", "coordinates": [ 135.690331, 34.922876 ] } },
{ "type": "Feature", "properties": { "ID": 2612610000039, "正式名称": "医療法人　真生会　向日回生病院", "機関区分": 1, "都道府県コード": 26, "市区町村コード": 208, "所在地": "京都府向日市物集女町中海道９２番地の１２", "緯度": 34.962205, "経度": 135.691245, "url": "https://www.iryou.teikyouseido.mhlw.go.jp/znk-web/juminkanja/S2430/initialize?prefCd=26&kikanCd=2610000039&kikanKbn=1", "url2": "http://shinseikai.jpn.com/", "内容": "医療法人　真生会　向日回生病院【1:病院】【診療科目:内科_糖尿病内科_呼吸器内科_循環器内科_消化器内科_神経内科_外科_脳神経外科_消化器外科_肛門外科_整形外科_皮膚科_泌尿器科_心療内科_リハビリテーション科_放射線科_麻酔科】【一般病床数:110療養病床数:48精神病床数:0感染症病床数:0合計病床数:158】京都府向日市物集女町中海道９２番地の１２" }, "geometry": { "type": "Point", "coordinates": [ 135.691245, 34.962205 ] } },
{ "type": "Feature", "properties": { "ID": 2612610000040, "正式名称": "医療法人社団　千春会　千春会病院", "機関区分": 1, "都道府県コード": 26, "市区町村コード": 209, "所在地": "京都府長岡京市開田２丁目１４番２６号", "緯度": 34.923876, "経度": 135.698274, "url": "https://www.iryou.teikyouseido.mhlw.go.jp/znk-web/juminkanja/S2430/initialize?prefCd=26&kikanCd=2610000040&kikanKbn=1", "url2": "http://www.senshunkai.or.jp/", "内容": "医療法人社団　千春会　千春会病院【1:病院】【診療科目:内科_血液内科_呼吸器内科_循環器内科_消化器内科_腎臓内科_神経内科_外科_整形外科_皮膚科_リハビリテーション科_放射線科_麻酔科】【一般病床数:60療養病床数:0精神病床数:0感染症病床数:0合計病床数:60】京都府長岡京市開田２丁目１４番２６号" }, "geometry": { "type": "Point", "coordinates": [ 135.698274, 34.923876 ] } },
{ "type": "Feature", "properties": { "ID": 2612610000041, "正式名称": "一般財団法人療道協会西山病院", "機関区分": 1, "都道府県コード": 26, "市区町村コード": 209, "所在地": "京都府長岡京市今里５－１－１", "緯度": 34.935319, "経度": 135.687664, "url": "https://www.iryou.teikyouseido.mhlw.go.jp/znk-web/juminkanja/S2430/initialize?prefCd=26&kikanCd=2610000041&kikanKbn=1", "url2": "http://www.nishiyama-hospital.or.jp/", "内容": "一般財団法人療道協会西山病院【1:病院】【診療科目:内科_神経内科_精神科_心療内科】【一般病床数:0療養病床数:0精神病床数:287感染症病床数:0合計病床数:287】京都府長岡京市今里５－１－１" }, "geometry": { "type": "Point", "coordinates": [ 135.687664, 34.935319 ] } },
{ "type": "Feature", "properties": { "ID": 2612610000042, "正式名称": "京都第二赤十字病院", "機関区分": 1, "都道府県コード": 26, "市区町村コード": 102, "所在地": "京都府京都市上京区釜座通丸太町上ル春帯町３５５番地の５", "緯度": 35.018978, "経度": 135.756099, "url": "https://www.iryou.teikyouseido.mhlw.go.jp/znk-web/juminkanja/S2430/initialize?prefCd=26&kikanCd=2610000042&kikanKbn=1", "url2": "https://www.kyoto2.jrc.or.jp/", "内容": "京都第二赤十字病院【1:病院】【診療科目:内科_血液内科_糖尿病・内分泌内科_呼吸器内科_循環器内科_消化器内科_腎臓内科_神経内科_外科_脳神経外科_呼吸器外科_気管食道外科_心臓血管外科_整形外科_形成外科_小児科_産婦人科_眼科_耳鼻いんこう科_皮膚科_泌尿器科_精神科_歯科口腔外科_リハビリテーション科_放射線診断科_放射線治療科_病理診断科_救急科_麻酔科】【一般病床数:667療養病床数:0精神病床数:0感染症病床数:0合計病床数:667】京都府京都市上京区釜座通丸太町上ル春帯町３５５番地の５" }, "geometry": { "type": "Point", "coordinates": [ 135.756099, 35.018978 ] } },
{ "type": "Feature", "properties": { "ID": 2612610000043, "正式名称": "室町病院", "機関区分": 1, "都道府県コード": 26, "市区町村コード": 102, "所在地": "京都府京都市上京区室町通上立売下る裏築地町８８", "緯度": 35.031115, "経度": 135.758126, "url": "https://www.iryou.teikyouseido.mhlw.go.jp/znk-web/juminkanja/S2430/initialize?prefCd=26&kikanCd=2610000043&kikanKbn=1", "url2": "http://www.muromachi.or.jp/", "内容": "室町病院【1:病院】【診療科目:内科_血液・腫瘍内科_糖尿病内科_呼吸器内科_循環器内科_消化器内科_胃腸内科_老年内科_外科_整形外科_アレルギー科_リウマチ科_リハビリテーション科_放射線科】【一般病床数:50療養病床数:0精神病床数:0感染症病床数:0合計病床数:50】京都府京都市上京区室町通上立売下る裏築地町８８" }, "geometry": { "type": "Point", "coordinates": [ 135.758126, 35.031115 ] } },
{ "type": "Feature", "properties": { "ID": 2612610000044, "正式名称": "社会医療法人　西陣健康会　堀川病院", "機関区分": 1, "都道府県コード": 26, "市区町村コード": 102, "所在地": "京都府京都市上京区堀川通今出川上る北舟橋町８６５", "緯度": 35.030504, "経度": 135.752626, "url": "https://www.iryou.teikyouseido.mhlw.go.jp/znk-web/juminkanja/S2430/initialize?prefCd=26&kikanCd=2610000044&kikanKbn=1", "url2": "http://www.horikawa-hp.or.jp/", "内容": "社会医療法人　西陣健康会　堀川病院【1:病院】【診療科目:内科_呼吸器内科_循環器内科_消化器内科_人工透析内科_神経内科_外科_脳神経外科_整形外科_婦人科_眼科_耳鼻いんこう科_皮膚科_泌尿器科_心療内科_リハビリテーション科_麻酔科】【一般病床数:198療養病床数:0精神病床数:0感染症病床数:0合計病床数:198】京都府京都市上京区堀川通今出川上る北舟橋町８６５" }, "geometry": { "type": "Point", "coordinates": [ 135.752626, 35.030504 ] } },
{ "type": "Feature", "properties": { "ID": 2612610000045, "正式名称": "医療法人　相馬病院", "機関区分": 1, "都道府県コード": 26, "市区町村コード": 102, "所在地": "京都府京都市上京区御前通今小路下ル南馬喰町９１１番地", "緯度": 35.027782, "経度": 135.736822, "url": "https://www.iryou.teikyouseido.mhlw.go.jp/znk-web/juminkanja/S2430/initialize?prefCd=26&kikanCd=2610000045&kikanKbn=1", "url2": "https://www.sohma-hp.or.jp/", "内容": "医療法人　相馬病院【1:病院】【診療科目:内科_循環器内科_消化器内科_神経内科_外科_脳神経外科_肛門外科_整形外科_皮膚科_泌尿器科_リハビリテーション科_放射線科_麻酔科】【一般病床数:130療養病床数:0精神病床数:0感染症病床数:0合計病床数:130】京都府京都市上京区御前通今小路下ル南馬喰町９１１番地" }, "geometry": { "type": "Point", "coordinates": [ 135.736822, 35.027782 ] } },
{ "type": "Feature", "properties": { "ID": 2612610000046, "正式名称": "京都府立医科大学附属病院", "機関区分": 1, "都道府県コード": 26, "市区町村コード": 102, "所在地": "京都府京都市上京区河原町通広小路上る梶井町４６５", "緯度": 35.024116, "経度": 135.770153, "url": "https://www.iryou.teikyouseido.mhlw.go.jp/znk-web/juminkanja/S2430/initialize?prefCd=26&kikanCd=2610000046&kikanKbn=1", "url2": "http://www.h.kpu-m.ac.jp/", "内容": "京都府立医科大学附属病院【1:病院】【診療科目:内科_血液内科_糖尿病・代謝内科_呼吸器内科_循環器内科_消化器内科_腎臓内科_神経内科_外科_脳神経外科_呼吸器外科_心臓血管外科_整形外科_形成外科_小児科_小児外科_産婦人科_眼科_耳鼻いんこう科_皮膚科_泌尿器科_精神科_心療内科_歯科_アレルギー科_リウマチ科_リハビリテーション科_放射線科_病理診断科_麻酔科】【一般病床数:883療養病床数:0精神病床数:118感染症病床数:0合計病床数:1055】京都府京都市上京区河原町通広小路上る梶井町４６５" }, "geometry": { "type": "Point", "coordinates": [ 135.770153, 35.024116 ] } },
{ "type": "Feature", "properties": { "ID": 2612610000047, "正式名称": "社会福祉法人京都社会事業財団　西陣病院", "機関区分": 1, "都道府県コード": 26, "市区町村コード": 102, "所在地": "京都府京都市上京区五辻通六軒町西入溝前町１０３５", "緯度": 35.032865, "経度": 135.739127, "url": "https://www.iryou.teikyouseido.mhlw.go.jp/znk-web/juminkanja/S2430/initialize?prefCd=26&kikanCd=2610000047&kikanKbn=1", "url2": "https://www.nishijinhp.com/", "内容": "社会福祉法人京都社会事業財団　西陣病院【1:病院】【診療科目:内科_糖尿病内科_脳神経内科_呼吸器内科_循環器内科_消化器内科_外科_脳神経外科_心臓血管外科_消化器外科_乳腺外科_肛門外科_腫瘍外科_内視鏡外科_整形外科_眼科_皮膚科_腎臓・泌尿器科_リウマチ科_リハビリテーション科_放射線科_麻酔科】【一般病床数:300療養病床数:0精神病床数:0感染症病床数:0合計病床数:300】京都府京都市上京区五辻通六軒町西入溝前町１０３５" }, "geometry": { "type": "Point", "coordinates": [ 135.739127, 35.032865 ] } },
{ "type": "Feature", "properties": { "ID": 2612610000048, "正式名称": "医療法人愛寿会同仁病院", "機関区分": 1, "都道府県コード": 26, "市区町村コード": 102, "所在地": "京都府京都市上京区一条通新町東入東日野殿町３９４－１", "緯度": 35.026394, "経度": 135.757293, "url": "https://www.iryou.teikyouseido.mhlw.go.jp/znk-web/juminkanja/S2430/initialize?prefCd=26&kikanCd=2610000048&kikanKbn=1", "url2": "http://www.dohjin-hp.com/", "内容": "医療法人愛寿会同仁病院【1:病院】【診療科目:内科_糖尿病内科_循環器内科_消化器内科_神経内科_外科_整形外科_眼科_リハビリテーション科_放射線科】【一般病床数:39療養病床数:60精神病床数:0感染症病床数:0合計病床数:99】京都府京都市上京区一条通新町東入東日野殿町３９４－１" }, "geometry": { "type": "Point", "coordinates": [ 135.757293, 35.026394 ] } },
{ "type": "Feature", "properties": { "ID": 2612610000050, "正式名称": "医療法人明生会　賀茂病院", "機関区分": 1, "都道府県コード": 26, "市区町村コード": 101, "所在地": "京都府京都市北区東栗栖町４３", "緯度": 35.04903, "経度": 135.745181, "url": "https://www.iryou.teikyouseido.mhlw.go.jp/znk-web/juminkanja/S2430/initialize?prefCd=26&kikanCd=2610000050&kikanKbn=1", "url2": "http://www.kamo-hp.or.jp/", "内容": "医療法人明生会　賀茂病院【1:病院】【診療科目:内科_人工透析内科_外科_眼科_泌尿器科_放射線科】【一般病床数:34療養病床数:25精神病床数:0感染症病床数:0合計病床数:59】京都府京都市北区東栗栖町４３" }, "geometry": { "type": "Point", "coordinates": [ 135.745181, 35.04903 ] } },
{ "type": "Feature", "properties": { "ID": 2612610000051, "正式名称": "社会福祉法人　聖ヨゼフ会　肢体不自由児・重症心身障害児施設　聖ヨゼフ医療福祉センター", "機関区分": 1, "都道府県コード": 26, "市区町村コード": 101, "所在地": "京都府京都市北区東紅梅町　６－１", "緯度": 35.029115, "経度": 135.732072, "url": "https://www.iryou.teikyouseido.mhlw.go.jp/znk-web/juminkanja/S2430/initialize?prefCd=26&kikanCd=2610000051&kikanKbn=1", "url2": "http://www.joseph-kyoto.com/", "内容": "社会福祉法人　聖ヨゼフ会　肢体不自由児・重症心身障害児施設　聖ヨゼフ医療福祉センター【1:病院】【診療科目:整形外科_小児科_リハビリテーション科】【一般病床数:81療養病床数:44精神病床数:0感染症病床数:0合計病床数:0】京都府京都市北区東紅梅町　６－１" }, "geometry": { "type": "Point", "coordinates": [ 135.732072, 35.029115 ] } },
{ "type": "Feature", "properties": { "ID": 2612610000052, "正式名称": "医療法人　浜田会　　洛北病院", "機関区分": 1, "都道府県コード": 26, "市区町村コード": 101, "所在地": "京都府京都市北区上賀茂神山６番地", "緯度": 35.076305, "経度": 135.76454, "url": "https://www.iryou.teikyouseido.mhlw.go.jp/znk-web/juminkanja/S2430/initialize?prefCd=26&kikanCd=2610000052&kikanKbn=1", "url2": null, "内容": "医療法人　浜田会　　洛北病院【1:病院】【診療科目:内科_循環器内科_消化器内科_歯科_歯科口腔外科_リハビリテーション科】【一般病床数:0療養病床数:80精神病床数:0感染症病床数:0合計病床数:80】京都府京都市北区上賀茂神山６番地" }, "geometry": { "type": "Point", "coordinates": [ 135.76454, 35.076305 ] } },
{ "type": "Feature", "properties": { "ID": 2612610000055, "正式名称": "冨田病院", "機関区分": 1, "都道府県コード": 26, "市区町村コード": 101, "所在地": "京都府京都市北区小山下内河原町５６", "緯度": 35.044892, "経度": 135.760791, "url": "https://www.iryou.teikyouseido.mhlw.go.jp/znk-web/juminkanja/S2430/initialize?prefCd=26&kikanCd=2610000055&kikanKbn=1", "url2": "http://www.kyoto-hakuaikai.or.jp/", "内容": "冨田病院【1:病院】【診療科目:内科_循環器内科_消化器内科_神経内科_外科_整形外科_小児科_婦人科_眼科_皮膚科_精神科_リハビリテーション科_放射線科】【一般病床数:99療養病床数:0精神病床数:0感染症病床数:0合計病床数:99】京都府京都市北区小山下内河原町５６" }, "geometry": { "type": "Point", "coordinates": [ 135.760791, 35.044892 ] } },
{ "type": "Feature", "properties": { "ID": 2612610000060, "正式名称": "一般財団法人　薬師山病院", "機関区分": 1, "都道府県コード": 26, "市区町村コード": 101, "所在地": "京都府京都市北区大宮薬師山西町１５番地", "緯度": 35.058029, "経度": 135.737987, "url": "https://www.iryou.teikyouseido.mhlw.go.jp/znk-web/juminkanja/S2430/initialize?prefCd=26&kikanCd=2610000060&kikanKbn=1", "url2": "https://www.juzenkai.or.jp/yakushiyama", "内容": "一般財団法人　薬師山病院【1:病院】【診療科目:内科_緩和ケア内科】【一般病床数:70療養病床数:0精神病床数:0感染症病床数:0合計病床数:70】京都府京都市北区大宮薬師山西町１５番地" }, "geometry": { "type": "Point", "coordinates": [ 135.737987, 35.058029 ] } },
{ "type": "Feature", "properties": { "ID": 2612610000062, "正式名称": "社会福祉法人京都博愛会　　京都博愛会病院", "機関区分": 1, "都道府県コード": 26, "市区町村コード": 101, "所在地": "京都府京都市北区上賀茂ケシ山１番地", "緯度": 35.060362, "経度": 135.771873, "url": "https://www.iryou.teikyouseido.mhlw.go.jp/znk-web/juminkanja/S2430/initialize?prefCd=26&kikanCd=2610000062&kikanKbn=1", "url2": "https://www.kyoto-hakuaikai.or.jp/hakuai/", "内容": "社会福祉法人京都博愛会　　京都博愛会病院【1:病院】【診療科目:内科_脳神経内科_循環器内科_消化器内科_外科_呼吸器外科_消化器外科_肛門外科_整形外科_眼科_耳鼻いんこう科_皮膚科_泌尿器科_精神科_歯科_リハビリテーション科_放射線科】【一般病床数:150療養病床数:54精神病床数:186感染症病床数:0合計病床数:390】京都府京都市北区上賀茂ケシ山１番地" }, "geometry": { "type": "Point", "coordinates": [ 135.771873, 35.060362 ] } },
{ "type": "Feature", "properties": { "ID": 2612610000063, "正式名称": "三菱京都病院", "機関区分": 1, "都道府県コード": 26, "市区町村コード": 111, "所在地": "京都府京都市西京区桂御所町１番地", "緯度": 34.987758, "経度": 135.701438, "url": "https://www.iryou.teikyouseido.mhlw.go.jp/znk-web/juminkanja/S2430/initialize?prefCd=26&kikanCd=2610000063&kikanKbn=1", "url2": "http://www.mitsubishi-hp.jp/", "内容": "三菱京都病院【1:病院】【診療科目:糖尿病内科_呼吸器内科_循環器内科_心臓内科_消化器内科_腎臓内科_神経内科_腫瘍内科_緩和ケア内科_呼吸器外科_心臓血管外科_消化器外科_乳腺外科_整形外科_小児科_産婦人科_眼科_泌尿器科_歯科口腔外科_アレルギー科_リハビリテーション科_放射線科_麻酔科】【一般病床数:188療養病床数:0精神病床数:0感染症病床数:0合計病床数:0】京都府京都市西京区桂御所町１番地" }, "geometry": { "type": "Point", "coordinates": [ 135.701438, 34.987758 ] } },
{ "type": "Feature", "properties": { "ID": 2612610000064, "正式名称": "医療法人倖生会　身原病院", "機関区分": 1, "都道府県コード": 26, "市区町村コード": 111, "所在地": "京都府京都市西京区上桂宮ノ後町６－８", "緯度": 34.990785, "経度": 135.696327, "url": "https://www.iryou.teikyouseido.mhlw.go.jp/znk-web/juminkanja/S2430/initialize?prefCd=26&kikanCd=2610000064&kikanKbn=1", "url2": "https://mihara.com/", "内容": "医療法人倖生会　身原病院【1:病院】【診療科目:産科_婦人科_産婦人科（生殖医療）_麻酔科】【一般病床数:29療養病床数:0精神病床数:0感染症病床数:0合計病床数:29】京都府京都市西京区上桂宮ノ後町６－８" }, "geometry": { "type": "Point", "coordinates": [ 135.696327, 34.990785 ] } },
{ "type": "Feature", "properties": { "ID": 2612610000065, "正式名称": "医療法人清仁会　洛西ニュータウン病院", "機関区分": 1, "都道府県コード": 26, "市区町村コード": 111, "所在地": "京都府京都市西京区大枝東新林町３丁目６番地", "緯度": 34.96701, "経度": 135.673691, "url": "https://www.iryou.teikyouseido.mhlw.go.jp/znk-web/juminkanja/S2430/initialize?prefCd=26&kikanCd=2610000065&kikanKbn=1", "url2": "https://www.shimizu-hospital.or.jp/newtown/", "内容": "医療法人清仁会　洛西ニュータウン病院【1:病院】【診療科目:内科_脳神経内科_循環器内科_消化器内科_外科_脳神経外科_消化器外科_乳腺外科_肛門外科_整形外科_形成外科_眼科_耳鼻いんこう科_皮膚科_泌尿器科_歯科口腔外科_リハビリテーション科_放射線科_麻酔科】【一般病床数:138療養病床数:46精神病床数:0感染症病床数:0合計病床数:184】京都府京都市西京区大枝東新林町３丁目６番地" }, "geometry": { "type": "Point", "coordinates": [ 135.673691, 34.96701 ] } },
{ "type": "Feature", "properties": { "ID": 2612610000066, "正式名称": "医療法人京都翔医会　西京都病院", "機関区分": 1, "都道府県コード": 26, "市区町村コード": 111, "所在地": "京都府京都市西京区桂畑ケ田町１７５番地", "緯度": 34.99197, "経度": 135.70388, "url": "https://www.iryou.teikyouseido.mhlw.go.jp/znk-web/juminkanja/S2430/initialize?prefCd=26&kikanCd=2610000066&kikanKbn=1", "url2": "http://www.hospynkh.jp/", "内容": "医療法人京都翔医会　西京都病院【1:病院】【診療科目:内科_脳神経内科_呼吸器内科_循環器内科_消化器内科_腎臓内科_人工透析内科_腎臓内科_外科_呼吸器外科_血管外科_肛門外科_整形外科_泌尿器科_精神科_心療内科_リハビリテーション科_放射線科_麻酔科】【一般病床数:199療養病床数:0精神病床数:0感染症病床数:0合計病床数:199】京都府京都市西京区桂畑ケ田町１７５番地" }, "geometry": { "type": "Point", "coordinates": [ 135.70388, 34.99197 ] } },
{ "type": "Feature", "properties": { "ID": 2612610000067, "正式名称": "社会福祉法人　京都社会事業財団　京都桂病院", "機関区分": 1, "都道府県コード": 26, "市区町村コード": 111, "所在地": "京都府京都市西京区山田平尾町１７番地", "緯度": 34.981953, "経度": 135.687134, "url": "https://www.iryou.teikyouseido.mhlw.go.jp/znk-web/juminkanja/S2430/initialize?prefCd=26&kikanCd=2610000067&kikanKbn=1", "url2": "http://www.katsura.com", "内容": "社会福祉法人　京都社会事業財団　京都桂病院【1:病院】【診療科目:内科_血液内科_糖尿病・内分泌内科_脳神経内科_呼吸器内科_循環器内科_心臓血管内科_消化器内科_腎臓内科_人工透析内科_腫瘍内科_緩和ケア内科_外科_脳神経外科_呼吸器外科_心臓血管外科_消化器外科_乳腺外科_肛門外科_頭頸部外科_内視鏡外科_整形外科_形成外科_小児科_新生児内科_産婦人科_眼科_耳鼻いんこう科_皮膚科_泌尿器科_精神科_アレルギー科_リウマチ科_リハビリテーション科_放射線科_病理診断科_救急科_麻酔科】【一般病床数:545療養病床数:0精神病床数:0感染症病床数:0合計病床数:551】京都府京都市西京区山田平尾町１７番地" }, "geometry": { "type": "Point", "coordinates": [ 135.687134, 34.981953 ] } },
{ "type": "Feature", "properties": { "ID": 2612610000068, "正式名称": "医療法人清仁会　シミズ病院", "機関区分": 1, "都道府県コード": 26, "市区町村コード": 111, "所在地": "京都府京都市西京区山田中吉見町１１番地２", "緯度": 34.981711, "経度": 135.6928, "url": "https://www.iryou.teikyouseido.mhlw.go.jp/znk-web/juminkanja/S2430/initialize?prefCd=26&kikanCd=2610000068&kikanKbn=1", "url2": "http://www.shimizu-hospital.or.jp/", "内容": "医療法人清仁会　シミズ病院【1:病院】【診療科目:内科_脳神経内科_呼吸器内科_循環器内科_消化器内科_外科_脳神経外科_呼吸器外科_心臓血管外科_整形外科_形成外科_皮膚科_泌尿器科_リウマチ科_リハビリテーション科_放射線科_麻酔科】【一般病床数:139療養病床数:0精神病床数:0感染症病床数:0合計病床数:139】京都府京都市西京区山田中吉見町１１番地２" }, "geometry": { "type": "Point", "coordinates": [ 135.6928, 34.981711 ] } },
{ "type": "Feature", "properties": { "ID": 2612610000069, "正式名称": "医療法人　清仁会　洛西シミズ病院", "機関区分": 1, "都道府県コード": 26, "市区町村コード": 111, "所在地": "京都府京都市西京区大枝沓掛町１３－１０７", "緯度": 34.975175, "経度": 135.665636, "url": "https://www.iryou.teikyouseido.mhlw.go.jp/znk-web/juminkanja/S2430/initialize?prefCd=26&kikanCd=2610000069&kikanKbn=1", "url2": "http://www.shimizu-hospital.or.jp/", "内容": "医療法人　清仁会　洛西シミズ病院【1:病院】【診療科目:内科_脳神経内科_循環器内科_消化器内科_ペインクリニック内科_外科_脳神経外科_ペインクリニック外科_整形外科_皮膚科_泌尿器科_歯科_リウマチ科_リハビリテーション科_放射線科_麻酔科_ガンマナイフ科】【一般病床数:215療養病床数:0精神病床数:0感染症病床数:0合計病床数:215】京都府京都市西京区大枝沓掛町１３－１０７" }, "geometry": { "type": "Point", "coordinates": [ 135.665636, 34.975175 ] } },
{ "type": "Feature", "properties": { "ID": 2612610000071, "正式名称": "京都九条病院", "機関区分": 1, "都道府県コード": 26, "市区町村コード": 107, "所在地": "京都府京都市南区唐橋羅城門町１０", "緯度": 34.978426, "経度": 135.741129, "url": "https://www.iryou.teikyouseido.mhlw.go.jp/znk-web/juminkanja/S2430/initialize?prefCd=26&kikanCd=2610000071&kikanKbn=1", "url2": "http://www.dojinkai.com/", "内容": "京都九条病院【1:病院】【診療科目:内科_糖尿病内科_呼吸器内科_循環器内科_消化器内科_腎臓内科_外科_脳神経外科_消化器外科_乳腺外科_整形外科_泌尿器科_精神科_心療内科_歯科_歯科口腔外科_リハビリテーション科_放射線科_救急科_麻酔科】【一般病床数:207療養病床数:0精神病床数:0感染症病床数:0合計病床数:207】京都府京都市南区唐橋羅城門町１０" }, "geometry": { "type": "Point", "coordinates": [ 135.741129, 34.978426 ] } },
{ "type": "Feature", "properties": { "ID": 2612610000072, "正式名称": "公益社団法人京都保健会　吉祥院病院", "機関区分": 1, "都道府県コード": 26, "市区町村コード": 107, "所在地": "京都府京都市南区吉祥院井ノ口町４３", "緯度": 34.976343, "経度": 135.732908, "url": "https://www.iryou.teikyouseido.mhlw.go.jp/znk-web/juminkanja/S2430/initialize?prefCd=26&kikanCd=2610000072&kikanKbn=1", "url2": "http://www.kissyouin-hp.org/", "内容": "公益社団法人京都保健会　吉祥院病院【1:病院】【診療科目:内科_糖尿病内科_循環器内科_消化器内科_神経内科_肛門内科_外科_整形外科_泌尿器科_リハビリテーション科】【一般病床数:44療養病床数:0精神病床数:0感染症病床数:0合計病床数:44】京都府京都市南区吉祥院井ノ口町４３" }, "geometry": { "type": "Point", "coordinates": [ 135.732908, 34.976343 ] } },
{ "type": "Feature", "properties": { "ID": 2612610000075, "正式名称": "医療法人財団　　医道会　十条武田リハビリテーション病院", "機関区分": 1, "都道府県コード": 26, "市区町村コード": 107, "所在地": "京都府京都市南区吉祥院八反田町３２番地", "緯度": 34.973704, "経度": 135.741019, "url": "https://www.iryou.teikyouseido.mhlw.go.jp/znk-web/juminkanja/S2430/initialize?prefCd=26&kikanCd=2610000075&kikanKbn=1", "url2": "http://www.takedahp.or.jp/jujo/index.php", "内容": "医療法人財団　　医道会　十条武田リハビリテーション病院【1:病院】【診療科目:内科_糖尿病内科_呼吸器内科_循環器内科_消化器内科_神経内科_外科_脳神経外科_肛門外科_整形外科_皮膚科_泌尿器科_心療内科_リウマチ科_リハビリテーション科_放射線科_麻酔科】【一般病床数:181療養病床数:0精神病床数:0感染症病床数:0合計病床数:181】京都府京都市南区吉祥院八反田町３２番地" }, "geometry": { "type": "Point", "coordinates": [ 135.741019, 34.973704 ] } },
{ "type": "Feature", "properties": { "ID": 2612610000076, "正式名称": "医療法人財団今井会足立病院　　　第二足立病院", "機関区分": 1, "都道府県コード": 26, "市区町村コード": 107, "所在地": "京都府京都市南区四ツ塚町１番地", "緯度": 34.979565, "経度": 135.746046, "url": "https://www.iryou.teikyouseido.mhlw.go.jp/znk-web/juminkanja/S2430/initialize?prefCd=26&kikanCd=2610000076&kikanKbn=1", "url2": "www.dainiadachi.or.jp", "内容": "医療法人財団今井会足立病院　　　第二足立病院【1:病院】【診療科目:産婦人科】【一般病床数:30療養病床数:0精神病床数:0感染症病床数:0合計病床数:30】京都府京都市南区四ツ塚町１番地" }, "geometry": { "type": "Point", "coordinates": [ 135.746046, 34.979565 ] } },
{ "type": "Feature", "properties": { "ID": 2612610000077, "正式名称": "京都第一赤十字病院", "機関区分": 1, "都道府県コード": 26, "市区町村コード": 105, "所在地": "京都府京都市東山区本町　１５丁目　７４９番地", "緯度": 34.980954, "経度": 135.773127, "url": "https://www.iryou.teikyouseido.mhlw.go.jp/znk-web/juminkanja/S2430/initialize?prefCd=26&kikanCd=2610000077&kikanKbn=1", "url2": "https://www.kyoto1.jrc.or.jp/", "内容": "京都第一赤十字病院【1:病院】【診療科目:内科_血液内科_糖尿病内科_呼吸器内科_循環器内科_消化器内科_腎臓内科_神経内科_緩和ケア内科_外科_脳神経外科_呼吸器外科_心臓血管外科_乳腺外科_整形外科_形成外科_小児科_小児外科_新生児内科_産婦人科_眼科_頭頸部・耳鼻いんこう科_皮膚科_泌尿器科_精神科_歯科口腔外科_リウマチ科_リハビリテーション科_放射線診断科_放射線治療科_病理診断科_救急科_麻酔科】【一般病床数:600療養病床数:0精神病床数:0感染症病床数:0合計病床数:602】京都府京都市東山区本町　１５丁目　７４９番地" }, "geometry": { "type": "Point", "coordinates": [ 135.773127, 34.980954 ] } },
{ "type": "Feature", "properties": { "ID": 2612610000079, "正式名称": "医療法人　原田病院", "機関区分": 1, "都道府県コード": 26, "市区町村コード": 105, "所在地": "京都府京都市東山区大和大路通七条西入西之門町５４６－２", "緯度": 34.988592, "経度": 135.770654, "url": "https://www.iryou.teikyouseido.mhlw.go.jp/znk-web/juminkanja/S2430/initialize?prefCd=26&kikanCd=2610000079&kikanKbn=1", "url2": "https://harada-hp.com/", "内容": "医療法人　原田病院【1:病院】【診療科目:内科_呼吸器内科_循環器内科_消化器内科_外科_脳神経外科_呼吸器外科_消化器外科_肛門外科_整形外科_形成外科_小児科_耳鼻いんこう科_皮膚科_泌尿器科_アレルギー科_リハビリテーション科】【一般病床数:50療養病床数:0精神病床数:0感染症病床数:0合計病床数:50】京都府京都市東山区大和大路通七条西入西之門町５４６－２" }, "geometry": { "type": "Point", "coordinates": [ 135.770654, 34.988592 ] } },
{ "type": "Feature", "properties": { "ID": 2612610000081, "正式名称": "医療法人社団育生会　京都久野病院", "機関区分": 1, "都道府県コード": 26, "市区町村コード": 105, "所在地": "京都府京都市東山区本町２２丁目５００番地", "緯度": 34.970733, "経度": 135.770516, "url": "https://www.iryou.teikyouseido.mhlw.go.jp/znk-web/juminkanja/S2430/initialize?prefCd=26&kikanCd=2610000081&kikanKbn=1", "url2": "https://www.kuno-hospital.or.jp/", "内容": "医療法人社団育生会　京都久野病院【1:病院】【診療科目:内科_糖尿病内科_脳神経内科_循環器内科_消化器内科_神経内科_外科_脳神経外科_乳腺外科_肛門外科_整形外科_リウマチ科_リハビリテーション科_放射線科】【一般病床数:120療養病床数:115精神病床数:0感染症病床数:0合計病床数:235】京都府京都市東山区本町２２丁目５００番地" }, "geometry": { "type": "Point", "coordinates": [ 135.770516, 34.970733 ] } },
{ "type": "Feature", "properties": { "ID": 2612610000084, "正式名称": "医療法人愛友会　明石病院", "機関区分": 1, "都道府県コード": 26, "市区町村コード": 106, "所在地": "京都府京都市下京区西七条南衣田町９３番地", "緯度": 34.988619, "経度": 135.732741, "url": "https://www.iryou.teikyouseido.mhlw.go.jp/znk-web/juminkanja/S2430/initialize?prefCd=26&kikanCd=2610000084&kikanKbn=1", "url2": "http://www.iyukai.or.jp/", "内容": "医療法人愛友会　明石病院【1:病院】【診療科目:内科_循環器内科_消化器内科_外科_脳神経外科_整形外科_リハビリテーション科】【一般病床数:38療養病床数:82精神病床数:0感染症病床数:0合計病床数:120】京都府京都市下京区西七条南衣田町９３番地" }, "geometry": { "type": "Point", "coordinates": [ 135.732741, 34.988619 ] } },
{ "type": "Feature", "properties": { "ID": 2612610000085, "正式名称": "医療法人社団恵心会　京都武田病院", "機関区分": 1, "都道府県コード": 26, "市区町村コード": 106, "所在地": "京都府京都市下京区西七条南衣田町１１", "緯度": 34.988592, "経度": 135.731046, "url": "https://www.iryou.teikyouseido.mhlw.go.jp/znk-web/juminkanja/S2430/initialize?prefCd=26&kikanCd=2610000085&kikanKbn=1", "url2": "www.kyototakeda.jp", "内容": "医療法人社団恵心会　京都武田病院【1:病院】【診療科目:内科_糖尿病内科_脳神経内科_呼吸器内科_循環器内科_消化器内科_腎臓内科_外科_脳神経外科_整形外科_形成外科_婦人科_眼科_皮膚科_泌尿器科_精神科_心療内科_アレルギー科_リウマチ科_リハビリテーション科_放射線診断科】【一般病床数:240療養病床数:0精神病床数:0感染症病床数:0合計病床数:240】京都府京都市下京区西七条南衣田町１１" }, "geometry": { "type": "Point", "coordinates": [ 135.731046, 34.988592 ] } },
{ "type": "Feature", "properties": { "ID": 2612610000089, "正式名称": "武田病院", "機関区分": 1, "都道府県コード": 26, "市区町村コード": 106, "所在地": "京都府京都市下京区塩小路通西洞院東入東塩小路町８４１－５", "緯度": 34.986898, "経度": 135.755878, "url": "https://www.iryou.teikyouseido.mhlw.go.jp/znk-web/juminkanja/S2430/initialize?prefCd=26&kikanCd=2610000089&kikanKbn=1", "url2": "http://www.takedahp.or.jp/koseikai/", "内容": "武田病院【1:病院】【診療科目:内科_呼吸器内科_循環器内科_消化器内科_神経内科_外科_脳神経外科_呼吸器外科_心臓血管外科_整形外科_小児科_眼科_耳鼻いんこう科_皮膚科_泌尿器科_リハビリテーション科_放射線科_麻酔科】【一般病床数:374療養病床数:0精神病床数:0感染症病床数:0合計病床数:374】京都府京都市下京区塩小路通西洞院東入東塩小路町８４１－５" }, "geometry": { "type": "Point", "coordinates": [ 135.755878, 34.986898 ] } },
{ "type": "Feature", "properties": { "ID": 2612610000090, "正式名称": "医療法人回生会　　京都回生病院", "機関区分": 1, "都道府県コード": 26, "市区町村コード": 106, "所在地": "京都府京都市下京区中堂寺　庄ノ内町　８番地の１", "緯度": 34.998174, "経度": 135.738712, "url": "https://www.iryou.teikyouseido.mhlw.go.jp/znk-web/juminkanja/S2430/initialize?prefCd=26&kikanCd=2610000090&kikanKbn=1", "url2": "http://www.kaiseikai.or.jp/", "内容": "医療法人回生会　　京都回生病院【1:病院】【診療科目:内科_呼吸器内科_循環器内科_消化器内科_外科_脳神経外科_消化器外科_肛門外科_整形外科_眼科_皮膚科_泌尿器科_リハビリテーション科_放射線科】【一般病床数:116療養病床数:59精神病床数:0感染症病床数:0合計病床数:175】京都府京都市下京区中堂寺　庄ノ内町　８番地の１" }, "geometry": { "type": "Point", "coordinates": [ 135.738712, 34.998174 ] } },
{ "type": "Feature", "properties": { "ID": 2612610000091, "正式名称": "医療法人財団今井会足立病院　足立病院", "機関区分": 1, "都道府県コード": 26, "市区町村コード": 104, "所在地": "京都府京都市中京区間之町通押小路上る鍵屋町４８１", "緯度": 35.01259, "経度": 135.761265, "url": "https://www.iryou.teikyouseido.mhlw.go.jp/znk-web/juminkanja/S2430/initialize?prefCd=26&kikanCd=2610000091&kikanKbn=1", "url2": "http://www.adachi-hospital.com/", "内容": "医療法人財団今井会足立病院　足立病院【1:病院】【診療科目:外科_乳腺外科_小児科_産科_婦人科_麻酔科】【一般病床数:56療養病床数:0精神病床数:0感染症病床数:0合計病床数:56】京都府京都市中京区間之町通押小路上る鍵屋町４８１" }, "geometry": { "type": "Point", "coordinates": [ 135.761265, 35.01259 ] } },
{ "type": "Feature", "properties": { "ID": 2612610000095, "正式名称": "公益社団法人京都保健会　京都民医連中央病院", "機関区分": 1, "都道府県コード": 26, "市区町村コード": 108, "所在地": "京都府京都市右京区太秦土本町２番１", "緯度": 35.008561, "経度": 135.706075, "url": "https://www.iryou.teikyouseido.mhlw.go.jp/znk-web/juminkanja/S2430/initialize?prefCd=26&kikanCd=2610000095&kikanKbn=1", "url2": "http://kyoto-min-iren-c-hp.jp/", "内容": "公益社団法人京都保健会　京都民医連中央病院【1:病院】【診療科目:内科_感染症内科_血液内科_糖尿病内科_代謝内科_脂質代謝内科_脳神経内科_呼吸器内科_循環器内科_消化器内科_腎臓内科_人工透析内科_肝臓内科_神経内科_腫瘍内科_内視鏡内科_緩和ケア内科_外科_脳神経外科_呼吸器外科_心臓血管外科_消化器外科_乳腺外科_肛門外科_整形外科_小児科_産婦人科_眼科_耳鼻いんこう科_皮膚科_泌尿器科_精神神経科_歯科口腔外科_リウマチ科_リハビリテーション科_放射線科_病理診断科_臨床検査科_救急科_麻酔科】【一般病床数:359療養病床数:52精神病床数:0感染症病床数:0合計病床数:411】京都府京都市右京区太秦土本町２番１" }, "geometry": { "type": "Point", "coordinates": [ 135.706075, 35.008561 ] } },
{ "type": "Feature", "properties": { "ID": 2612610000096, "正式名称": "地方独立行政法人京都市立病院機構　京都市立病院", "機関区分": 1, "都道府県コード": 26, "市区町村コード": 104, "所在地": "京都府京都市中京区壬生東高田町１－２", "緯度": 34.996702, "経度": 135.734962, "url": "https://www.iryou.teikyouseido.mhlw.go.jp/znk-web/juminkanja/S2430/initialize?prefCd=26&kikanCd=2610000096&kikanKbn=1", "url2": "http://www.kch-org.jp/", "内容": "地方独立行政法人京都市立病院機構　京都市立病院【1:病院】【診療科目:内科_感染症内科_血液内科_内分泌内科_糖尿病・代謝内科_脳神経内科_呼吸器内科_循環器内科_消化器内科_腎臓内科_腫瘍内科_緩和ケア内科_外科_脳神経外科_呼吸器外科_消化器外科_乳腺外科_整形外科_形成外科_小児科_小児外科_産婦人科_眼科_耳鼻いんこう科_皮膚科_泌尿器科_精神科_歯科口腔外科_アレルギー科_リウマチ科_リハビリテーション科_放射線診断科_放射線治療科_病理診断科_臨床検査科_救急科_麻酔科】【一般病床数:528療養病床数:0精神病床数:0感染症病床数:8合計病床数:0】京都府京都市中京区壬生東高田町１－２" }, "geometry": { "type": "Point", "coordinates": [ 135.734962, 34.996702 ] } },
{ "type": "Feature", "properties": { "ID": 2612610000097, "正式名称": "医療法人社団洛和会　洛和会丸太町病院", "機関区分": 1, "都道府県コード": 26, "市区町村コード": 104, "所在地": "京都府京都市中京区聚楽廻松下町９番７", "緯度": 35.018866, "経度": 135.739017, "url": "https://www.iryou.teikyouseido.mhlw.go.jp/znk-web/juminkanja/S2430/initialize?prefCd=26&kikanCd=2610000097&kikanKbn=1", "url2": "http://www.rakuwa.or.jp/maruta/", "内容": "医療法人社団洛和会　洛和会丸太町病院【1:病院】【診療科目:内科_糖尿病内科_呼吸器内科_循環器内科_心臓内科_消化器内科_神経内科_外科_整形外科_形成外科_眼科_耳鼻いんこう科_皮膚科_泌尿器科_リウマチ科_リハビリテーション科_放射線科_救急科_麻酔科】【一般病床数:150療養病床数:0精神病床数:0感染症病床数:0合計病床数:150】京都府京都市中京区聚楽廻松下町９番７" }, "geometry": { "type": "Point", "coordinates": [ 135.739017, 35.018866 ] } },
{ "type": "Feature", "properties": { "ID": 2612610000098, "正式名称": "医療法人　毛利病院", "機関区分": 1, "都道府県コード": 26, "市区町村コード": 104, "所在地": "京都府京都市中京区東堀川通御池上ル押堀町４４番地の１", "緯度": 35.011367, "経度": 135.752238, "url": "https://www.iryou.teikyouseido.mhlw.go.jp/znk-web/juminkanja/S2430/initialize?prefCd=26&kikanCd=2610000098&kikanKbn=1", "url2": null, "内容": "医療法人　毛利病院【1:病院】【診療科目:内科_整形外科】【一般病床数:60療養病床数:0精神病床数:0感染症病床数:0合計病床数:60】京都府京都市中京区東堀川通御池上ル押堀町４４番地の１" }, "geometry": { "type": "Point", "coordinates": [ 135.752238, 35.011367 ] } },
{ "type": "Feature", "properties": { "ID": 2612610000099, "正式名称": "山元病院", "機関区分": 1, "都道府県コード": 26, "市区町村コード": 104, "所在地": "京都府京都市中京区岩上通り蛸薬師下る宮本町７９５", "緯度": 35.005646, "経度": 135.751322, "url": "https://www.iryou.teikyouseido.mhlw.go.jp/znk-web/juminkanja/S2430/initialize?prefCd=26&kikanCd=2610000099&kikanKbn=1", "url2": "http://www.yamamoto-hospital.gr.jp/", "内容": "山元病院【1:病院】【診療科目:小児科_産婦人科_産科_婦人科】【一般病床数:35療養病床数:0精神病床数:0感染症病床数:0合計病床数:35】京都府京都市中京区岩上通り蛸薬師下る宮本町７９５" }, "geometry": { "type": "Point", "coordinates": [ 135.751322, 35.005646 ] } },
{ "type": "Feature", "properties": { "ID": 2612610000101, "正式名称": "医療法人新生十全会京都ならびがおか病院", "機関区分": 1, "都道府県コード": 26, "市区町村コード": 108, "所在地": "京都府京都市右京区常盤古御所町２番地", "緯度": 35.019643, "経度": 135.71238, "url": "https://www.iryou.teikyouseido.mhlw.go.jp/znk-web/juminkanja/S2430/initialize?prefCd=26&kikanCd=2610000101&kikanKbn=1", "url2": "http://www.juzenkai.or.jp/narabigaoka", "内容": "医療法人新生十全会京都ならびがおか病院【1:病院】【診療科目:内科_脳神経内科_精神科_心療内科_歯科_リハビリテーション科_放射線科】【一般病床数:0療養病床数:48精神病床数:329感染症病床数:0合計病床数:377】京都府京都市右京区常盤古御所町２番地" }, "geometry": { "type": "Point", "coordinates": [ 135.71238, 35.019643 ] } },
{ "type": "Feature", "properties": { "ID": 2612610000103, "正式名称": "医療法人淳宰晃会　嵯峨さくら病院", "機関区分": 1, "都道府県コード": 26, "市区町村コード": 108, "所在地": "京都府京都市右京区嵯峨二尊院門前北中院町　２－９", "緯度": 35.024031, "経度": 135.672855, "url": "https://www.iryou.teikyouseido.mhlw.go.jp/znk-web/juminkanja/S2430/initialize?prefCd=26&kikanCd=2610000103&kikanKbn=1", "url2": "https://saga-sakurahospital.com/", "内容": "医療法人淳宰晃会　嵯峨さくら病院【1:病院】【診療科目:内科_神経内科_精神科_心療内科】【一般病床数:0療養病床数:0精神病床数:165感染症病床数:0合計病床数:165】京都府京都市右京区嵯峨二尊院門前北中院町　２－９" }, "geometry": { "type": "Point", "coordinates": [ 135.672855, 35.024031 ] } },
{ "type": "Feature", "properties": { "ID": 2612610000104, "正式名称": "医療法人社団　松仁会　内田病院", "機関区分": 1, "都道府県コード": 26, "市区町村コード": 108, "所在地": "京都府京都市右京区梅津大縄場町６－９", "緯度": 35.001728, "経度": 135.690938, "url": "https://www.iryou.teikyouseido.mhlw.go.jp/znk-web/juminkanja/S2430/initialize?prefCd=26&kikanCd=2610000104&kikanKbn=1", "url2": "uchida-hospital.com", "内容": "医療法人社団　松仁会　内田病院【1:病院】【診療科目:内科_糖尿病内科_呼吸器内科_循環器内科_消化器内科_神経内科_外科_呼吸器外科_消化器外科_整形外科_形成外科_小児科_婦人科_皮膚科_泌尿器科_リハビリテーション科_放射線科_麻酔科】【一般病床数:63療養病床数:0精神病床数:0感染症病床数:0合計病床数:63】京都府京都市右京区梅津大縄場町６－９" }, "geometry": { "type": "Point", "coordinates": [ 135.690938, 35.001728 ] } },
{ "type": "Feature", "properties": { "ID": 2612610000105, "正式名称": "一般財団法人　仁風会　嵯峨野病院", "機関区分": 1, "都道府県コード": 26, "市区町村コード": 108, "所在地": "京都府京都市右京区鳴滝宇多野谷９番地", "緯度": 35.031587, "経度": 135.705908, "url": "https://www.iryou.teikyouseido.mhlw.go.jp/znk-web/juminkanja/S2430/initialize?prefCd=26&kikanCd=2610000105&kikanKbn=1", "url2": "http://www.jinpukai.or.jp/", "内容": "一般財団法人　仁風会　嵯峨野病院【1:病院】【診療科目:内科_呼吸器内科】【一般病床数:0療養病床数:60精神病床数:0感染症病床数:0合計病床数:60】京都府京都市右京区鳴滝宇多野谷９番地" }, "geometry": { "type": "Point", "coordinates": [ 135.705908, 35.031587 ] } },
{ "type": "Feature", "properties": { "ID": 2612610000109, "正式名称": "独立行政法人国立病院機構宇多野病院", "機関区分": 1, "都道府県コード": 26, "市区町村コード": 108, "所在地": "京都府京都市右京区鳴滝音戸山町８", "緯度": 35.028781, "経度": 135.702686, "url": "https://www.iryou.teikyouseido.mhlw.go.jp/znk-web/juminkanja/S2430/initialize?prefCd=26&kikanCd=2610000109&kikanKbn=1", "url2": "https://utano.hosp.go.jp/", "内容": "独立行政法人国立病院機構宇多野病院【1:病院】【診療科目:内科_脳神経内科_呼吸器内科_循環器内科_消化器内科_ペインクリニック内科_外科_脳神経外科_呼吸器外科_整形外科_小児科_眼科_耳鼻いんこう科_皮膚科_泌尿器科_精神科_心療内科_歯科_アレルギー科_リウマチ科_リハビリテーション科_放射線科_麻酔科】【一般病床数:380療養病床数:0精神病床数:0感染症病床数:0合計病床数:380】京都府京都市右京区鳴滝音戸山町８" }, "geometry": { "type": "Point", "coordinates": [ 135.702686, 35.028781 ] } },
{ "type": "Feature", "properties": { "ID": 2612610000110, "正式名称": "一般財団法人　高雄病院", "機関区分": 1, "都道府県コード": 26, "市区町村コード": 108, "所在地": "京都府京都市右京区梅ケ畑畑町３", "緯度": 35.037141, "経度": 135.694353, "url": "https://www.iryou.teikyouseido.mhlw.go.jp/znk-web/juminkanja/S2430/initialize?prefCd=26&kikanCd=2610000110&kikanKbn=1", "url2": "http://takao-hospital.jp/", "内容": "一般財団法人　高雄病院【1:病院】【診療科目:内科_糖尿病内科_漢方内科】【一般病床数:60療養病床数:0精神病床数:0感染症病床数:0合計病床数:60】京都府京都市右京区梅ケ畑畑町３" }, "geometry": { "type": "Point", "coordinates": [ 135.694353, 35.037141 ] } },
{ "type": "Feature", "properties": { "ID": 2612610000113, "正式名称": "医療法人　社団　恵仁会　なぎ辻病院", "機関区分": 1, "都道府県コード": 26, "市区町村コード": 110, "所在地": "京都府京都市山科区椥辻東潰５番１", "緯度": 34.971476, "経度": 135.813811, "url": "https://www.iryou.teikyouseido.mhlw.go.jp/znk-web/juminkanja/S2430/initialize?prefCd=26&kikanCd=2610000113&kikanKbn=1", "url2": "http://www.nagitsuji-hp.jp/", "内容": "医療法人　社団　恵仁会　なぎ辻病院【1:病院】【診療科目:内科_糖尿病内科_糖尿病・内分泌内科_呼吸器内科_循環器内科_消化器内科_神経内科_女性内科_内視鏡内科_外科_脳神経外科_心臓血管外科_消化器外科_乳腺外科_整形外科_婦人科_皮膚科_泌尿器科_歯科_歯科口腔外科_リハビリテーション科_放射線科】【一般病床数:169療養病床数:0精神病床数:0感染症病床数:0合計病床数:169】京都府京都市山科区椥辻東潰５番１" }, "geometry": { "type": "Point", "coordinates": [ 135.813811, 34.971476 ] } },
{ "type": "Feature", "properties": { "ID": 2612610000114, "正式名称": "加藤山科病院", "機関区分": 1, "都道府県コード": 26, "市区町村コード": 110, "所在地": "京都府京都市山科区東野北井ノ上町２－２", "緯度": 34.982399, "経度": 135.81704, "url": "https://www.iryou.teikyouseido.mhlw.go.jp/znk-web/juminkanja/S2430/initialize?prefCd=26&kikanCd=2610000114&kikanKbn=1", "url2": "https://www.kato-y-hosp.jp/", "内容": "加藤山科病院【1:病院】【診療科目:内科_血液内科_呼吸器内科_循環器内科_消化器内科_眼科_リハビリテーション科_放射線科】【一般病床数:0療養病床数:56精神病床数:0感染症病床数:0合計病床数:56】京都府京都市山科区東野北井ノ上町２－２" }, "geometry": { "type": "Point", "coordinates": [ 135.81704, 34.982399 ] } },
{ "type": "Feature", "properties": { "ID": 2612610000115, "正式名称": "医療法人社団洛和会　洛和会音羽リハビリテーション病院", "機関区分": 1, "都道府県コード": 26, "市区町村コード": 110, "所在地": "京都府京都市山科区小山北溝町３２－１", "緯度": 34.985705, "経度": 135.830455, "url": "https://www.iryou.teikyouseido.mhlw.go.jp/znk-web/juminkanja/S2430/initialize?prefCd=26&kikanCd=2610000115&kikanKbn=1", "url2": "http://www.rakuwa.or.jp/", "内容": "医療法人社団洛和会　洛和会音羽リハビリテーション病院【1:病院】【診療科目:内科_呼吸器内科_循環器内科_神経内科_外科_脳神経外科_整形外科_リハビリテーション科】【一般病床数:37療養病床数:149精神病床数:0感染症病床数:0合計病床数:186】京都府京都市山科区小山北溝町３２－１" }, "geometry": { "type": "Point", "coordinates": [ 135.830455, 34.985705 ] } },
{ "type": "Feature", "properties": { "ID": 2612610000116, "正式名称": "医療法人社団洛和会　洛和会音羽病院", "機関区分": 1, "都道府県コード": 26, "市区町村コード": 110, "所在地": "京都府京都市山科区音羽珍事町２番地", "緯度": 34.987816, "経度": 135.829649, "url": "https://www.iryou.teikyouseido.mhlw.go.jp/znk-web/juminkanja/S2430/initialize?prefCd=26&kikanCd=2610000116&kikanKbn=1", "url2": "https://rakuwa-otowa.jp/", "内容": "医療法人社団洛和会　洛和会音羽病院【1:病院】【診療科目:内科_感染症内科_血液内科_糖尿病・内分泌内科_脳神経内科_呼吸器内科_循環器内科_心臓内科_消化器内科_腎臓内科_神経内科_腫瘍内科_老年内科_緩和ケア内科_外科_脳神経外科_呼吸器外科_心臓血管外科_肝臓・胆のう・膵臓外科_乳腺外科_肛門外科_頭頸部外科_整形外科_形成外科_小児科_小児外科_産婦人科_眼科_耳鼻いんこう科_皮膚科_泌尿器科_精神科_心療内科_歯科_矯正歯科_歯科口腔外科_小児歯科_アレルギー科_リウマチ科_リハビリテーション科_放射線科_放射線治療科_病理診断科_救急科_麻酔科】【一般病床数:475療養病床数:0精神病床数:60感染症病床数:0合計病床数:535】京都府京都市山科区音羽珍事町２番地" }, "geometry": { "type": "Point", "coordinates": [ 135.829649, 34.987816 ] } },
{ "type": "Feature", "properties": { "ID": 2612610000120, "正式名称": "独立行政法人国立病院機構京都医療センター", "機関区分": 1, "都道府県コード": 26, "市区町村コード": 109, "所在地": "京都府京都市伏見区深草向畑町１－１", "緯度": 34.953791, "経度": 135.774322, "url": "https://www.iryou.teikyouseido.mhlw.go.jp/znk-web/juminkanja/S2430/initialize?prefCd=26&kikanCd=2610000120&kikanKbn=1", "url2": "https://kyoto.hosp.go.jp/", "内容": "独立行政法人国立病院機構京都医療センター【1:病院】【診療科目:内科_血液内科_糖尿病内科_代謝・内分泌内科_脳神経内科_呼吸器内科_循環器内科_消化器内科_腎臓内科_神経内科_腫瘍内科_緩和ケア内科_外科_脳神経外科_呼吸器外科_血管外科_心臓外科_乳腺外科_頭頸部外科_整形外科_形成外科_小児科_産婦人科_眼科_耳鼻いんこう科_皮膚科_泌尿器科_精神科_歯科口腔外科_小児歯科_リウマチ科_リハビリテーション科_放射線診断科_放射線治療科_病理診断科_臨床検査科_救急科_麻酔科】【一般病床数:600療養病床数:0精神病床数:0感染症病床数:0合計病床数:600】京都府京都市伏見区深草向畑町１－１" }, "geometry": { "type": "Point", "coordinates": [ 135.774322, 34.953791 ] } },
{ "type": "Feature", "properties": { "ID": 2612610000121, "正式名称": "京都市桃陽病院", "機関区分": 1, "都道府県コード": 26, "市区町村コード": 109, "所在地": "京都府京都市伏見区深草大亀谷岩山町４８－１", "緯度": 34.942681, "経度": 135.78846, "url": "https://www.iryou.teikyouseido.mhlw.go.jp/znk-web/juminkanja/S2430/initialize?prefCd=26&kikanCd=2610000121&kikanKbn=1", "url2": "http://www.city.kyoto.lg.jp/hokenfukushi/soshiki/8-5-7-0-0_1.html", "内容": "京都市桃陽病院【1:病院】【診療科目:内科_小児科_発達小児科】【一般病床数:80療養病床数:0精神病床数:0感染症病床数:0合計病床数:100】京都府京都市伏見区深草大亀谷岩山町４８－１" }, "geometry": { "type": "Point", "coordinates": [ 135.78846, 34.942681 ] } },
{ "type": "Feature", "properties": { "ID": 2612610000122, "正式名称": "特定医療法人　桃仁会病院", "機関区分": 1, "都道府県コード": 26, "市区町村コード": 109, "所在地": "京都府京都市伏見区桃山町　伊賀　８３番　１", "緯度": 34.930571, "経度": 135.779212, "url": "https://www.iryou.teikyouseido.mhlw.go.jp/znk-web/juminkanja/S2430/initialize?prefCd=26&kikanCd=2610000122&kikanKbn=1", "url2": "http://www.tojinkai.jp/", "内容": "特定医療法人　桃仁会病院【1:病院】【診療科目:内科_循環器内科_腎臓内科_整形外科_皮膚科_泌尿器科_リハビリテーション科】【一般病床数:43療養病床数:0精神病床数:0感染症病床数:0合計病床数:43】京都府京都市伏見区桃山町　伊賀　８３番　１" }, "geometry": { "type": "Point", "coordinates": [ 135.779212, 34.930571 ] } },
{ "type": "Feature", "properties": { "ID": 2612610000124, "正式名称": "社会福祉法人浩照会　伏見桃山総合病院", "機関区分": 1, "都道府県コード": 26, "市区町村コード": 109, "所在地": "京都府京都市伏見区下油掛町８９５", "緯度": 34.931959, "経度": 135.758936, "url": "https://www.iryou.teikyouseido.mhlw.go.jp/znk-web/juminkanja/S2430/initialize?prefCd=26&kikanCd=2610000124&kikanKbn=1", "url2": "https://koshokai-swc.or.jp/hospital/", "内容": "社会福祉法人浩照会　伏見桃山総合病院【1:病院】【診療科目:内科_呼吸器内科_循環器内科_消化器内科_人工透析内科_神経内科_外科_脳神経外科_大腸・肛門外科_整形外科_婦人科_皮膚科_泌尿器科_リハビリテーション科_放射線科】【一般病床数:199療養病床数:0精神病床数:0感染症病床数:0合計病床数:199】京都府京都市伏見区下油掛町８９５" }, "geometry": { "type": "Point", "coordinates": [ 135.758936, 34.931959 ] } },
{ "type": "Feature", "properties": { "ID": 2612610000125, "正式名称": "社会医療法人　弘仁会　　大島病院", "機関区分": 1, "都道府県コード": 26, "市区町村コード": 109, "所在地": "京都府京都市伏見区桃山町泰長老１１５", "緯度": 34.929432, "経度": 135.771546, "url": "https://www.iryou.teikyouseido.mhlw.go.jp/znk-web/juminkanja/S2430/initialize?prefCd=26&kikanCd=2610000125&kikanKbn=1", "url2": "http://www.oshima.or.jp/", "内容": "社会医療法人　弘仁会　　大島病院【1:病院】【診療科目:内科_糖尿病内科_呼吸器内科_循環器内科_消化器内科_腎臓内科_神経内科_外科_脳神経外科_消化器外科_肛門外科_ペインクリニック外科_整形外科_眼科_皮膚科_リハビリテーション科_放射線科】【一般病床数:168療養病床数:0精神病床数:0感染症病床数:0合計病床数:168】京都府京都市伏見区桃山町泰長老１１５" }, "geometry": { "type": "Point", "coordinates": [ 135.771546, 34.929432 ] } },
{ "type": "Feature", "properties": { "ID": 2612610000127, "正式名称": "医療法人社団淀さんせん会　金井病院", "機関区分": 1, "都道府県コード": 26, "市区町村コード": 109, "所在地": "京都府京都市伏見区淀木津町６１２－１２", "緯度": 34.903906, "経度": 135.715468, "url": "https://www.iryou.teikyouseido.mhlw.go.jp/znk-web/juminkanja/S2430/initialize?prefCd=26&kikanCd=2610000127&kikanKbn=1", "url2": "http://www.kanaihospital.jp/", "内容": "医療法人社団淀さんせん会　金井病院【1:病院】【診療科目:内科_呼吸器内科_循環器内科_消化器内科_神経内科_外科_脳神経外科_肛門外科_整形外科_形成外科_小児科_婦人科_眼科_耳鼻いんこう科_皮膚科_泌尿器科_リウマチ科_リハビリテーション科_放射線科_麻酔科】【一般病床数:128療養病床数:0精神病床数:0感染症病床数:0合計病床数:128】京都府京都市伏見区淀木津町６１２－１２" }, "geometry": { "type": "Point", "coordinates": [ 135.715468, 34.903906 ] } },
{ "type": "Feature", "properties": { "ID": 2612610000129, "正式名称": "一般財団法人　仁風会　京都南西病院", "機関区分": 1, "都道府県コード": 26, "市区町村コード": 109, "所在地": "京都府京都市伏見区久我東町８番地２２", "緯度": 34.934208, "経度": 135.727216, "url": "https://www.iryou.teikyouseido.mhlw.go.jp/znk-web/juminkanja/S2430/initialize?prefCd=26&kikanCd=2610000129&kikanKbn=1", "url2": "https://www.jinpukai.or.jp/", "内容": "一般財団法人　仁風会　京都南西病院【1:病院】【診療科目:内科_整形外科_リハビリテーション科】【一般病床数:0療養病床数:76精神病床数:0感染症病床数:0合計病床数:76】京都府京都市伏見区久我東町８番地２２" }, "geometry": { "type": "Point", "coordinates": [ 135.727216, 34.934208 ] } },
{ "type": "Feature", "properties": { "ID": 2612610000130, "正式名称": "医療法人　桜花会　醍醐病院", "機関区分": 1, "都道府県コード": 26, "市区町村コード": 109, "所在地": "京都府京都市伏見区石田大山町７２番地", "緯度": 34.935682, "経度": 135.805876, "url": "https://www.iryou.teikyouseido.mhlw.go.jp/znk-web/juminkanja/S2430/initialize?prefCd=26&kikanCd=2610000130&kikanKbn=1", "url2": "http://www.daigo-hp.or.jp/", "内容": "医療法人　桜花会　醍醐病院【1:病院】【診療科目:内科_精神科_神経科_心療内科】【一般病床数:0療養病床数:0精神病床数:301感染症病床数:0合計病床数:0】京都府京都市伏見区石田大山町７２番地" }, "geometry": { "type": "Point", "coordinates": [ 135.805876, 34.935682 ] } },
{ "type": "Feature", "properties": { "ID": 2612610000132, "正式名称": "医療法人　松寿会　共和病院", "機関区分": 1, "都道府県コード": 26, "市区町村コード": 109, "所在地": "京都府京都市伏見区醍醐川久保町３０番地", "緯度": 34.955319, "経度": 135.81143, "url": "https://www.iryou.teikyouseido.mhlw.go.jp/znk-web/juminkanja/S2430/initialize?prefCd=26&kikanCd=2610000132&kikanKbn=1", "url2": "https://kyowa-hp.jp/", "内容": "医療法人　松寿会　共和病院【1:病院】【診療科目:内科_脳神経内科_循環器内科_消化器内科_老年内科_外科_呼吸器外科_整形外科_形成外科_皮膚科_泌尿器科_リハビリテーション科_放射線科_麻酔科】【一般病床数:110療養病床数:0精神病床数:0感染症病床数:0合計病床数:110】京都府京都市伏見区醍醐川久保町３０番地" }, "geometry": { "type": "Point", "coordinates": [ 135.81143, 34.955319 ] } },
{ "type": "Feature", "properties": { "ID": 2612610000133, "正式名称": "医療法人　医仁会武田総合病院", "機関区分": 1, "都道府県コード": 26, "市区町村コード": 109, "所在地": "京都府京都市伏見区石田森南町２８－１", "緯度": 34.938876, "経度": 135.802404, "url": "https://www.iryou.teikyouseido.mhlw.go.jp/znk-web/juminkanja/S2430/initialize?prefCd=26&kikanCd=2610000133&kikanKbn=1", "url2": "https://www.takedahp.or.jp/ijinkai/", "内容": "医療法人　医仁会武田総合病院【1:病院】【診療科目:内科_血液内科_内分泌内科_脳神経内科_呼吸器内科_循環器内科_消化器内科_腎臓内科_糖尿病センター_外科_脳神経外科_呼吸器外科_心臓血管外科_整形外科_形成外科_小児科_産婦人科_眼科_耳鼻いんこう科_皮膚科_泌尿器科_歯科口腔外科_リハビリテーション科_放射線科_麻酔科】【一般病床数:490療養病床数:0精神病床数:0感染症病床数:0合計病床数:490】京都府京都市伏見区石田森南町２８－１" }, "geometry": { "type": "Point", "coordinates": [ 135.802404, 34.938876 ] } },
{ "type": "Feature", "properties": { "ID": 2612610000135, "正式名称": "医療法人財団　医道会　稲荷山武田病院", "機関区分": 1, "都道府県コード": 26, "市区町村コード": 109, "所在地": "京都府京都市伏見区深草正覚町２７", "緯度": 34.973622, "経度": 135.772544, "url": "https://www.iryou.teikyouseido.mhlw.go.jp/znk-web/juminkanja/S2430/initialize?prefCd=26&kikanCd=2610000135&kikanKbn=1", "url2": "http://www.takedahp.or.jp/", "内容": "医療法人財団　医道会　稲荷山武田病院【1:病院】【診療科目:内科_糖尿病内科_脳神経内科_呼吸器内科_循環器内科_胃腸内科_緩和ケア内科_外科_肛門外科_整形外科_緩和ケア外科_皮膚科_泌尿器科_心療内科】【一般病床数:35療養病床数:0精神病床数:0感染症病床数:0合計病床数:35】京都府京都市伏見区深草正覚町２７" }, "geometry": { "type": "Point", "coordinates": [ 135.772544, 34.973622 ] } },
{ "type": "Feature", "properties": { "ID": 2612610000136, "正式名称": "日本バプテスト病院", "機関区分": 1, "都道府県コード": 26, "市区町村コード": 103, "所在地": "京都府京都市左京区北白川山ノ元町４７番地", "緯度": 35.033671, "経度": 135.795678, "url": "https://www.iryou.teikyouseido.mhlw.go.jp/znk-web/juminkanja/S2430/initialize?prefCd=26&kikanCd=2610000136&kikanKbn=1", "url2": "http://www.jbh.or.jp/", "内容": "日本バプテスト病院【1:病院】【診療科目:内科_血液内科_糖尿病内科_呼吸器内科_循環器内科_消化器内科_腎臓内科_神経内科_外科_脳神経外科_整形外科_小児科_産婦人科_泌尿器科_リハビリテーション科_放射線科_麻酔科】【一般病床数:167療養病床数:0精神病床数:0感染症病床数:0合計病床数:167】京都府京都市左京区北白川山ノ元町４７番地" }, "geometry": { "type": "Point", "coordinates": [ 135.795678, 35.033671 ] } },
{ "type": "Feature", "properties": { "ID": 2612610000140, "正式名称": "医療法人社団貴順会　吉川病院", "機関区分": 1, "都道府県コード": 26, "市区町村コード": 103, "所在地": "京都府京都市左京区聖護院山王町１番地", "緯度": 35.018061, "経度": 135.77943, "url": "https://www.iryou.teikyouseido.mhlw.go.jp/znk-web/juminkanja/S2430/initialize?prefCd=26&kikanCd=2610000140&kikanKbn=1", "url2": "http://www.yoshikawahp.com/", "内容": "医療法人社団貴順会　吉川病院【1:病院】【診療科目:内科_脳神経内科_循環器内科_胃腸内科_外科_脳神経外科_整形外科_リウマチ科_リハビリテーション科_放射線科】【一般病床数:52療養病床数:0精神病床数:0感染症病床数:0合計病床数:0】京都府京都市左京区聖護院山王町１番地" }, "geometry": { "type": "Point", "coordinates": [ 135.77943, 35.018061 ] } },
{ "type": "Feature", "properties": { "ID": 2612610000143, "正式名称": "医療法人　三幸会　第二北山病院", "機関区分": 1, "都道府県コード": 26, "市区町村コード": 103, "所在地": "京都府京都市左京区岩倉上蔵町１６１番地", "緯度": 35.080666, "経度": 135.783649, "url": "https://www.iryou.teikyouseido.mhlw.go.jp/znk-web/juminkanja/S2430/initialize?prefCd=26&kikanCd=2610000143&kikanKbn=1", "url2": "http://www.sankokai.jp/", "内容": "医療法人　三幸会　第二北山病院【1:病院】【診療科目:内科_精神科_心療内科_歯科】【一般病床数:0療養病床数:0精神病床数:324感染症病床数:0合計病床数:324】京都府京都市左京区岩倉上蔵町１６１番地" }, "geometry": { "type": "Point", "coordinates": [ 135.783649, 35.080666 ] } },
{ "type": "Feature", "properties": { "ID": 2612610000144, "正式名称": "医療法人　三幸会　　北山病院", "機関区分": 1, "都道府県コード": 26, "市区町村コード": 103, "所在地": "京都府京都市左京区岩倉上蔵町１２３番地", "緯度": 35.079833, "経度": 135.781121, "url": "https://www.iryou.teikyouseido.mhlw.go.jp/znk-web/juminkanja/S2430/initialize?prefCd=26&kikanCd=2610000144&kikanKbn=1", "url2": "https://www.sankokai.jp/", "内容": "医療法人　三幸会　　北山病院【1:病院】【診療科目:内科_精神科_心療内科】【一般病床数:0療養病床数:0精神病床数:448感染症病床数:0合計病床数:448】京都府京都市左京区岩倉上蔵町１２３番地" }, "geometry": { "type": "Point", "coordinates": [ 135.781121, 35.079833 ] } },
{ "type": "Feature", "properties": { "ID": 2612610000147, "正式名称": "京都大学医学部附属病院", "機関区分": 1, "都道府県コード": 26, "市区町村コード": 103, "所在地": "京都府京都市左京区聖護院川原町５４", "緯度": 35.02045, "経度": 135.777208, "url": "https://www.iryou.teikyouseido.mhlw.go.jp/znk-web/juminkanja/S2430/initialize?prefCd=26&kikanCd=2610000147&kikanKbn=1", "url2": "http://www.kuhp.kyoto-u.ac.jp/", "内容": "京都大学医学部附属病院【1:病院】【診療科目:内科_循環器内科_神経内科_外科_脳神経外科_呼吸器外科_心臓血管外科_整形外科_形成外科_小児科_産科_婦人科_眼科_耳鼻いんこう科_皮膚科_泌尿器科_精神科_矯正歯科_歯科口腔外科_リハビリテーション科_放射線科_病理診断科_救急科_麻酔科】【一般病床数:1066療養病床数:0精神病床数:60感染症病床数:0合計病床数:1131】京都府京都市左京区聖護院川原町５４" }, "geometry": { "type": "Point", "coordinates": [ 135.777208, 35.02045 ] } },
{ "type": "Feature", "properties": { "ID": 2612610000148, "正式名称": "医療法人　稲門会　いわくら病院", "機関区分": 1, "都道府県コード": 26, "市区町村コード": 103, "所在地": "京都府京都市左京区岩倉上蔵町１０１", "緯度": 35.078388, "経度": 135.781955, "url": "https://www.iryou.teikyouseido.mhlw.go.jp/znk-web/juminkanja/S2430/initialize?prefCd=26&kikanCd=2610000148&kikanKbn=1", "url2": "https://toumonkai-iwakura.com/", "内容": "医療法人　稲門会　いわくら病院【1:病院】【診療科目:精神科】【一般病床数:0療養病床数:0精神病床数:377感染症病床数:0合計病床数:377】京都府京都市左京区岩倉上蔵町１０１" }, "geometry": { "type": "Point", "coordinates": [ 135.781955, 35.078388 ] } },
{ "type": "Feature", "properties": { "ID": 2612610000150, "正式名称": "医療法人社団順和会　京都下鴨病院", "機関区分": 1, "都道府県コード": 26, "市区町村コード": 103, "所在地": "京都府京都市左京区下鴨東森ケ前町１７番地", "緯度": 35.042753, "経度": 135.778346, "url": "https://www.iryou.teikyouseido.mhlw.go.jp/znk-web/juminkanja/S2430/initialize?prefCd=26&kikanCd=2610000150&kikanKbn=1", "url2": "http://www.shimogamo.jp/", "内容": "医療法人社団順和会　京都下鴨病院【1:病院】【診療科目:内科_循環器内科_胃腸内科_整形外科_泌尿器科_リウマチ科_リハビリテーション科_放射線科_麻酔科】【一般病床数:52療養病床数:0精神病床数:0感染症病床数:0合計病床数:0】京都府京都市左京区下鴨東森ケ前町１７番地" }, "geometry": { "type": "Point", "coordinates": [ 135.778346, 35.042753 ] } },
{ "type": "Feature", "properties": { "ID": 2612610000151, "正式名称": "一般財団法人　川越病院", "機関区分": 1, "都道府県コード": 26, "市区町村コード": 103, "所在地": "京都府京都市左京区浄土寺馬場町４８番地", "緯度": 35.024228, "経度": 135.793067, "url": "https://www.iryou.teikyouseido.mhlw.go.jp/znk-web/juminkanja/S2430/initialize?prefCd=26&kikanCd=2610000151&kikanKbn=1", "url2": "http://business2.plala.or.jp/kawagoe", "内容": "一般財団法人　川越病院【1:病院】【診療科目:内科_精神科_神経科】【一般病床数:0療養病床数:0精神病床数:162感染症病床数:0合計病床数:0】京都府京都市左京区浄土寺馬場町４８番地" }, "geometry": { "type": "Point", "coordinates": [ 135.793067, 35.024228 ] } },
{ "type": "Feature", "properties": { "ID": 2612610000152, "正式名称": "精華町国民健康保険病院", "機関区分": 1, "都道府県コード": 26, "市区町村コード": 366, "所在地": "京都府相楽郡精華町大字祝園小字砂子田７番地", "緯度": 34.759145, "経度": 135.793746, "url": "https://www.iryou.teikyouseido.mhlw.go.jp/znk-web/juminkanja/S2430/initialize?prefCd=26&kikanCd=2610000152&kikanKbn=1", "url2": "http://www.takedahp.or.jp/", "内容": "精華町国民健康保険病院【1:病院】【診療科目:内科_外科_整形外科_皮膚科_泌尿器科_歯科_歯科口腔外科_リハビリテーション科】【一般病床数:50療養病床数:0精神病床数:0感染症病床数:0合計病床数:50】京都府相楽郡精華町大字祝園小字砂子田７番地" }, "geometry": { "type": "Point", "coordinates": [ 135.793746, 34.759145 ] } },
{ "type": "Feature", "properties": { "ID": 2612610000153, "正式名称": "京都山城総合医療センター", "機関区分": 1, "都道府県コード": 26, "市区町村コード": 214, "所在地": "京都府木津川市木津駅前一丁目２７番地", "緯度": 34.735676, "経度": 135.824078, "url": "https://www.iryou.teikyouseido.mhlw.go.jp/znk-web/juminkanja/S2430/initialize?prefCd=26&kikanCd=2610000153&kikanKbn=1", "url2": "http://www.yamashiro-hp.jp/", "内容": "京都山城総合医療センター【1:病院】【診療科目:内科_糖尿病内科_代謝内科_呼吸器内科_循環器内科_消化器内科_腎臓内科_神経内科_外科_脳神経外科_呼吸器外科_消化器外科_乳腺外科_整形外科_小児科_小児外科_産婦人科_眼科_耳鼻いんこう科_皮膚科_泌尿器科_リウマチ科_リハビリテーション科_放射線科_麻酔科】【一般病床数:345療養病床数:0精神病床数:0感染症病床数:10合計病床数:355】京都府木津川市木津駅前一丁目２７番地" }, "geometry": { "type": "Point", "coordinates": [ 135.824078, 34.735676 ] } },
{ "type": "Feature", "properties": { "ID": 2612610000154, "正式名称": "医療法人　社団　医聖会　　学研都市病院", "機関区分": 1, "都道府県コード": 26, "市区町村コード": 366, "所在地": "京都府相楽郡精華町精華台７－４－１", "緯度": 34.74934, "経度": 135.78672, "url": "https://www.iryou.teikyouseido.mhlw.go.jp/znk-web/juminkanja/S2430/initialize?prefCd=26&kikanCd=2610000154&kikanKbn=1", "url2": "http://www.iseikai.jp/gakkentoshi/", "内容": "医療法人　社団　医聖会　　学研都市病院【1:病院】【診療科目:内科_呼吸器内科_循環器内科_消化器内科_神経内科_外科_脳神経外科_整形外科_小児科_眼科_皮膚科_泌尿器科_リハビリテーション科_放射線科_麻酔科】【一般病床数:237療養病床数:50精神病床数:0感染症病床数:0合計病床数:0】京都府相楽郡精華町精華台７－４－１" }, "geometry": { "type": "Point", "coordinates": [ 135.78672, 34.74934 ] } },
{ "type": "Feature", "properties": { "ID": 2612610000155, "正式名称": "医療法人　社団　一心会　都倉病院", "機関区分": 1, "都道府県コード": 26, "市区町村コード": 204, "所在地": "京都府宇治市宇治山本２７", "緯度": 34.895409, "経度": 135.81135, "url": "https://www.iryou.teikyouseido.mhlw.go.jp/znk-web/juminkanja/S2430/initialize?prefCd=26&kikanCd=2610000155&kikanKbn=1", "url2": "https://tokura.life/", "内容": "医療法人　社団　一心会　都倉病院【1:病院】【診療科目:内科_外科_整形外科_形成外科_小児科_産婦人科_皮膚科】【一般病床数:35療養病床数:20精神病床数:0感染症病床数:0合計病床数:0】京都府宇治市宇治山本２７" }, "geometry": { "type": "Point", "coordinates": [ 135.81135, 34.895409 ] } },
{ "type": "Feature", "properties": { "ID": 2612610000156, "正式名称": "医療法人長安会　中村病院", "機関区分": 1, "都道府県コード": 26, "市区町村コード": 204, "所在地": "京都府宇治市大久保町平盛９１番地８", "緯度": 34.870271, "経度": 135.76491, "url": "https://www.iryou.teikyouseido.mhlw.go.jp/znk-web/juminkanja/S2430/initialize?prefCd=26&kikanCd=2610000156&kikanKbn=1", "url2": null, "内容": "医療法人長安会　中村病院【1:病院】【診療科目:内科_内分泌内科_外科_脳神経外科_整形外科_小児科】【一般病床数:0療養病床数:103精神病床数:0感染症病床数:0合計病床数:103】京都府宇治市大久保町平盛９１番地８" }, "geometry": { "type": "Point", "coordinates": [ 135.76491, 34.870271 ] } },
{ "type": "Feature", "properties": { "ID": 2612610000157, "正式名称": "医療法人　芳松会　田辺病院", "機関区分": 1, "都道府県コード": 26, "市区町村コード": 211, "所在地": "京都府京田辺市飯岡南原５５番地", "緯度": 34.804085, "経度": 135.794411, "url": "https://www.iryou.teikyouseido.mhlw.go.jp/znk-web/juminkanja/S2430/initialize?prefCd=26&kikanCd=2610000157&kikanKbn=1", "url2": "http://www.kyotanabe-hosp.or.jp/", "内容": "医療法人　芳松会　田辺病院【1:病院】【診療科目:内科_精神科】【一般病床数:0療養病床数:109精神病床数:182感染症病床数:0合計病床数:291】京都府京田辺市飯岡南原５５番地" }, "geometry": { "type": "Point", "coordinates": [ 135.794411, 34.804085 ] } },
{ "type": "Feature", "properties": { "ID": 2612610000158, "正式名称": "京都府立洛南病院", "機関区分": 1, "都道府県コード": 26, "市区町村コード": 204, "所在地": "京都府宇治市五ケ庄広岡谷２番地", "緯度": 34.915684, "経度": 135.809043, "url": "https://www.iryou.teikyouseido.mhlw.go.jp/znk-web/juminkanja/S2430/initialize?prefCd=26&kikanCd=2610000158&kikanKbn=1", "url2": "https://www.rakunan-hosp.jp/", "内容": "京都府立洛南病院【1:病院】【診療科目:精神科】【一般病床数:0療養病床数:0精神病床数:256感染症病床数:0合計病床数:256】京都府宇治市五ケ庄広岡谷２番地" }, "geometry": { "type": "Point", "coordinates": [ 135.809043, 34.915684 ] } },
{ "type": "Feature", "properties": { "ID": 2612610000159, "正式名称": "医療法人徳洲会　宇治徳洲会病院", "機関区分": 1, "都道府県コード": 26, "市区町村コード": 204, "所在地": "京都府宇治市槇島町石橋１４５番", "緯度": 34.903352, "経度": 135.787212, "url": "https://www.iryou.teikyouseido.mhlw.go.jp/znk-web/juminkanja/S2430/initialize?prefCd=26&kikanCd=2610000159&kikanKbn=1", "url2": "http://www.ujitoku.or.jp/", "内容": "医療法人徳洲会　宇治徳洲会病院【1:病院】【診療科目:内科_血液内科_糖尿病内科_糖尿病・内分泌内科_脳神経内科_呼吸器内科_循環器内科_心臓血管内科_消化器内科_腎臓内科_人工透析内科_神経内科_腫瘍内科_外科_脳神経外科_呼吸器外科_循環器外科_心臓血管外科_消化器外科_肝臓・胆のう・膵臓外科_乳腺外科_肛門外科_頭頸部外科_整形外科_形成外科_小児科_小児外科_産婦人科_眼科_耳鼻いんこう科_皮膚科_泌尿器科_歯科口腔外科_リハビリテーション科_放射線診断科_放射線治療科_病理診断科_救急科_麻酔科】【一般病床数:473療養病床数:0精神病床数:0感染症病床数:0合計病床数:0】京都府宇治市槇島町石橋１４５番" }, "geometry": { "type": "Point", "coordinates": [ 135.787212, 34.903352 ] } },
{ "type": "Feature", "properties": { "ID": 2612610000160, "正式名称": "医療法人栄仁会宇治おうばく病院", "機関区分": 1, "都道府県コード": 26, "市区町村コード": 204, "所在地": "京都府宇治市五ケ庄三番割３２－１", "緯度": 34.912851, "経度": 135.811543, "url": "https://www.iryou.teikyouseido.mhlw.go.jp/znk-web/juminkanja/S2430/initialize?prefCd=26&kikanCd=2610000160&kikanKbn=1", "url2": "http://www.eijinkai.or.jp/", "内容": "医療法人栄仁会宇治おうばく病院【1:病院】【診療科目:内科_脳神経内科_精神科_心療内科_リハビリテーション科】【一般病床数:0療養病床数:58精神病床数:395感染症病床数:0合計病床数:453】京都府宇治市五ケ庄三番割３２－１" }, "geometry": { "type": "Point", "coordinates": [ 135.811543, 34.912851 ] } },
{ "type": "Feature", "properties": { "ID": 2612610000163, "正式名称": "医療法人社団医聖会　京都八幡病院", "機関区分": 1, "都道府県コード": 26, "市区町村コード": 210, "所在地": "京都府八幡市川口別所６１", "緯度": 34.874854, "経度": 135.717025, "url": "https://www.iryou.teikyouseido.mhlw.go.jp/znk-web/juminkanja/S2430/initialize?prefCd=26&kikanCd=2610000163&kikanKbn=1", "url2": "http://iseikai.jp/kyotoyawata/index.html", "内容": "医療法人社団医聖会　京都八幡病院【1:病院】【診療科目:内科_呼吸器内科_循環器内科_消化器内科_神経内科_外科_リハビリテーション科_放射線科】【一般病床数:96療養病床数:60精神病床数:0感染症病床数:0合計病床数:156】京都府八幡市川口別所６１" }, "geometry": { "type": "Point", "coordinates": [ 135.717025, 34.874854 ] } },
{ "type": "Feature", "properties": { "ID": 2612610000164, "正式名称": "社会福祉法人　あじろぎ会　宇治病院", "機関区分": 1, "都道府県コード": 26, "市区町村コード": 204, "所在地": "京都府宇治市五ケ庄芝ノ東５４－２", "緯度": 34.917295, "経度": 135.802433, "url": "https://www.iryou.teikyouseido.mhlw.go.jp/znk-web/juminkanja/S2430/initialize?prefCd=26&kikanCd=2610000164&kikanKbn=1", "url2": "http://uji-hosp.or.jp/", "内容": "社会福祉法人　あじろぎ会　宇治病院【1:病院】【診療科目:内科_糖尿病内科_脳神経内科_呼吸器内科_循環器内科_消化器内科_外科_乳腺外科_整形外科_婦人科_眼科_泌尿器科_リハビリテーション科_放射線科】【一般病床数:141療養病床数:112精神病床数:0感染症病床数:0合計病床数:253】京都府宇治市五ケ庄芝ノ東５４－２" }, "geometry": { "type": "Point", "coordinates": [ 135.802433, 34.917295 ] } },
{ "type": "Feature", "properties": { "ID": 2612610000165, "正式名称": "医療法人　啓信会　京都きづ川病院", "機関区分": 1, "都道府県コード": 26, "市区町村コード": 207, "所在地": "京都府城陽市平川　西六反　２６－１", "緯度": 34.865328, "経度": 135.76105, "url": "https://www.iryou.teikyouseido.mhlw.go.jp/znk-web/juminkanja/S2430/initialize?prefCd=26&kikanCd=2610000165&kikanKbn=1", "url2": "http://www.kyoto-keishinkai.or.jp/", "内容": "医療法人　啓信会　京都きづ川病院【1:病院】【診療科目:内科_循環器内科_消化器内科_神経内科_外科_脳神経外科_肛門外科_整形外科_小児科_皮膚科_泌尿器科_リウマチ科_リハビリテーション科_放射線科_麻酔科】【一般病床数:307療養病床数:0精神病床数:0感染症病床数:6合計病床数:313】京都府城陽市平川　西六反　２６－１" }, "geometry": { "type": "Point", "coordinates": [ 135.76105, 34.865328 ] } },
{ "type": "Feature", "properties": { "ID": 2612610000166, "正式名称": "京都岡本記念病院", "機関区分": 1, "都道府県コード": 26, "市区町村コード": 322, "所在地": "京都府久世郡久御山町佐山西ノ口１００番地", "緯度": 34.874021, "経度": 135.747245, "url": "https://www.iryou.teikyouseido.mhlw.go.jp/znk-web/juminkanja/S2430/initialize?prefCd=26&kikanCd=2610000166&kikanKbn=1", "url2": "http://www.okamoto-hp.or.jp/", "内容": "京都岡本記念病院【1:病院】【診療科目:内科_感染症内科_血液内科_糖尿病・内分泌内科_脳神経内科_呼吸器内科_循環器内科_消化器内科_腎臓内科_外科_脳神経外科_呼吸器外科_心臓血管外科_消化器外科_乳腺外科_肛門外科_整形外科_形成外科_小児科_産婦人科_眼科_耳鼻いんこう科_皮膚科_泌尿器科_精神科_歯科口腔外科_リウマチ科_リハビリテーション科_放射線科_病理診断科_臨床検査科_麻酔科】【一般病床数:419療養病床数:0精神病床数:0感染症病床数:0合計病床数:0】京都府久世郡久御山町佐山西ノ口１００番地" }, "geometry": { "type": "Point", "coordinates": [ 135.747245, 34.874021 ] } },
{ "type": "Feature", "properties": { "ID": 2612610000167, "正式名称": "京都府立心身障害者福祉センター　附属リハビリテーション病院", "機関区分": 1, "都道府県コード": 26, "市区町村コード": 207, "所在地": "京都府城陽市中芦原", "緯度": 34.832665, "経度": 135.817435, "url": "https://www.iryou.teikyouseido.mhlw.go.jp/znk-web/juminkanja/S2430/initialize?prefCd=26&kikanCd=2610000167&kikanKbn=1", "url2": "https://ksj.or.jp/fa08hosp/", "内容": "京都府立心身障害者福祉センター　附属リハビリテーション病院【1:病院】【診療科目:内科_神経内科_整形外科_泌尿器科_精神科_歯科_リハビリテーション科】【一般病床数:25療養病床数:0精神病床数:0感染症病床数:0合計病床数:25】京都府城陽市中芦原" }, "geometry": { "type": "Point", "coordinates": [ 135.817435, 34.832665 ] } },
{ "type": "Feature", "properties": { "ID": 2612610000168, "正式名称": "宇治武田病院", "機関区分": 1, "都道府県コード": 26, "市区町村コード": 204, "所在地": "京都府宇治市宇治里尻３６－２６", "緯度": 34.892298, "経度": 135.801573, "url": "https://www.iryou.teikyouseido.mhlw.go.jp/znk-web/juminkanja/S2430/initialize?prefCd=26&kikanCd=2610000168&kikanKbn=1", "url2": "http://www.takedahp.or.jp/", "内容": "宇治武田病院【1:病院】【診療科目:内科_糖尿病内科_代謝・内分泌内科_循環器内科_消化器内科_腎臓内科_神経内科_外科_脳神経外科_呼吸器外科_肛門外科_整形外科_形成外科_小児科_眼科_耳鼻いんこう科_皮膚科_泌尿器科_歯科_歯科口腔外科_アレルギー科_リウマチ科_リハビリテーション科_放射線科_麻酔科】【一般病床数:177療養病床数:0精神病床数:0感染症病床数:0合計病床数:0】京都府宇治市宇治里尻３６－２６" }, "geometry": { "type": "Point", "coordinates": [ 135.801573, 34.892298 ] } },
{ "type": "Feature", "properties": { "ID": 2612610000169, "正式名称": "医療法人社団石鎚会　京都田辺記念病院", "機関区分": 1, "都道府県コード": 26, "市区町村コード": 211, "所在地": "京都府京田辺市田辺戸絶１番地", "緯度": 34.826748, "経度": 135.771856, "url": "https://www.iryou.teikyouseido.mhlw.go.jp/znk-web/juminkanja/S2430/initialize?prefCd=26&kikanCd=2610000169&kikanKbn=1", "url2": "http://www.sekitetsukai.or.jp/", "内容": "医療法人社団石鎚会　京都田辺記念病院【1:病院】【診療科目:内科_人工透析内科_リハビリテーション科】【一般病床数:120療養病床数:0精神病床数:0感染症病床数:0合計病床数:120】京都府京田辺市田辺戸絶１番地" }, "geometry": { "type": "Point", "coordinates": [ 135.771856, 34.826748 ] } },
{ "type": "Feature", "properties": { "ID": 2612610000170, "正式名称": "医療法人　八仁会　久御山南病院", "機関区分": 1, "都道府県コード": 26, "市区町村コード": 322, "所在地": "京都府久世郡久御山町坊之池坊村中２８", "緯度": 34.890963, "経度": 135.731884, "url": "https://www.iryou.teikyouseido.mhlw.go.jp/znk-web/juminkanja/S2430/initialize?prefCd=26&kikanCd=2610000170&kikanKbn=1", "url2": "http://www.kumiyama-minamihp.or.jp/", "内容": "医療法人　八仁会　久御山南病院【1:病院】【診療科目:内科_呼吸器内科_循環器内科_消化器内科_外科_整形外科_小児科_眼科_耳鼻いんこう科_皮膚科_リハビリテーション科】【一般病床数:60療養病床数:0精神病床数:0感染症病床数:0合計病床数:60】京都府久世郡久御山町坊之池坊村中２８" }, "geometry": { "type": "Point", "coordinates": [ 135.731884, 34.890963 ] } },
{ "type": "Feature", "properties": { "ID": 2612610000172, "正式名称": "医療法人　社団　医聖会　八幡中央病院", "機関区分": 1, "都道府県コード": 26, "市区町村コード": 210, "所在地": "京都府八幡市八幡五反田３９－１", "緯度": 34.871104, "経度": 135.706748, "url": "https://www.iryou.teikyouseido.mhlw.go.jp/znk-web/juminkanja/S2430/initialize?prefCd=26&kikanCd=2610000172&kikanKbn=1", "url2": "http://www.iseikai.jp/", "内容": "医療法人　社団　医聖会　八幡中央病院【1:病院】【診療科目:内科_糖尿病内科_代謝内科_呼吸器内科_循環器内科_消化器内科_神経内科_外科_脳神経外科_整形外科_形成外科_眼科_皮膚科_泌尿器科_リウマチ科_リハビリテーション科_放射線科】【一般病床数:150療養病床数:0精神病床数:0感染症病床数:0合計病床数:150】京都府八幡市八幡五反田３９－１" }, "geometry": { "type": "Point", "coordinates": [ 135.706748, 34.871104 ] } },
{ "type": "Feature", "properties": { "ID": 2612610000173, "正式名称": "医療法人社団　石鎚会　京都田辺中央病院", "機関区分": 1, "都道府県コード": 26, "市区町村コード": 211, "所在地": "京都府京田辺市田辺中央６丁目１番地６", "緯度": 34.822166, "経度": 135.771745, "url": "https://www.iryou.teikyouseido.mhlw.go.jp/znk-web/juminkanja/S2430/initialize?prefCd=26&kikanCd=2610000173&kikanKbn=1", "url2": "http://www.sekitetsukai.or.jp/", "内容": "医療法人社団　石鎚会　京都田辺中央病院【1:病院】【診療科目:内科_血液内科_糖尿病内科_呼吸器内科_循環器内科_消化器内科_腎臓内科_神経内科_外科_脳神経外科_消化器外科_乳腺外科_肛門外科_整形外科_形成外科_小児科_小児外科_産婦人科_眼科_耳鼻いんこう科_皮膚科_泌尿器科_精神科_歯科口腔外科_リウマチ科_リハビリテーション科_放射線科_救急科_麻酔科】【一般病床数:199療養病床数:0精神病床数:0感染症病床数:0合計病床数:199】京都府京田辺市田辺中央６丁目１番地６" }, "geometry": { "type": "Point", "coordinates": [ 135.771745, 34.822166 ] } },
{ "type": "Feature", "properties": { "ID": 2612610000174, "正式名称": "社会医療法人　美杉会　男山病院", "機関区分": 1, "都道府県コード": 26, "市区町村コード": 210, "所在地": "京都府八幡市男山泉１９", "緯度": 34.861382, "経度": 135.693639, "url": "https://www.iryou.teikyouseido.mhlw.go.jp/znk-web/juminkanja/S2430/initialize?prefCd=26&kikanCd=2610000174&kikanKbn=1", "url2": "http://www.misugikai.jp/otokoyama/index.html", "内容": "社会医療法人　美杉会　男山病院【1:病院】【診療科目:内科_血液内科_糖尿病内科_消化器内科_腎臓内科_外科_脳神経外科_呼吸器外科_乳腺外科_肛門外科_整形外科_形成外科_小児科_眼科_耳鼻いんこう科_皮膚科_泌尿器科_リウマチ科_リハビリテーション科_放射線科_麻酔科】【一般病床数:199療養病床数:0精神病床数:0感染症病床数:0合計病床数:0】京都府八幡市男山泉１９" }, "geometry": { "type": "Point", "coordinates": [ 135.693639, 34.861382 ] } },
{ "type": "Feature", "properties": { "ID": 2612610000175, "正式名称": "独立行政法人　国立病院機構　南京都病院", "機関区分": 1, "都道府県コード": 26, "市区町村コード": 207, "所在地": "京都府城陽市中芦原１１番地", "緯度": 34.831249, "経度": 135.814075, "url": "https://www.iryou.teikyouseido.mhlw.go.jp/znk-web/juminkanja/S2430/initialize?prefCd=26&kikanCd=2610000175&kikanKbn=1", "url2": "https://minamikyoto.hosp.go.jp/", "内容": "独立行政法人　国立病院機構　南京都病院【1:病院】【診療科目:内科_脳神経内科_呼吸器内科_循環器内科_消化器内科_外科_呼吸器外科_整形外科_小児科_児童精神科_皮膚科_心療内科_歯科_リハビリテーション科_放射線科_麻酔科】【一般病床数:299療養病床数:0精神病床数:0感染症病床数:0合計病床数:334】京都府城陽市中芦原１１番地" }, "geometry": { "type": "Point", "coordinates": [ 135.814075, 34.831249 ] } },
{ "type": "Feature", "properties": { "ID": 2612610000176, "正式名称": "医療法人せいふう会　宇治脳卒中リハビリテーション病院", "機関区分": 1, "都道府県コード": 26, "市区町村コード": 204, "所在地": "京都府宇治市大久保町井ノ尻４３番１", "緯度": 34.873112, "経度": 135.770432, "url": "https://www.iryou.teikyouseido.mhlw.go.jp/znk-web/juminkanja/S2430/initialize?prefCd=26&kikanCd=2610000176&kikanKbn=1", "url2": "https://www.uji-rh.jp/", "内容": "医療法人せいふう会　宇治脳卒中リハビリテーション病院【1:病院】【診療科目:内科_リハビリテーション科】【一般病床数:88療養病床数:0精神病床数:0感染症病床数:0合計病床数:88】京都府宇治市大久保町井ノ尻４３番１" }, "geometry": { "type": "Point", "coordinates": [ 135.770432, 34.873112 ] } },
{ "type": "Feature", "properties": { "ID": 2612610000184, "正式名称": "医療法人社団洛和会　洛和会音羽記念病院", "機関区分": 1, "都道府県コード": 26, "市区町村コード": 110, "所在地": "京都府京都市山科区小山鎮守町２９番１", "緯度": 34.988066, "経度": 135.83351, "url": "https://www.iryou.teikyouseido.mhlw.go.jp/znk-web/juminkanja/S2430/initialize?prefCd=26&kikanCd=2610000184&kikanKbn=1", "url2": "http://www.rakuwa.or.jp/kinen/", "内容": "医療法人社団洛和会　洛和会音羽記念病院【1:病院】【診療科目:内科_循環器内科_腎臓内科_人工透析内科_外科_血管外科_皮膚科_麻酔科】【一般病床数:102療養病床数:31精神病床数:0感染症病床数:0合計病床数:133】京都府京都市山科区小山鎮守町２９番１" }, "geometry": { "type": "Point", "coordinates": [ 135.83351, 34.988066 ] } },
{ "type": "Feature", "properties": { "ID": 2612610000189, "正式名称": "社会医療法人美杉会　みのやま病院", "機関区分": 1, "都道府県コード": 26, "市区町村コード": 210, "所在地": "京都府八幡市欽明台北４－２", "緯度": 34.841385, "経度": 135.716138, "url": "https://www.iryou.teikyouseido.mhlw.go.jp/znk-web/juminkanja/S2430/initialize?prefCd=26&kikanCd=2610000189&kikanKbn=1", "url2": "http://misugikai.jp/", "内容": "社会医療法人美杉会　みのやま病院【1:病院】【診療科目:内科_循環器内科_消化器内科_腎臓内科_外科_整形外科_リハビリテーション科】【一般病床数:70療養病床数:0精神病床数:0感染症病床数:0合計病床数:0】京都府八幡市欽明台北４－２" }, "geometry": { "type": "Point", "coordinates": [ 135.716138, 34.841385 ] } },
{ "type": "Feature", "properties": { "ID": 2612610000199, "正式名称": "医療法人清水会　京都リハビリテーション病院", "機関区分": 1, "都道府県コード": 26, "市区町村コード": 109, "所在地": "京都府京都市伏見区深草越後屋敷町１７", "緯度": 34.949346, "経度": 135.763907, "url": "https://www.iryou.teikyouseido.mhlw.go.jp/znk-web/juminkanja/S2430/initialize?prefCd=26&kikanCd=2610000199&kikanKbn=1", "url2": "https://ksmcs.jp/krh/access/", "内容": "医療法人清水会　京都リハビリテーション病院【1:病院】【診療科目:内科_脳神経外科_整形外科_リハビリテーション科】【一般病床数:64療養病床数:0精神病床数:0感染症病床数:0合計病床数:64】京都府京都市伏見区深草越後屋敷町１７" }, "geometry": { "type": "Point", "coordinates": [ 135.763907, 34.949346 ] } },
{ "type": "Feature", "properties": { "ID": 2612610000201, "正式名称": "医療法人社団行陵会　京都近衛リハビリテーション病院", "機関区分": 1, "都道府県コード": 26, "市区町村コード": 103, "所在地": "京都府京都市左京区吉田近衛町２６番地", "緯度": 35.021311, "経度": 135.778847, "url": "https://www.iryou.teikyouseido.mhlw.go.jp/znk-web/juminkanja/S2430/initialize?prefCd=26&kikanCd=2610000201&kikanKbn=1", "url2": "https://kyoto-konoe.jp/", "内容": "医療法人社団行陵会　京都近衛リハビリテーション病院【1:病院】【診療科目:内科_神経内科_リハビリテーション科】【一般病床数:40療養病床数:60精神病床数:0感染症病床数:0合計病床数:100】京都府京都市左京区吉田近衛町２６番地" }, "geometry": { "type": "Point", "coordinates": [ 135.778847, 35.021311 ] } },
{ "type": "Feature", "properties": { "ID": 2612610000202, "正式名称": "医療法人社団石鎚会　同志社山手病院", "機関区分": 1, "都道府県コード": 26, "市区町村コード": 211, "所在地": "京都府京田辺市同志社山手二丁目２番", "緯度": 34.789903, "経度": 135.776179, "url": "https://www.iryou.teikyouseido.mhlw.go.jp/znk-web/juminkanja/S2430/initialize?prefCd=26&kikanCd=2610000202&kikanKbn=1", "url2": "https://doushishayamate.sekitetsukai.kyoto/", "内容": "医療法人社団石鎚会　同志社山手病院【1:病院】【診療科目:内科_脳神経内科_小児科】【一般病床数:50療養病床数:0精神病床数:0感染症病床数:0合計病床数:50】京都府京田辺市同志社山手二丁目２番" }, "geometry": { "type": "Point", "coordinates": [ 135.776179, 34.789903 ] } },
{ "type": "Feature", "properties": { "ID": 2612610000203, "正式名称": "医療法人社団親和会　京都木原病院", "機関区分": 1, "都道府県コード": 26, "市区町村コード": 107, "所在地": "京都府京都市南区西九条春日町５番地１", "緯度": 34.979751, "経度": 135.755435, "url": "https://www.iryou.teikyouseido.mhlw.go.jp/znk-web/juminkanja/S2430/initialize?prefCd=26&kikanCd=2610000203&kikanKbn=1", "url2": "https://kyoto-shinwa.com/", "内容": "医療法人社団親和会　京都木原病院【1:病院】【診療科目:脳神経外科_整形外科_麻酔科】【一般病床数:47療養病床数:0精神病床数:0感染症病床数:0合計病床数:47】京都府京都市南区西九条春日町５番地１" }, "geometry": { "type": "Point", "coordinates": [ 135.755435, 34.979751 ] } },
{ "type": "Feature", "properties": { "ID": 2612610000204, "正式名称": "医療法人知音会京都新町病院", "機関区分": 1, "都道府県コード": 26, "市区町村コード": 104, "所在地": "京都府京都市中京区六角通新町西入西六角町１０９", "緯度": 35.00684, "経度": 135.756127, "url": "https://www.iryou.teikyouseido.mhlw.go.jp/znk-web/juminkanja/S2430/initialize?prefCd=26&kikanCd=2610000204&kikanKbn=1", "url2": "https://www.kyoto-shinmachi-hp.jp/", "内容": "医療法人知音会京都新町病院【1:病院】【診療科目:内科_外科_肛門外科_整形外科_小児科_婦人科_眼科_耳鼻いんこう科_リハビリテーション科_放射線科】【一般病床数:90療養病床数:0精神病床数:0感染症病床数:0合計病床数:90】京都府京都市中京区六角通新町西入西六角町１０９" }, "geometry": { "type": "Point", "coordinates": [ 135.756127, 35.00684 ] } }
]
}
