{
"type": "FeatureCollection",
"name": "geo_26_特定施設入居者生活介護（有料老人ホーム（サービス付き高齢者向け住宅））",
"crs": { "type": "name", "properties": { "name": "urn:ogc:def:crs:OGC:1.3:CRS84" } },
"features": [
{ "type": "Feature", "properties": { "内容": "チャームスイート京都紫野【特定施設入居者生活介護（有料老人ホーム（サービス付き高齢者向け住宅））】京都府京都市北区紫野十二坊町３３−２", "url": "https://www.kaigokensaku.mhlw.go.jp/26/index.php?action_kouhyou_detail_004_kani=true&JigyosyoCd=2670101621-00&ServiceCd=&Type=search", "url2": "http://www.charmcc.jp/home/charmsuite_murasakino" }, "geometry": { "type": "Point", "coordinates": [ 135.7387613, 35.0371032 ] } },
{ "type": "Feature", "properties": { "内容": "ベストライフ京都北大路【特定施設入居者生活介護（有料老人ホーム（サービス付き高齢者向け住宅））】京都府京都市北区大宮西山ノ前町31", "url": "https://www.kaigokensaku.mhlw.go.jp/26/index.php?action_kouhyou_detail_004_kani=true&JigyosyoCd=2670101530-00&ServiceCd=&Type=search", "url2": null }, "geometry": { "type": "Point", "coordinates": [ 135.7406981, 35.0575644 ] } },
{ "type": "Feature", "properties": { "内容": "洛和ホームライフ御所北【特定施設入居者生活介護（有料老人ホーム（サービス付き高齢者向け住宅））】京都府京都市上京区安楽小路町４１８－１", "url": "https://www.kaigokensaku.mhlw.go.jp/26/index.php?action_kouhyou_detail_004_kani=true&JigyosyoCd=2670200878-00&ServiceCd=&Type=search", "url2": null }, "geometry": { "type": "Point", "coordinates": [ 135.756171399999971, 35.033065 ] } },
{ "type": "Feature", "properties": { "内容": "チャームスイート京都立本寺【特定施設入居者生活介護（有料老人ホーム（サービス付き高齢者向け住宅））】七本松通仁和寺街道上る一番町107番地", "url": "https://www.kaigokensaku.mhlw.go.jp/26/index.php?action_kouhyou_detail_004_kani=true&JigyosyoCd=2670201074-00&ServiceCd=&Type=search", "url2": "http://www.charmcc.jp" }, "geometry": { "type": "Point", "coordinates": [ 135.738662, 35.02425 ] } },
{ "type": "Feature", "properties": { "内容": "ローズライフ京都【特定施設入居者生活介護（有料老人ホーム（サービス付き高齢者向け住宅））】壬生東高田町1番23", "url": "https://www.kaigokensaku.mhlw.go.jp/26/index.php?action_kouhyou_detail_004_kani=true&JigyosyoCd=2670300942-00&ServiceCd=&Type=search", "url2": "https://www.roselife.jp/kyoto/" }, "geometry": { "type": "Point", "coordinates": [ 135.735715166409392, 34.998423671939115 ] } },
{ "type": "Feature", "properties": { "内容": "洛和ホームライフ室町六角【特定施設入居者生活介護（有料老人ホーム（サービス付き高齢者向け住宅））】京都府京都市中京区六角通室町西入玉蔵町129-1", "url": "https://www.kaigokensaku.mhlw.go.jp/26/index.php?action_kouhyou_detail_004_kani=true&JigyosyoCd=2670301114-00&ServiceCd=&Type=search", "url2": "http://www.rakuwa.or.jp/" }, "geometry": { "type": "Point", "coordinates": [ 138.252924, 36.204824 ] } },
{ "type": "Feature", "properties": { "内容": "チャームプレミア京都烏丸六角【特定施設入居者生活介護（有料老人ホーム（サービス付き高齢者向け住宅））】六角通烏丸東入ル堂之前町245番１", "url": "https://www.kaigokensaku.mhlw.go.jp/26/index.php?action_kouhyou_detail_004_kani=true&JigyosyoCd=2670301452-00&ServiceCd=&Type=search", "url2": "https://www.charmcc.jp/home/charmpremier_kyotokarasumarokkaku/" }, "geometry": { "type": "Point", "coordinates": [ 135.7601323, 35.0070056 ] } },
{ "type": "Feature", "properties": { "内容": "グランメゾン迎賓館京都桂川【特定施設入居者生活介護（有料老人ホーム（サービス付き高齢者向け住宅））】梅津神田町48グランメゾン迎賓館京都桂川", "url": "https://www.kaigokensaku.mhlw.go.jp/26/index.php?action_kouhyou_detail_004_kani=true&JigyosyoCd=2670701867-00&ServiceCd=&Type=search", "url2": "http://www.grand-maison.jp/kyoto/katsuragawa/" }, "geometry": { "type": "Point", "coordinates": [ 135.710331900000028, 35.0007863 ] } },
{ "type": "Feature", "properties": { "内容": "スーパー・コート京・西京極【特定施設入居者生活介護（有料老人ホーム（サービス付き高齢者向け住宅））】京都府京都市右京区西京極畔勝町55スーパー・コート京・西京極", "url": "https://www.kaigokensaku.mhlw.go.jp/26/index.php?action_kouhyou_detail_004_kani=true&JigyosyoCd=2670702626-00&ServiceCd=&Type=search", "url2": "https://www.supercourt.jp/" }, "geometry": { "type": "Point", "coordinates": [ 135.722458802516144, 34.99412971623341 ] } },
{ "type": "Feature", "properties": { "内容": "介護付有料老人ホーム　プレザンメゾン京都宇多野【特定施設入居者生活介護（有料老人ホーム（サービス付き高齢者向け住宅））】京都市右京区宇多野福王子町48-1", "url": "https://www.kaigokensaku.mhlw.go.jp/26/index.php?action_kouhyou_detail_004_kani=true&JigyosyoCd=2670702105-00&ServiceCd=&Type=search", "url2": "https://www.tanoshii-ie.jp/single081/" }, "geometry": { "type": "Point", "coordinates": [ 135.70888020000001, 35.0289632 ] } },
{ "type": "Feature", "properties": { "内容": "スーパー・コート京・藤森【特定施設入居者生活介護（有料老人ホーム（サービス付き高齢者向け住宅））】京都市伏見区深草池ノ内町11-3", "url": "https://www.kaigokensaku.mhlw.go.jp/26/index.php?action_kouhyou_detail_004_kani=true&JigyosyoCd=2670917976-00&ServiceCd=&Type=search", "url2": "https://www.supercourt.jp/" }, "geometry": { "type": "Point", "coordinates": [ 135.763843799999989, 34.9561221 ] } },
{ "type": "Feature", "properties": { "内容": "洛和ホームライフ四ノ宮【特定施設入居者生活介護（有料老人ホーム（サービス付き高齢者向け住宅））】京都府京都市山科区四ノ宮岩久保町21-1", "url": "https://www.kaigokensaku.mhlw.go.jp/26/index.php?action_kouhyou_detail_004_kani=true&JigyosyoCd=2674101163-00&ServiceCd=&Type=search", "url2": "http://ｗｗｗ.rakuwa.or.jp/" }, "geometry": { "type": "Point", "coordinates": [ 135.826045600000043, 34.9915896 ] } },
{ "type": "Feature", "properties": { "内容": "洛和ホームライフみささぎ【特定施設入居者生活介護（有料老人ホーム（サービス付き高齢者向け住宅））】京都府京都市山科区御陵上御廟野町５番地１洛和ホームライフみささぎ", "url": "https://www.kaigokensaku.mhlw.go.jp/26/index.php?action_kouhyou_detail_004_kani=true&JigyosyoCd=2674101320-00&ServiceCd=&Type=search", "url2": "http://www.rakuwa.or.jp/" }, "geometry": { "type": "Point", "coordinates": [ 135.805611831929241, 34.994529994719045 ] } },
{ "type": "Feature", "properties": { "内容": "洛和ホームライフ山科東野【特定施設入居者生活介護（有料老人ホーム（サービス付き高齢者向け住宅））】東野北井ノ上町11-2", "url": "https://www.kaigokensaku.mhlw.go.jp/26/index.php?action_kouhyou_detail_004_kani=true&JigyosyoCd=2674101296-00&ServiceCd=&Type=search", "url2": "http://www.rakuwa.or.jp/care/ch/higashino.html" }, "geometry": { "type": "Point", "coordinates": [ 135.8226264, 34.9818712 ] } },
{ "type": "Feature", "properties": { "内容": "CharmSuite（チャームスイート）京都桂坂【特定施設入居者生活介護（有料老人ホーム（サービス付き高齢者向け住宅））】京都府京都市西京区大枝沓掛町２番地６", "url": "https://www.kaigokensaku.mhlw.go.jp/26/index.php?action_kouhyou_detail_004_kani=true&JigyosyoCd=2674001009-00&ServiceCd=&Type=search", "url2": "http://www.charmcc.jp" }, "geometry": { "type": "Point", "coordinates": [ 135.666496199999983, 34.9771107 ] } },
{ "type": "Feature", "properties": { "内容": "特定施設入居者生活介護ｸﾞﾗﾝﾏｰﾚせいほう【特定施設入居者生活介護（有料老人ホーム（サービス付き高齢者向け住宅））】京都府舞鶴市字引土19-5", "url": "https://www.kaigokensaku.mhlw.go.jp/26/index.php?action_kouhyou_detail_004_kani=true&JigyosyoCd=2672700677-00&ServiceCd=&Type=search", "url2": "https://seihoukai-grp.jp/" }, "geometry": { "type": "Point", "coordinates": [ 135.328829399999989, 35.4416901 ] } },
{ "type": "Feature", "properties": { "内容": "サービス付き高齢者向け住宅　　あっぷるハウス【特定施設入居者生活介護（有料老人ホーム（サービス付き高齢者向け住宅））】京都府舞鶴市田中町15-11あっぷるハウス", "url": "https://www.kaigokensaku.mhlw.go.jp/26/index.php?action_kouhyou_detail_004_kani=true&JigyosyoCd=2672700701-00&ServiceCd=&Type=search", "url2": null }, "geometry": { "type": "Point", "coordinates": [ 135.418376099999989, 35.4831544 ] } },
{ "type": "Feature", "properties": { "内容": "サービス付き高齢者向け住宅ココ・ガーデン【特定施設入居者生活介護（有料老人ホーム（サービス付き高齢者向け住宅））】京都府舞鶴市田中町3-3", "url": "https://www.kaigokensaku.mhlw.go.jp/26/index.php?action_kouhyou_detail_004_kani=true&JigyosyoCd=2672700693-00&ServiceCd=&Type=search", "url2": "https://g-support-takahama.com/service-list/coco-garden/" }, "geometry": { "type": "Point", "coordinates": [ 135.417535798811315, 35.482172657450114 ] } },
{ "type": "Feature", "properties": { "内容": "介護付き高齢者住宅寺田ホーム【特定施設入居者生活介護（有料老人ホーム（サービス付き高齢者向け住宅））】京都府城陽市寺田尺後40番4", "url": "https://www.kaigokensaku.mhlw.go.jp/26/index.php?action_kouhyou_detail_004_kani=true&JigyosyoCd=2672800493-00&ServiceCd=&Type=search", "url2": null }, "geometry": { "type": "Point", "coordinates": [ 135.772998795106474, 34.855596731458938 ] } },
{ "type": "Feature", "properties": { "内容": "チャームスイート向日町【特定施設入居者生活介護（有料老人ホーム（サービス付き高齢者向け住宅））】京都府向日市寺戸町渋川16番", "url": "https://www.kaigokensaku.mhlw.go.jp/26/index.php?action_kouhyou_detail_004_kani=true&JigyosyoCd=2673100372-00&ServiceCd=&Type=search", "url2": "https://www.charmcc.jp/home/charmsuite_mukoumachi/" }, "geometry": { "type": "Point", "coordinates": [ 135.7081135, 34.9524372 ] } },
{ "type": "Feature", "properties": { "内容": "チャーム長岡天神【特定施設入居者生活介護（有料老人ホーム（サービス付き高齢者向け住宅））】京都府長岡京市井ノ内広海道３５番地１", "url": "https://www.kaigokensaku.mhlw.go.jp/26/index.php?action_kouhyou_detail_004_kani=true&JigyosyoCd=2673000622-00&ServiceCd=&Type=search", "url2": "http://www.charmcc.jp" }, "geometry": { "type": "Point", "coordinates": [ 135.6852222, 34.9423276 ] } },
{ "type": "Feature", "properties": { "内容": "GoodLife栄広園【特定施設入居者生活介護（有料老人ホーム（サービス付き高齢者向け住宅））】京都府南丹市南広瀬八反田5-1", "url": "https://www.kaigokensaku.mhlw.go.jp/26/index.php?action_kouhyou_detail_004_kani=true&JigyosyoCd=2673400202-00&ServiceCd=&Type=search", "url2": "https://eikouen-kyoto.com/" }, "geometry": { "type": "Point", "coordinates": [ 135.529552, 35.0737252 ] } }
]
}
