{
"type": "FeatureCollection",
"name": "geo_26_地域密着型通所介護",
"crs": { "type": "name", "properties": { "name": "urn:ogc:def:crs:OGC:1.3:CRS84" } },
"features": [
{ "type": "Feature", "properties": { "内容": "かけはしデイサービス　ふなおか【地域密着型通所介護】京都府京都市北区紫野南舟岡町72-1", "url": "https://www.kaigokensaku.mhlw.go.jp/26/index.php?action_kouhyou_detail_004_kani=true&JigyosyoCd=2690100199-00&ServiceCd=780&Type=search", "url2": null }, "geometry": { "type": "Point", "coordinates": [ 135.745147299999985, 35.0373643 ] } },
{ "type": "Feature", "properties": { "内容": "デイサービス　百々福【地域密着型通所介護】紫竹上堀川町26", "url": "https://www.kaigokensaku.mhlw.go.jp/26/index.php?action_kouhyou_detail_004_kani=true&JigyosyoCd=2670101100-00&ServiceCd=780&Type=search", "url2": "http://kent-house.s2.weblife.me/" }, "geometry": { "type": "Point", "coordinates": [ 135.7504801, 35.0552596 ] } },
{ "type": "Feature", "properties": { "内容": "カエラデイサービスセンターきぬがさ【地域密着型通所介護】小松原北町112パークハイツ小松原B-1", "url": "https://www.kaigokensaku.mhlw.go.jp/26/index.php?action_kouhyou_detail_004_kani=true&JigyosyoCd=2690100314-00&ServiceCd=780&Type=search", "url2": "https://www.kaera365.com/" }, "geometry": { "type": "Point", "coordinates": [ 135.7282826, 35.0320419 ] } },
{ "type": "Feature", "properties": { "内容": "デイサービスセンター北山杉いこいの家【地域密着型通所介護】京都府京都市北区小野宮ノ上町12", "url": "https://www.kaigokensaku.mhlw.go.jp/26/index.php?action_kouhyou_detail_004_kani=true&JigyosyoCd=2670101209-00&ServiceCd=780&Type=search", "url2": "http://www.nananokai.com" }, "geometry": { "type": "Point", "coordinates": [ 135.673910502516151, 35.11433337153597 ] } },
{ "type": "Feature", "properties": { "内容": "リハビリデイサービスnagomi　京都北大路店【地域密着型通所介護】紫野雲林院町４４番２", "url": "https://www.kaigokensaku.mhlw.go.jp/26/index.php?action_kouhyou_detail_004_kani=true&JigyosyoCd=2670101043-00&ServiceCd=780&Type=search", "url2": "http://www.my-nagomi.com" }, "geometry": { "type": "Point", "coordinates": [ 135.749913500000048, 35.0409112 ] } },
{ "type": "Feature", "properties": { "内容": "にこにこデイサービス【地域密着型通所介護】大宮中林町40", "url": "https://www.kaigokensaku.mhlw.go.jp/26/index.php?action_kouhyou_detail_004_kani=true&JigyosyoCd=2670600952-00&ServiceCd=780&Type=search", "url2": null }, "geometry": { "type": "Point", "coordinates": [ 135.746611283080853, 35.055941803995537 ] } },
{ "type": "Feature", "properties": { "内容": "ごゆるり倶楽部・紫野【地域密着型通所介護】京都市北区紫野南舟岡町39番地10", "url": "https://www.kaigokensaku.mhlw.go.jp/26/index.php?action_kouhyou_detail_004_kani=true&JigyosyoCd=2670100797-00&ServiceCd=780&Type=search", "url2": "http://goyururi.com/" }, "geometry": { "type": "Point", "coordinates": [ 135.744241800000026, 35.0364949 ] } },
{ "type": "Feature", "properties": { "内容": "ごゆるり倶楽部・北山【地域密着型通所介護】京都市北区紫竹上芝本町22", "url": "https://www.kaigokensaku.mhlw.go.jp/26/index.php?action_kouhyou_detail_004_kani=true&JigyosyoCd=2670101001-00&ServiceCd=780&Type=search", "url2": "http://goyururi.com/" }, "geometry": { "type": "Point", "coordinates": [ 135.749738536111181, 35.051012400976312 ] } },
{ "type": "Feature", "properties": { "内容": "医療法人葵会上賀茂デイサービス【地域密着型通所介護】京都市北区上賀茂山本町50番地", "url": "https://www.kaigokensaku.mhlw.go.jp/26/index.php?action_kouhyou_detail_004_kani=true&JigyosyoCd=2670100417-00&ServiceCd=780&Type=search", "url2": "http://www.kamigamo.aoikai.net" }, "geometry": { "type": "Point", "coordinates": [ 135.755057500000021, 35.0586814 ] } },
{ "type": "Feature", "properties": { "内容": "ハナマダン洛北【地域密着型通所介護】小松原北町60-3", "url": "https://www.kaigokensaku.mhlw.go.jp/26/index.php?action_kouhyou_detail_004_kani=true&JigyosyoCd=2670500327-00&ServiceCd=780&Type=search", "url2": "http://lfa-kyoto.org/" }, "geometry": { "type": "Point", "coordinates": [ 135.726760099999979, 35.032217 ] } },
{ "type": "Feature", "properties": { "内容": "ポラリスデイサービスセンター紫竹【地域密着型通所介護】京都府京都市北区紫竹東大門町10番地", "url": "https://www.kaigokensaku.mhlw.go.jp/26/index.php?action_kouhyou_detail_004_kani=true&JigyosyoCd=2670101225-00&ServiceCd=780&Type=search", "url2": "http://www.polaris.care/" }, "geometry": { "type": "Point", "coordinates": [ 135.74754934844691, 35.052969405494352 ] } },
{ "type": "Feature", "properties": { "内容": "株式会社デイサービスセンター千寿館【地域密着型通所介護】京都府京都市北区平野宮本町４番地２good8mirai1F", "url": "https://www.kaigokensaku.mhlw.go.jp/26/index.php?action_kouhyou_detail_004_kani=true&JigyosyoCd=2690100348-00&ServiceCd=780&Type=search", "url2": "http://hp.kaipoke.biz/6w8/index.html" }, "geometry": { "type": "Point", "coordinates": [ 135.731921333729531, 35.031588057290264 ] } },
{ "type": "Feature", "properties": { "内容": "あさつゆ【地域密着型通所介護】上賀茂朝露ヶ原町10番地の16", "url": "https://www.kaigokensaku.mhlw.go.jp/26/index.php?action_kouhyou_detail_004_kani=true&JigyosyoCd=2670101019-00&ServiceCd=780&Type=search", "url2": "http://www.asatuyu.jp" }, "geometry": { "type": "Point", "coordinates": [ 135.748533100000031, 35.0636391 ] } },
{ "type": "Feature", "properties": { "内容": "レコードブック京都北大路【地域密着型通所介護】京都府京都市北区紫竹東高縄町23-2ルピナス北山1階", "url": "https://www.kaigokensaku.mhlw.go.jp/26/index.php?action_kouhyou_detail_004_kani=true&JigyosyoCd=2690100306-00&ServiceCd=780&Type=search", "url2": null }, "geometry": { "type": "Point", "coordinates": [ 135.751387200000011, 35.0465441 ] } },
{ "type": "Feature", "properties": { "内容": "モンシャンデイサービス西賀茂店【地域密着型通所介護】京都府京都市北区大宮北林町8-1", "url": "https://www.kaigokensaku.mhlw.go.jp/26/index.php?action_kouhyou_detail_004_kani=true&JigyosyoCd=2690100363-00&ServiceCd=780&Type=search", "url2": "https://monchamp-kyoto.com/monchamp-nishigamo/" }, "geometry": { "type": "Point", "coordinates": [ 135.7458478, 35.0567291 ] } },
{ "type": "Feature", "properties": { "内容": "まつちよの家　だいこく【地域密着型通所介護】京都府京都市北区鷹峯旧土居町1-129", "url": "https://www.kaigokensaku.mhlw.go.jp/26/index.php?action_kouhyou_detail_004_kani=true&JigyosyoCd=2690100207-00&ServiceCd=780&Type=search", "url2": null }, "geometry": { "type": "Point", "coordinates": [ 135.736086995831329, 35.050175756818703 ] } },
{ "type": "Feature", "properties": { "内容": "祥成合同会社【地域密着型通所介護】京都府京都市上京区上立売新町西入西大路町79番地4", "url": "https://www.kaigokensaku.mhlw.go.jp/26/index.php?action_kouhyou_detail_004_kani=true&JigyosyoCd=2690200163-00&ServiceCd=780&Type=search", "url2": "http://hp.kaipoke.biz/b04/127795/base_0004.html" }, "geometry": { "type": "Point", "coordinates": [ 135.75510220000001, 35.0321589 ] } },
{ "type": "Feature", "properties": { "内容": "デイサービス　ソラスト上京【地域密着型通所介護】京都市上京区小川通出水上る茶屋町106番地", "url": "https://www.kaigokensaku.mhlw.go.jp/26/index.php?action_kouhyou_detail_004_kani=true&JigyosyoCd=2670200753-00&ServiceCd=780&Type=search", "url2": "https://solasto-kaigo.com/care/area/solastokamigyo.html" }, "geometry": { "type": "Point", "coordinates": [ 135.754003108598312, 35.022319740788483 ] } },
{ "type": "Feature", "properties": { "内容": "カエラデイサービスセンターきたの【地域密着型通所介護】京都市上京区一条通御前通東入西町25番地8", "url": "https://www.kaigokensaku.mhlw.go.jp/26/index.php?action_kouhyou_detail_004_kani=true&JigyosyoCd=2670200936-00&ServiceCd=780&Type=search", "url2": "https://www.kaera365.com/" }, "geometry": { "type": "Point", "coordinates": [ 135.7377593, 35.0262428 ] } },
{ "type": "Feature", "properties": { "内容": "カルナ西陣デイサービス【地域密着型通所介護】千本通一条上る泰童片原町651", "url": "https://www.kaigokensaku.mhlw.go.jp/26/index.php?action_kouhyou_detail_004_kani=true&JigyosyoCd=2670200829-00&ServiceCd=780&Type=search", "url2": "http://www.karunalife.info" }, "geometry": { "type": "Point", "coordinates": [ 135.742315, 35.0274593 ] } },
{ "type": "Feature", "properties": { "内容": "絆ひだまりの会　大心院の家【地域密着型通所介護】京都市上京区新町通寺之内上る三丁目大心院町16", "url": "https://www.kaigokensaku.mhlw.go.jp/26/index.php?action_kouhyou_detail_004_kani=true&JigyosyoCd=2670200662-00&ServiceCd=780&Type=search", "url2": "http://nsf.co.jp/" }, "geometry": { "type": "Point", "coordinates": [ 135.75592508933255, 35.035649965258429 ] } },
{ "type": "Feature", "properties": { "内容": "ヒューマンライフサービス有限会社花・デイサービス【地域密着型通所介護】京都市上京区笹屋町通大宮西入桝屋町583番地", "url": "https://www.kaigokensaku.mhlw.go.jp/26/index.php?action_kouhyou_detail_004_kani=true&JigyosyoCd=2670200100-00&ServiceCd=780&Type=search", "url2": "http://www.human-lifu-service.net/" }, "geometry": { "type": "Point", "coordinates": [ 135.749697, 35.0323732 ] } },
{ "type": "Feature", "properties": { "内容": "出町茶論【地域密着型通所介護】京都府京都市上京区寺町通今出川上る表町２１市川ビル１階", "url": "https://www.kaigokensaku.mhlw.go.jp/26/index.php?action_kouhyou_detail_004_kani=true&JigyosyoCd=2670200852-00&ServiceCd=780&Type=search", "url2": "https://demachi-salon.site/dayori.html" }, "geometry": { "type": "Point", "coordinates": [ 135.768003613154633, 35.030660972060687 ] } },
{ "type": "Feature", "properties": { "内容": "きらく庵デイサービスセンター西陣【地域密着型通所介護】京都府京都市上京区閻魔前町26FIDUSA1階", "url": "https://www.kaigokensaku.mhlw.go.jp/26/index.php?action_kouhyou_detail_004_kani=true&JigyosyoCd=2670200886-00&ServiceCd=780&Type=search", "url2": null }, "geometry": { "type": "Point", "coordinates": [ 135.741186500000026, 35.035106 ] } },
{ "type": "Feature", "properties": { "内容": "十四軒町デイサービスセンター【地域密着型通所介護】京都市上京区千本通出水下る十四軒町398", "url": "https://www.kaigokensaku.mhlw.go.jp/26/index.php?action_kouhyou_detail_004_kani=true&JigyosyoCd=2670200480-00&ServiceCd=780&Type=search", "url2": "http://www.kenkouen.jp/" }, "geometry": { "type": "Point", "coordinates": [ 135.741827398750274, 35.020899093853309 ] } },
{ "type": "Feature", "properties": { "内容": "セルフサポート㈱デイサービスまごのて西陣【地域密着型通所介護】京都市上京区大宮通下立売下る菱屋町８０４番地コートハウス1階", "url": "https://www.kaigokensaku.mhlw.go.jp/26/index.php?action_kouhyou_detail_004_kani=true&JigyosyoCd=2670200845-00&ServiceCd=780&Type=search", "url2": "https://www.magonote-group.com/" }, "geometry": { "type": "Point", "coordinates": [ 135.749163240406006, 35.019475700416457 ] } },
{ "type": "Feature", "properties": { "内容": "ら・し・くフィットネス【地域密着型通所介護】京都府京都市上京区御前通下立売上る3丁目西上之町248", "url": "https://www.kaigokensaku.mhlw.go.jp/26/index.php?action_kouhyou_detail_004_kani=true&JigyosyoCd=2690200197-00&ServiceCd=780&Type=search", "url2": "https://rashikufitness05.wixsite.com/-site" }, "geometry": { "type": "Point", "coordinates": [ 135.735914873680116, 35.02345978559881 ] } },
{ "type": "Feature", "properties": { "内容": "永原診療会通所介護自在館嬉楽家【地域密着型通所介護】京都市上京区浄福寺通上立売上ル大黒町686", "url": "https://www.kaigokensaku.mhlw.go.jp/26/index.php?action_kouhyou_detail_004_kani=true&JigyosyoCd=2610200855-00&ServiceCd=780&Type=search", "url2": "http://www.nagahara.or.jp/" }, "geometry": { "type": "Point", "coordinates": [ 135.745500527612649, 35.032622420581355 ] } },
{ "type": "Feature", "properties": { "内容": "あいおわデイサービス【地域密着型通所介護】岩倉花園町264アレックスビル1F", "url": "https://www.kaigokensaku.mhlw.go.jp/26/index.php?action_kouhyou_detail_004_kani=true&JigyosyoCd=2670600937-00&ServiceCd=780&Type=search", "url2": "aiowa-day.com" }, "geometry": { "type": "Point", "coordinates": [ 135.791054199999962, 35.0727742 ] } },
{ "type": "Feature", "properties": { "内容": "すずらんデイサービスセンター【地域密着型通所介護】京都市左京区岩倉忠在地町283番地", "url": "https://www.kaigokensaku.mhlw.go.jp/26/index.php?action_kouhyou_detail_004_kani=true&JigyosyoCd=2670600556-00&ServiceCd=780&Type=search", "url2": "http://www." }, "geometry": { "type": "Point", "coordinates": [ 135.78712680000001, 35.071916 ] } },
{ "type": "Feature", "properties": { "内容": "老人デイサービスセンター　　洛翠園【地域密着型通所介護】京都市左京区岩倉村松町203番地", "url": "https://www.kaigokensaku.mhlw.go.jp/26/index.php?action_kouhyou_detail_004_kani=true&JigyosyoCd=2670600283-00&ServiceCd=780&Type=search", "url2": "http://www.rakusuien7878.web.fc2.com" }, "geometry": { "type": "Point", "coordinates": [ 135.781655099999966, 35.088414 ] } },
{ "type": "Feature", "properties": { "内容": "（株）長三郎　　華デイサービスセンター【地域密着型通所介護】京都市左京区岩倉忠在地町363-4", "url": "https://www.kaigokensaku.mhlw.go.jp/26/index.php?action_kouhyou_detail_004_kani=true&JigyosyoCd=2670600366-00&ServiceCd=780&Type=search", "url2": "http://www." }, "geometry": { "type": "Point", "coordinates": [ 135.787862899999936, 35.0726909 ] } },
{ "type": "Feature", "properties": { "内容": "モンシャンデイサービス【地域密着型通所介護】一乗寺野田町12-10", "url": "https://www.kaigokensaku.mhlw.go.jp/26/index.php?action_kouhyou_detail_004_kani=true&JigyosyoCd=2690600180-00&ServiceCd=780&Type=search", "url2": "https://monchamp-kyoto.com/sample-page/" }, "geometry": { "type": "Point", "coordinates": [ 138.252924, 36.204824 ] } },
{ "type": "Feature", "properties": { "内容": "とうほうデイサービス【地域密着型通所介護】京都市左京区田中上玄京町７", "url": "https://www.kaigokensaku.mhlw.go.jp/26/index.php?action_kouhyou_detail_004_kani=true&JigyosyoCd=2670600739-00&ServiceCd=780&Type=search", "url2": null }, "geometry": { "type": "Point", "coordinates": [ 135.778828299999986, 35.0340927 ] } },
{ "type": "Feature", "properties": { "内容": "機能訓練型デイサービスいづみ【地域密着型通所介護】一乗寺西水干町32-1センチュリーハイツコスモ1", "url": "https://www.kaigokensaku.mhlw.go.jp/26/index.php?action_kouhyou_detail_004_kani=true&JigyosyoCd=2690600271-00&ServiceCd=780&Type=search", "url2": "https://www.izumi-day.com/" }, "geometry": { "type": "Point", "coordinates": [ 135.785883, 35.0383597 ] } },
{ "type": "Feature", "properties": { "内容": "デイサービスいろは【地域密着型通所介護】京都府京都市左京区岩倉長谷町１７８５−１", "url": "https://www.kaigokensaku.mhlw.go.jp/26/index.php?action_kouhyou_detail_004_kani=true&JigyosyoCd=2670601133-00&ServiceCd=780&Type=search", "url2": "http://www.eonet.ne.jp/~rihabiri-iroha/" }, "geometry": { "type": "Point", "coordinates": [ 135.793336561398547, 35.079578360917225 ] } },
{ "type": "Feature", "properties": { "内容": "デイサービスいろは長谷【地域密着型通所介護】京都府京都市左京区岩倉長谷町1785-2", "url": "https://www.kaigokensaku.mhlw.go.jp/26/index.php?action_kouhyou_detail_004_kani=true&JigyosyoCd=2690600305-00&ServiceCd=780&Type=search", "url2": "http://www.eonet.ne.jp/~rihabiri-iroha/" }, "geometry": { "type": "Point", "coordinates": [ 135.793448, 35.080136 ] } },
{ "type": "Feature", "properties": { "内容": "花友はなせ地域密着型デイサービス【地域密着型通所介護】京都府京都市左京区花脊別所町878番地", "url": "https://www.kaigokensaku.mhlw.go.jp/26/index.php?action_kouhyou_detail_004_kani=true&JigyosyoCd=2690600024-00&ServiceCd=780&Type=search", "url2": "http://www.itihara.or.jp/" }, "geometry": { "type": "Point", "coordinates": [ 135.784070499999984, 35.1760463 ] } },
{ "type": "Feature", "properties": { "内容": "おおきに百万遍デイサービス【地域密着型通所介護】京都府京都市左京区田中大堰町212おおきに百万遍サニーアパートメント1階西側", "url": "https://www.kaigokensaku.mhlw.go.jp/26/index.php?action_kouhyou_detail_004_kani=true&JigyosyoCd=2690600230-00&ServiceCd=780&Type=search", "url2": "https://a-a-e.jp/" }, "geometry": { "type": "Point", "coordinates": [ 135.7787568, 35.031356 ] } },
{ "type": "Feature", "properties": { "内容": "ひまわり　デイサービスセンター【地域密着型通所介護】京都市左京区一乗寺東水干町33番地", "url": "https://www.kaigokensaku.mhlw.go.jp/26/index.php?action_kouhyou_detail_004_kani=true&JigyosyoCd=2670600721-00&ServiceCd=780&Type=search", "url2": "https://sites.google.com/site/himawaridream2019/" }, "geometry": { "type": "Point", "coordinates": [ 135.788272099999972, 35.0380561 ] } },
{ "type": "Feature", "properties": { "内容": "リハビリデイサービスnagomi　京都北白川店【地域密着型通所介護】一乗寺向畑町15", "url": "https://www.kaigokensaku.mhlw.go.jp/26/index.php?action_kouhyou_detail_004_kani=true&JigyosyoCd=2670601083-00&ServiceCd=780&Type=search", "url2": "http://www.my-nagomi.com" }, "geometry": { "type": "Point", "coordinates": [ 135.792217398372031, 35.047024193878755 ] } },
{ "type": "Feature", "properties": { "内容": "レコードブック京都宝が池店【地域密着型通所介護】上高野上荒蒔町5-6正和フラット宝ヶ池1Ｆ", "url": "https://www.kaigokensaku.mhlw.go.jp/26/index.php?action_kouhyou_detail_004_kani=true&JigyosyoCd=2690600198-00&ServiceCd=780&Type=search", "url2": "https://n-and-r.co.jp/" }, "geometry": { "type": "Point", "coordinates": [ 135.792096099999981, 35.0583731 ] } },
{ "type": "Feature", "properties": { "内容": "レコードブック京都一乗寺【地域密着型通所介護】一乗寺払殿町29IZUKIマンション1階", "url": "https://www.kaigokensaku.mhlw.go.jp/26/index.php?action_kouhyou_detail_004_kani=true&JigyosyoCd=2690600206-00&ServiceCd=780&Type=search", "url2": "https://www.recordbook.jp" }, "geometry": { "type": "Point", "coordinates": [ 135.784580268647801, 35.043862818649139 ] } },
{ "type": "Feature", "properties": { "内容": "ポシブル京都大学前【地域密着型通所介護】京都市左京区北白川東蔦町28-1PINE館Ⅱ", "url": "https://www.kaigokensaku.mhlw.go.jp/26/index.php?action_kouhyou_detail_004_kani=true&JigyosyoCd=2690600222-00&ServiceCd=780&Type=search", "url2": "http://www.possible-plus.co.jp" }, "geometry": { "type": "Point", "coordinates": [ 135.788158299999964, 35.0329671 ] } },
{ "type": "Feature", "properties": { "内容": "レコードブック京都下鴨【地域密着型通所介護】京都府京都市左京区下鴨東本町8M’S　MIGNON下鴨1階", "url": "https://www.kaigokensaku.mhlw.go.jp/26/index.php?action_kouhyou_detail_004_kani=true&JigyosyoCd=2690600297-00&ServiceCd=780&Type=search", "url2": null }, "geometry": { "type": "Point", "coordinates": [ 135.7730742, 35.0438078 ] } },
{ "type": "Feature", "properties": { "内容": "パナソニックエイジフリー京都御池デイサービス【地域密着型通所介護】京都市中京区柳馬場通二条下ル等持寺町21-1", "url": "https://www.kaigokensaku.mhlw.go.jp/26/index.php?action_kouhyou_detail_004_kani=true&JigyosyoCd=2670300835-00&ServiceCd=780&Type=search", "url2": null }, "geometry": { "type": "Point", "coordinates": [ 135.764057399999956, 35.0128085 ] } },
{ "type": "Feature", "properties": { "内容": "通所介護事業所　ほほえみの里京都【地域密着型通所介護】京都府京都市中京区油小路通押小路下る押油小路町250番地", "url": "https://www.kaigokensaku.mhlw.go.jp/26/index.php?action_kouhyou_detail_004_kani=true&JigyosyoCd=2670300983-00&ServiceCd=780&Type=search", "url2": null }, "geometry": { "type": "Point", "coordinates": [ 135.753683300000034, 35.0116835 ] } },
{ "type": "Feature", "properties": { "内容": "療養通所介護事業所HARU【地域密着型通所介護】京都府京都市中京区壬生相合町18-9ウィズ高辻通1階", "url": "https://www.kaigokensaku.mhlw.go.jp/26/index.php?action_kouhyou_detail_004_kani=true&JigyosyoCd=2690300161-00&ServiceCd=780&Type=search", "url2": "hg.cc.haru@gmail.com" }, "geometry": { "type": "Point", "coordinates": [ 135.7457832, 35.0003215 ] } },
{ "type": "Feature", "properties": { "内容": "デイサービス道夢【地域密着型通所介護】京都府京都市中京区壬生淵田町１２レジデンスオークラA棟1階", "url": "https://www.kaigokensaku.mhlw.go.jp/26/index.php?action_kouhyou_detail_004_kani=true&JigyosyoCd=2690300195-00&ServiceCd=780&Type=search", "url2": null }, "geometry": { "type": "Point", "coordinates": [ 135.734159799999986, 35.0057326 ] } },
{ "type": "Feature", "properties": { "内容": "デイサービス　ふくろう【地域密着型通所介護】京都市中京区西ノ京内畑町29-58", "url": "https://www.kaigokensaku.mhlw.go.jp/26/index.php?action_kouhyou_detail_004_kani=true&JigyosyoCd=2690300112-00&ServiceCd=780&Type=search", "url2": "http://dayfukurou.com" }, "geometry": { "type": "Point", "coordinates": [ 135.74003730000004, 35.013744 ] } },
{ "type": "Feature", "properties": { "内容": "ふち内科デイセンター【地域密着型通所介護】京都市中京区西ノ京北小路町15", "url": "https://www.kaigokensaku.mhlw.go.jp/26/index.php?action_kouhyou_detail_004_kani=true&JigyosyoCd=2670300561-00&ServiceCd=780&Type=search", "url2": "http://www." }, "geometry": { "type": "Point", "coordinates": [ 135.734085199999981, 35.008861 ] } },
{ "type": "Feature", "properties": { "内容": "リハビリデイサービスnagomi京都二条店【地域密着型通所介護】京都市中京区壬生天池町２６－３", "url": "https://www.kaigokensaku.mhlw.go.jp/26/index.php?action_kouhyou_detail_004_kani=true&JigyosyoCd=2670300868-00&ServiceCd=780&Type=search", "url2": "http://www.my-nagomi.com/" }, "geometry": { "type": "Point", "coordinates": [ 135.739449893236696, 35.006866846190803 ] } },
{ "type": "Feature", "properties": { "内容": "ポシブル烏丸御池【地域密着型通所介護】京都府京都市中京区小川通り御池上る下古城町399With京Seasons1階", "url": "https://www.kaigokensaku.mhlw.go.jp/26/index.php?action_kouhyou_detail_004_kani=true&JigyosyoCd=2690300146-00&ServiceCd=780&Type=search", "url2": "http://www.possible-kyoto.com/" }, "geometry": { "type": "Point", "coordinates": [ 135.754069399999906, 35.0119918 ] } },
{ "type": "Feature", "properties": { "内容": "医療法人社団育生会機能訓練型デイサービスロコモーション【地域密着型通所介護】本町20丁目440-2", "url": "https://www.kaigokensaku.mhlw.go.jp/26/index.php?action_kouhyou_detail_004_kani=true&JigyosyoCd=2690800079-00&ServiceCd=780&Type=search", "url2": "locomo@kuno-hospital.or.jp" }, "geometry": { "type": "Point", "coordinates": [ 135.7710004, 34.9730608 ] } },
{ "type": "Feature", "properties": { "内容": "デイサービスモアナ【地域密着型通所介護】京都府京都市下京区西七条西八反田町130ロイヤルコート西七条1F北側", "url": "https://www.kaigokensaku.mhlw.go.jp/26/index.php?action_kouhyou_detail_004_kani=true&JigyosyoCd=2670400858-00&ServiceCd=780&Type=search", "url2": null }, "geometry": { "type": "Point", "coordinates": [ 135.737422066864752, 34.991735528711416 ] } },
{ "type": "Feature", "properties": { "内容": "療養通所介護にじ【地域密着型通所介護】京都府京都市下京区油小路通四条下る石井筒町529ティファール101", "url": "https://www.kaigokensaku.mhlw.go.jp/26/index.php?action_kouhyou_detail_004_kani=true&JigyosyoCd=2690400144-00&ServiceCd=780&Type=search", "url2": null }, "geometry": { "type": "Point", "coordinates": [ 135.753535622055438, 35.003337544523959 ] } },
{ "type": "Feature", "properties": { "内容": "デイサービスフファースト【地域密着型通所介護】京都市下京区四条通大宮東入立中町502四条ファーストビル7階", "url": "https://www.kaigokensaku.mhlw.go.jp/26/index.php?action_kouhyou_detail_004_kani=true&JigyosyoCd=2670400817-00&ServiceCd=780&Type=search", "url2": null }, "geometry": { "type": "Point", "coordinates": [ 135.750252400000022, 35.0034328 ] } },
{ "type": "Feature", "properties": { "内容": "レコードブック烏丸五条【地域密着型通所介護】升屋町65シボラ六条高倉1階", "url": "https://www.kaigokensaku.mhlw.go.jp/26/index.php?action_kouhyou_detail_004_kani=true&JigyosyoCd=2690400151-00&ServiceCd=780&Type=search", "url2": null }, "geometry": { "type": "Point", "coordinates": [ 135.7626668, 34.9937391 ] } },
{ "type": "Feature", "properties": { "内容": "デイサービスセンタージョイ四条河原町【地域密着型通所介護】京都市下京区仏光寺通寺町東入中之町583-5辰々ビル2階", "url": "https://www.kaigokensaku.mhlw.go.jp/26/index.php?action_kouhyou_detail_004_kani=true&JigyosyoCd=2670400494-00&ServiceCd=780&Type=search", "url2": "http://www." }, "geometry": { "type": "Point", "coordinates": [ 135.767447772444143, 35.001607935148421 ] } },
{ "type": "Feature", "properties": { "内容": "あんしんデイサービスセンター　えがお【地域密着型通所介護】京都市下京区若宮町559番地クリプトメリア京都１階", "url": "https://www.kaigokensaku.mhlw.go.jp/26/index.php?action_kouhyou_detail_004_kani=true&JigyosyoCd=2690400169-00&ServiceCd=780&Type=search", "url2": "http://hp.kaipoke.biz/2wv/" }, "geometry": { "type": "Point", "coordinates": [ 135.75602194999135, 34.993211608178704 ] } },
{ "type": "Feature", "properties": { "内容": "一麦庵【地域密着型通所介護】京都府京都市下京区高倉通五条下る三丁目升屋町65番地シボラ六条高倉　1階東", "url": "https://www.kaigokensaku.mhlw.go.jp/26/index.php?action_kouhyou_detail_004_kani=true&JigyosyoCd=2670300694-00&ServiceCd=780&Type=search", "url2": null }, "geometry": { "type": "Point", "coordinates": [ 135.762792368074628, 34.993760161828142 ] } },
{ "type": "Feature", "properties": { "内容": "ポシブル梅小路【地域密着型通所介護】朱雀正会町1-28", "url": "https://www.kaigokensaku.mhlw.go.jp/26/index.php?action_kouhyou_detail_004_kani=true&JigyosyoCd=2690400185-00&ServiceCd=780&Type=search", "url2": "http://www.possible-kyoto.com/" }, "geometry": { "type": "Point", "coordinates": [ 135.74354790000001, 34.9897626 ] } },
{ "type": "Feature", "properties": { "内容": "ワンデイハウスゆりかご【地域密着型通所介護】京都府京都市南区吉祥院石原開町５６番地", "url": "https://www.kaigokensaku.mhlw.go.jp/26/index.php?action_kouhyou_detail_004_kani=true&JigyosyoCd=2690500158-00&ServiceCd=780&Type=search", "url2": null }, "geometry": { "type": "Point", "coordinates": [ 135.7261154, 34.963797 ] } },
{ "type": "Feature", "properties": { "内容": "明日香デイサービスセンター【地域密着型通所介護】京都市南区吉祥院砂ノ町45吉祥院いきいき市民活動センター別館1階", "url": "https://www.kaigokensaku.mhlw.go.jp/26/index.php?action_kouhyou_detail_004_kani=true&JigyosyoCd=2670500715-00&ServiceCd=780&Type=search", "url2": "http://hp.kaipoke.biz/48x/" }, "geometry": { "type": "Point", "coordinates": [ 135.73187542977314, 34.968998832029691 ] } },
{ "type": "Feature", "properties": { "内容": "機能訓練型デイサービス　ほこほこ【地域密着型通所介護】西九条島町27京都ロジュマン島町104", "url": "https://www.kaigokensaku.mhlw.go.jp/26/index.php?action_kouhyou_detail_004_kani=true&JigyosyoCd=2670500897-00&ServiceCd=780&Type=search", "url2": null }, "geometry": { "type": "Point", "coordinates": [ 135.753429899999986, 34.9779948 ] } },
{ "type": "Feature", "properties": { "内容": "ステップぱーとなー京都東寺【地域密着型通所介護】京都府京都市南区四ツ塚町65", "url": "https://www.kaigokensaku.mhlw.go.jp/26/index.php?action_kouhyou_detail_004_kani=true&JigyosyoCd=2670500855-00&ServiceCd=780&Type=search", "url2": "http://step-partner.jp" }, "geometry": { "type": "Point", "coordinates": [ 135.745672093392926, 34.97899921956239 ] } },
{ "type": "Feature", "properties": { "内容": "石原デイサービスセンター【地域密着型通所介護】京都市南区西九条東島町１６番地１", "url": "https://www.kaigokensaku.mhlw.go.jp/26/index.php?action_kouhyou_detail_004_kani=true&JigyosyoCd=2670500640-00&ServiceCd=780&Type=search", "url2": "https://www.ishihara-dayservice.com/" }, "geometry": { "type": "Point", "coordinates": [ 135.754084633729519, 34.976169664434394 ] } },
{ "type": "Feature", "properties": { "内容": "ＧＥＮＫＩＮＥＸＴ京都吉祥院【地域密着型通所介護】吉祥院西ノ庄西浦町68StarWest１階", "url": "https://www.kaigokensaku.mhlw.go.jp/26/index.php?action_kouhyou_detail_004_kani=true&JigyosyoCd=2670500764-00&ServiceCd=780&Type=search", "url2": null }, "geometry": { "type": "Point", "coordinates": [ 135.727333199999975, 34.9843102 ] } },
{ "type": "Feature", "properties": { "内容": "わのみちデイサービス鳥羽街道【地域密着型通所介護】京都府京都市南区上鳥羽西浦町273", "url": "https://www.kaigokensaku.mhlw.go.jp/26/index.php?action_kouhyou_detail_004_kani=true&JigyosyoCd=2670500863-00&ServiceCd=780&Type=search", "url2": "http://www.wadoubunka.net" }, "geometry": { "type": "Point", "coordinates": [ 135.742337, 34.9560661 ] } },
{ "type": "Feature", "properties": { "内容": "八湯【地域密着型通所介護】京都市南区吉祥院西ノ庄向田町6ルミエール葛野103号", "url": "https://www.kaigokensaku.mhlw.go.jp/26/index.php?action_kouhyou_detail_004_kani=true&JigyosyoCd=2690500240-00&ServiceCd=780&Type=search", "url2": "https://h88kaigo.jp/" }, "geometry": { "type": "Point", "coordinates": [ 135.7206799, 34.9849849 ] } },
{ "type": "Feature", "properties": { "内容": "レコードブック西大路【地域密着型通所介護】吉祥院御池町1-3クリスタルグランツ京都西大路", "url": "https://www.kaigokensaku.mhlw.go.jp/26/index.php?action_kouhyou_detail_004_kani=true&JigyosyoCd=2690500224-00&ServiceCd=780&Type=search", "url2": null }, "geometry": { "type": "Point", "coordinates": [ 135.735539356483457, 34.974345743597603 ] } },
{ "type": "Feature", "properties": { "内容": "東寺つどいデイサービス【地域密着型通所介護】西九条東柳ノ内町46番地ライズビルサウスポイント1階101号室", "url": "https://www.kaigokensaku.mhlw.go.jp/26/index.php?action_kouhyou_detail_004_kani=true&JigyosyoCd=2690500232-00&ServiceCd=780&Type=search", "url2": null }, "geometry": { "type": "Point", "coordinates": [ 135.753331641437853, 34.97573273658319 ] } },
{ "type": "Feature", "properties": { "内容": "レッツ倶楽部・葛野【地域密着型通所介護】京都市右京区西京極東衣手町48番地1トレジャハウス48　１階", "url": "https://www.kaigokensaku.mhlw.go.jp/26/index.php?action_kouhyou_detail_004_kani=true&JigyosyoCd=2670701453-00&ServiceCd=780&Type=search", "url2": "www.lets-club.co.jp/kadono/" }, "geometry": { "type": "Point", "coordinates": [ 135.7118901, 34.9980643 ] } },
{ "type": "Feature", "properties": { "内容": "ほがらかデイサービスセンター【地域密着型通所介護】京都府京都市右京区京北下弓削町中川原１番地１０", "url": "https://www.kaigokensaku.mhlw.go.jp/26/index.php?action_kouhyou_detail_004_kani=true&JigyosyoCd=2670700901-00&ServiceCd=780&Type=search", "url2": null }, "geometry": { "type": "Point", "coordinates": [ 135.635114299999941, 35.1913176 ] } },
{ "type": "Feature", "properties": { "内容": "西小路デイサービスはじまり【地域密着型通所介護】京都府京都市右京区西院小米町23番地3", "url": "https://www.kaigokensaku.mhlw.go.jp/26/index.php?action_kouhyou_detail_004_kani=true&JigyosyoCd=2670701073-00&ServiceCd=780&Type=search", "url2": null }, "geometry": { "type": "Point", "coordinates": [ 135.725375500000013, 35.0047783 ] } },
{ "type": "Feature", "properties": { "内容": "グランユニライフデイサービスセンター京都嵐山【地域密着型通所介護】京都市右京区嵯峨天龍寺油掛町10-25グランメゾン迎賓館京都嵐山", "url": "https://www.kaigokensaku.mhlw.go.jp/26/index.php?action_kouhyou_detail_004_kani=true&JigyosyoCd=2670701446-00&ServiceCd=780&Type=search", "url2": null }, "geometry": { "type": "Point", "coordinates": [ 135.68648630000007, 35.0190013 ] } },
{ "type": "Feature", "properties": { "内容": "絆デイサービス嵯峨【地域密着型通所介護】京都京都市右京区嵯峨中通町26", "url": "https://www.kaigokensaku.mhlw.go.jp/26/index.php?action_kouhyou_detail_004_kani=true&JigyosyoCd=2690700295-00&ServiceCd=780&Type=search", "url2": "http://carenet.biz/26/kizuna/" }, "geometry": { "type": "Point", "coordinates": [ 135.686753100000033, 35.0142545 ] } },
{ "type": "Feature", "properties": { "内容": "絆ディサービス【地域密着型通所介護】梅ヶ畑中縄手町２０", "url": "https://www.kaigokensaku.mhlw.go.jp/26/index.php?action_kouhyou_detail_004_kani=true&JigyosyoCd=2670701602-00&ServiceCd=780&Type=search", "url2": "http://care-net.biz/26/kizuna/" }, "geometry": { "type": "Point", "coordinates": [ 135.6856086723526, 35.040670197174734 ] } },
{ "type": "Feature", "properties": { "内容": "まどかデイサービスセンター【地域密着型通所介護】京都市右京区太秦中筋町12-5", "url": "https://www.kaigokensaku.mhlw.go.jp/26/index.php?action_kouhyou_detail_004_kani=true&JigyosyoCd=2670701271-00&ServiceCd=780&Type=search", "url2": null }, "geometry": { "type": "Point", "coordinates": [ 135.696799300000066, 35.0208734 ] } },
{ "type": "Feature", "properties": { "内容": "医療法人誠心会　通所介護めぐみ　御室【地域密着型通所介護】京都府京都市右京区谷口梅津間町23コーポ未麗妙心寺", "url": "https://www.kaigokensaku.mhlw.go.jp/26/index.php?action_kouhyou_detail_004_kani=true&JigyosyoCd=2690700451-00&ServiceCd=780&Type=search", "url2": "https://i-seishin.or.jp/" }, "geometry": { "type": "Point", "coordinates": [ 135.721246900000011, 35.025993908430706 ] } },
{ "type": "Feature", "properties": { "内容": "医療法人誠心会　通所介護めぐみ常盤野【地域密着型通所介護】京都府京都市右京区常盤古御所町9-1ノイシュロス御室南", "url": "https://www.kaigokensaku.mhlw.go.jp/26/index.php?action_kouhyou_detail_004_kani=true&JigyosyoCd=2690700469-00&ServiceCd=780&Type=search", "url2": "https://i-seishin.or.jp/" }, "geometry": { "type": "Point", "coordinates": [ 135.7122459, 35.0208257 ] } },
{ "type": "Feature", "properties": { "内容": "デイサービスセンター　リハライフ【地域密着型通所介護】京都府京都市右京区太秦多藪町４３－１５ドミトホ１Ｆ", "url": "https://www.kaigokensaku.mhlw.go.jp/26/index.php?action_kouhyou_detail_004_kani=true&JigyosyoCd=2670701313-00&ServiceCd=780&Type=search", "url2": null }, "geometry": { "type": "Point", "coordinates": [ 135.70391, 35.0138657 ] } },
{ "type": "Feature", "properties": { "内容": "悠遊庵デイサービスセンター【地域密着型通所介護】京都府京都市右京区嵯峨朝日町2-4", "url": "https://www.kaigokensaku.mhlw.go.jp/26/index.php?action_kouhyou_detail_004_kani=true&JigyosyoCd=2670701388-00&ServiceCd=780&Type=search", "url2": "http://www.yuyuan.care/" }, "geometry": { "type": "Point", "coordinates": [ 135.6911503, 35.0146004 ] } },
{ "type": "Feature", "properties": { "内容": "悠遊庵　太秦店【地域密着型通所介護】京都府京都市右京区太秦西蜂岡町9-27", "url": "https://www.kaigokensaku.mhlw.go.jp/26/index.php?action_kouhyou_detail_004_kani=true&JigyosyoCd=2670701784-00&ServiceCd=780&Type=search", "url2": null }, "geometry": { "type": "Point", "coordinates": [ 135.703351199999986, 35.0154117 ] } },
{ "type": "Feature", "properties": { "内容": "悠遊庵陽だまりデイサービス【地域密着型通所介護】京都市右京区西京極東池田町12メゾン・ド・ハラ１階", "url": "https://www.kaigokensaku.mhlw.go.jp/26/index.php?action_kouhyou_detail_004_kani=true&JigyosyoCd=2690700444-00&ServiceCd=780&Type=search", "url2": null }, "geometry": { "type": "Point", "coordinates": [ 135.7208458, 34.9918297 ] } },
{ "type": "Feature", "properties": { "内容": "デイサービスセンター感激【地域密着型通所介護】太秦御所ノ内町7KCSビル1F", "url": "https://www.kaigokensaku.mhlw.go.jp/26/index.php?action_kouhyou_detail_004_kani=true&JigyosyoCd=2670701412-00&ServiceCd=780&Type=search", "url2": null }, "geometry": { "type": "Point", "coordinates": [ 135.697712754492159, 35.013504978213525 ] } },
{ "type": "Feature", "properties": { "内容": "健光園デイサービスセンター【地域密着型通所介護】京都市右京区嵯峨大覚寺門前六道町12", "url": "https://www.kaigokensaku.mhlw.go.jp/26/index.php?action_kouhyou_detail_004_kani=true&JigyosyoCd=2690700303-00&ServiceCd=780&Type=search", "url2": "http://www/kenkouen./" }, "geometry": { "type": "Point", "coordinates": [ 135.677628700000014, 35.0271055 ] } },
{ "type": "Feature", "properties": { "内容": "デイサービス早稲田イーライフ梅津【地域密着型通所介護】京都市右京区梅津東構口町17グランデ-ル桂川101", "url": "https://www.kaigokensaku.mhlw.go.jp/26/index.php?action_kouhyou_detail_004_kani=true&JigyosyoCd=2670701198-00&ServiceCd=780&Type=search", "url2": "http://www.e-life-kyoto.com" }, "geometry": { "type": "Point", "coordinates": [ 135.705374099999972, 35.0022556 ] } },
{ "type": "Feature", "properties": { "内容": "デイサービス　ソラスト天神川【地域密着型通所介護】京都府京都市右京区梅津南広町32-3シャンパーニュ四条　１F", "url": "https://www.kaigokensaku.mhlw.go.jp/26/index.php?action_kouhyou_detail_004_kani=true&JigyosyoCd=2670701255-00&ServiceCd=780&Type=search", "url2": "https://solasto-kaigo.com/care/area/solastotenjingawa.html" }, "geometry": { "type": "Point", "coordinates": [ 135.714253800000051, 35.003525 ] } },
{ "type": "Feature", "properties": { "内容": "デイサービス早稲田イーライフ花園【地域密着型通所介護】京都府京都市右京区花園藪ノ下町3桐ビル１階", "url": "https://www.kaigokensaku.mhlw.go.jp/26/index.php?action_kouhyou_detail_004_kani=true&JigyosyoCd=2670701503-00&ServiceCd=780&Type=search", "url2": "http://www.e-life-kyoto.com" }, "geometry": { "type": "Point", "coordinates": [ 135.724725917196707, 35.019465452604685 ] } },
{ "type": "Feature", "properties": { "内容": "通所介護ゆとり【地域密着型通所介護】京都市右京区西京極野田町１８－１", "url": "https://www.kaigokensaku.mhlw.go.jp/26/index.php?action_kouhyou_detail_004_kani=true&JigyosyoCd=2670701693-00&ServiceCd=780&Type=search", "url2": null }, "geometry": { "type": "Point", "coordinates": [ 135.716978599999948, 34.9951952 ] } },
{ "type": "Feature", "properties": { "内容": "デイサービス心粋【地域密着型通所介護】京都市右京区西京極下沢町19－43", "url": "https://www.kaigokensaku.mhlw.go.jp/26/index.php?action_kouhyou_detail_004_kani=true&JigyosyoCd=2690700402-00&ServiceCd=780&Type=search", "url2": "https://www.koiki-randb.com" }, "geometry": { "type": "Point", "coordinates": [ 135.726379641000364, 34.986195210312097 ] } },
{ "type": "Feature", "properties": { "内容": "ハッピーリハ　りゅうあん【地域密着型通所介護】京都市右京区谷口垣ノ内町９－６", "url": "https://www.kaigokensaku.mhlw.go.jp/26/index.php?action_kouhyou_detail_004_kani=true&JigyosyoCd=2670701537-00&ServiceCd=780&Type=search", "url2": null }, "geometry": { "type": "Point", "coordinates": [ 135.72100249999994, 35.0279617 ] } },
{ "type": "Feature", "properties": { "内容": "デイサービス　アルクスタジオ【地域密着型通所介護】醍醐構口町20-6", "url": "https://www.kaigokensaku.mhlw.go.jp/26/index.php?action_kouhyou_detail_004_kani=true&JigyosyoCd=2670917166-00&ServiceCd=780&Type=search", "url2": "http://hp.kaipoke.biz/3yd" }, "geometry": { "type": "Point", "coordinates": [ 135.813727299999982, 34.9450246 ] } },
{ "type": "Feature", "properties": { "内容": "デイサービスみらい日野【地域密着型通所介護】京都府京都市伏見区日野西風呂町1-15", "url": "https://www.kaigokensaku.mhlw.go.jp/26/index.php?action_kouhyou_detail_004_kani=true&JigyosyoCd=2670917133-00&ServiceCd=780&Type=search", "url2": null }, "geometry": { "type": "Point", "coordinates": [ 135.810927399999969, 34.9366559 ] } },
{ "type": "Feature", "properties": { "内容": "デイサービス晴れる屋【地域密着型通所介護】京都市伏見区桃山町泰長老175-1シャルム世光105号", "url": "https://www.kaigokensaku.mhlw.go.jp/26/index.php?action_kouhyou_detail_004_kani=true&JigyosyoCd=2670901152-00&ServiceCd=780&Type=search", "url2": null }, "geometry": { "type": "Point", "coordinates": [ 135.76820440000003, 34.9299655 ] } },
{ "type": "Feature", "properties": { "内容": "デイサービスセンター恵寿【地域密着型通所介護】京都市伏見区小栗栖小阪町43番地1", "url": "https://www.kaigokensaku.mhlw.go.jp/26/index.php?action_kouhyou_detail_004_kani=true&JigyosyoCd=2670917299-00&ServiceCd=780&Type=search", "url2": "http://keiju-sakouju.com/" }, "geometry": { "type": "Point", "coordinates": [ 135.801668244180291, 34.946029946279403 ] } },
{ "type": "Feature", "properties": { "内容": "ディサービス夢前【地域密着型通所介護】向島四ツ谷池14番地19", "url": "https://www.kaigokensaku.mhlw.go.jp/26/index.php?action_kouhyou_detail_004_kani=true&JigyosyoCd=2690900697-00&ServiceCd=780&Type=search", "url2": "care-yume.com" }, "geometry": { "type": "Point", "coordinates": [ 135.77846569999997, 34.9183821 ] } },
{ "type": "Feature", "properties": { "内容": "わのみちデイサービス藤森【地域密着型通所介護】京都市伏見区深草大亀谷大山町27-6", "url": "https://www.kaigokensaku.mhlw.go.jp/26/index.php?action_kouhyou_detail_004_kani=true&JigyosyoCd=2670901624-00&ServiceCd=780&Type=search", "url2": "http://www.wadoubunka.net/" }, "geometry": { "type": "Point", "coordinates": [ 135.779494500000027, 34.9470679 ] } },
{ "type": "Feature", "properties": { "内容": "レコードブック伏見【地域密着型通所介護】京都市伏見区深草飯食町832第49長栄ウィステリアヒルズ2階1号", "url": "https://www.kaigokensaku.mhlw.go.jp/26/index.php?action_kouhyou_detail_004_kani=true&JigyosyoCd=2690900473-00&ServiceCd=780&Type=search", "url2": null }, "geometry": { "type": "Point", "coordinates": [ 135.7693617, 34.9546366 ] } },
{ "type": "Feature", "properties": { "内容": "デイサービス光清【地域密着型通所介護】京都市伏見区下鳥羽南円面田町6トロスマンション1階", "url": "https://www.kaigokensaku.mhlw.go.jp/26/index.php?action_kouhyou_detail_004_kani=true&JigyosyoCd=2690900754-00&ServiceCd=780&Type=search", "url2": null }, "geometry": { "type": "Point", "coordinates": [ 135.74055, 34.9315331 ] } },
{ "type": "Feature", "properties": { "内容": "デイサービス健康アスモ【地域密着型通所介護】京都府京都市伏見区醍醐槇ノ内町8-2シモムラビル102", "url": "https://www.kaigokensaku.mhlw.go.jp/26/index.php?action_kouhyou_detail_004_kani=true&JigyosyoCd=2670916895-00&ServiceCd=780&Type=search", "url2": "https://www.asumo0207.com/" }, "geometry": { "type": "Point", "coordinates": [ 135.8152715, 34.9448692 ] } },
{ "type": "Feature", "properties": { "内容": "元源深草【地域密着型通所介護】京都府京都市伏見区深草大亀谷万帖敷町370-1", "url": "https://www.kaigokensaku.mhlw.go.jp/26/index.php?action_kouhyou_detail_004_kani=true&JigyosyoCd=2690900507-00&ServiceCd=780&Type=search", "url2": "http://www.mukaijima.jp/" }, "geometry": { "type": "Point", "coordinates": [ 135.779044399999947, 34.9434543 ] } },
{ "type": "Feature", "properties": { "内容": "医療法人　啓信会　デイサービスセンター　リエゾン羽束師【地域密着型通所介護】羽束師古川町168-1", "url": "https://www.kaigokensaku.mhlw.go.jp/26/index.php?action_kouhyou_detail_004_kani=true&JigyosyoCd=2670901095-00&ServiceCd=780&Type=search", "url2": "http://www.kyoto-keishinkai.or.jp/" }, "geometry": { "type": "Point", "coordinates": [ 135.723435, 34.9267221 ] } },
{ "type": "Feature", "properties": { "内容": "デイサービスしんざわ【地域密着型通所介護】京都府京都市伏見区下鳥羽前田町3", "url": "https://www.kaigokensaku.mhlw.go.jp/26/index.php?action_kouhyou_detail_004_kani=true&JigyosyoCd=2670901327-00&ServiceCd=780&Type=search", "url2": null }, "geometry": { "type": "Point", "coordinates": [ 135.743139299999939, 34.9440562 ] } },
{ "type": "Feature", "properties": { "内容": "ピットインデイサービスセンター【地域密着型通所介護】京都府京都市伏見区深草西浦町七丁目７３－１ニューライフマンション藤森１階", "url": "https://www.kaigokensaku.mhlw.go.jp/26/index.php?action_kouhyou_detail_004_kani=true&JigyosyoCd=2670901590-00&ServiceCd=780&Type=search", "url2": "https://pit-ingym.amebaownd.com/" }, "geometry": { "type": "Point", "coordinates": [ 135.763849, 34.957397 ] } },
{ "type": "Feature", "properties": { "内容": "わのみちデイサービス中書島【地域密着型通所介護】京都市伏見区東柳町５３９－７", "url": "https://www.kaigokensaku.mhlw.go.jp/26/index.php?action_kouhyou_detail_004_kani=true&JigyosyoCd=2670900998-00&ServiceCd=780&Type=search", "url2": "http://www.wadoubunka.net" }, "geometry": { "type": "Point", "coordinates": [ 135.760840300000041, 34.9295607 ] } },
{ "type": "Feature", "properties": { "内容": "安心プラス【地域密着型通所介護】京都市伏見区京町六丁目69番地1", "url": "https://www.kaigokensaku.mhlw.go.jp/26/index.php?action_kouhyou_detail_004_kani=true&JigyosyoCd=2670916713-00&ServiceCd=780&Type=search", "url2": "http://ansin-p.jp" }, "geometry": { "type": "Point", "coordinates": [ 135.764626099999958, 34.9369156 ] } },
{ "type": "Feature", "properties": { "内容": "元源【地域密着型通所介護】京都市伏見区横大路鍬ノ本9-1", "url": "https://www.kaigokensaku.mhlw.go.jp/26/index.php?action_kouhyou_detail_004_kani=true&JigyosyoCd=2670917257-00&ServiceCd=780&Type=search", "url2": "http://www.mukaijima.jp" }, "geometry": { "type": "Point", "coordinates": [ 135.73888379999994, 34.9262943 ] } },
{ "type": "Feature", "properties": { "内容": "安心プラス下三栖【地域密着型通所介護】京都市伏見区横大路下三栖里ノ内73", "url": "https://www.kaigokensaku.mhlw.go.jp/26/index.php?action_kouhyou_detail_004_kani=true&JigyosyoCd=2690900408-00&ServiceCd=780&Type=search", "url2": "URL　http://ansin-p.jp" }, "geometry": { "type": "Point", "coordinates": [ 135.749202400000058, 34.9244973 ] } },
{ "type": "Feature", "properties": { "内容": "さくらハウス七瀬川【地域密着型通所介護】深草小久保町260・261", "url": "https://www.kaigokensaku.mhlw.go.jp/26/index.php?action_kouhyou_detail_004_kani=true&JigyosyoCd=2690900457-00&ServiceCd=780&Type=search", "url2": "http://kyoro.or.jp/" }, "geometry": { "type": "Point", "coordinates": [ 135.763112900000039, 34.9517364 ] } },
{ "type": "Feature", "properties": { "内容": "デイサービスアルクスタジオ【地域密着型通所介護】京都市伏見区醍醐構口町20-6", "url": "https://www.kaigokensaku.mhlw.go.jp/26/index.php?action_kouhyou_detail_004_kani=true&JigyosyoCd=2690900481-00&ServiceCd=780&Type=search", "url2": "https://arukusutadio.com" }, "geometry": { "type": "Point", "coordinates": [ 135.813707580356549, 34.945056686809799 ] } },
{ "type": "Feature", "properties": { "内容": "デイサービスセンター　醍醐の家ほっこり【地域密着型通所介護】京都市伏見区醍醐南里町30-1", "url": "https://www.kaigokensaku.mhlw.go.jp/26/index.php?action_kouhyou_detail_004_kani=true&JigyosyoCd=2670900618-00&ServiceCd=780&Type=search", "url2": "http://www.kyoro.or.jp" }, "geometry": { "type": "Point", "coordinates": [ 135.814835499999958, 34.9465523 ] } },
{ "type": "Feature", "properties": { "内容": "デイサービスみらい【地域密着型通所介護】醍醐落保町１－１", "url": "https://www.kaigokensaku.mhlw.go.jp/26/index.php?action_kouhyou_detail_004_kani=true&JigyosyoCd=2670916739-00&ServiceCd=780&Type=search", "url2": "http://www.kohrin.jp" }, "geometry": { "type": "Point", "coordinates": [ 135.817322481614724, 34.94734949999998 ] } },
{ "type": "Feature", "properties": { "内容": "みんなの家【地域密着型通所介護】椥辻番所ヶ口町１番地３", "url": "https://www.kaigokensaku.mhlw.go.jp/26/index.php?action_kouhyou_detail_004_kani=true&JigyosyoCd=2674100918-00&ServiceCd=780&Type=search", "url2": null }, "geometry": { "type": "Point", "coordinates": [ 135.810886100000062, 34.9709611 ] } },
{ "type": "Feature", "properties": { "内容": "山科デイサービス幸々【地域密着型通所介護】大塚中溝41-2", "url": "https://www.kaigokensaku.mhlw.go.jp/26/index.php?action_kouhyou_detail_004_kani=true&JigyosyoCd=2674100942-00&ServiceCd=780&Type=search", "url2": null }, "geometry": { "type": "Point", "coordinates": [ 135.826423299999988, 34.9809103 ] } },
{ "type": "Feature", "properties": { "内容": "きのしたデイサービス【地域密着型通所介護】京都府京都市山科区椥辻中在家町28-83", "url": "https://www.kaigokensaku.mhlw.go.jp/26/index.php?action_kouhyou_detail_004_kani=true&JigyosyoCd=2674100777-00&ServiceCd=780&Type=search", "url2": null }, "geometry": { "type": "Point", "coordinates": [ 135.821168199999988, 34.9748081 ] } },
{ "type": "Feature", "properties": { "内容": "デイサービスセンター桔梗湯【地域密着型通所介護】京都府京都市山科区大塚野溝町86-67寺田ビル1階", "url": "https://www.kaigokensaku.mhlw.go.jp/26/index.php?action_kouhyou_detail_004_kani=true&JigyosyoCd=2674101254-00&ServiceCd=780&Type=search", "url2": "http://kikyouyu.xii.jp/" }, "geometry": { "type": "Point", "coordinates": [ 135.826620100000014, 34.9827618 ] } },
{ "type": "Feature", "properties": { "内容": "リハビリデイサービス満月【地域密着型通所介護】京都府京都市山科区御陵別所町133-2エルミナラクト　１F", "url": "https://www.kaigokensaku.mhlw.go.jp/26/index.php?action_kouhyou_detail_004_kani=true&JigyosyoCd=2694100245-00&ServiceCd=780&Type=search", "url2": "http://www.mangetsu-rehabili.com/" }, "geometry": { "type": "Point", "coordinates": [ 135.808125433779537, 34.991843662107208 ] } },
{ "type": "Feature", "properties": { "内容": "はーとふるセゾン京都山科【地域密着型通所介護】竹鼻堂ノ前町40番地1ハウスセゾン京都山科", "url": "https://www.kaigokensaku.mhlw.go.jp/26/index.php?action_kouhyou_detail_004_kani=true&JigyosyoCd=2674100785-00&ServiceCd=780&Type=search", "url2": null }, "geometry": { "type": "Point", "coordinates": [ 135.817652, 34.9866372 ] } },
{ "type": "Feature", "properties": { "内容": "デイサービスすばる勧修寺【地域密着型通所介護】勧修寺瀬戸河原町１５９番地", "url": "https://www.kaigokensaku.mhlw.go.jp/26/index.php?action_kouhyou_detail_004_kani=true&JigyosyoCd=2674101080-00&ServiceCd=780&Type=search", "url2": null }, "geometry": { "type": "Point", "coordinates": [ 135.8088391, 34.9634951 ] } },
{ "type": "Feature", "properties": { "内容": "あおぞらデイサービスセンター【地域密着型通所介護】京都府京都市山科区御陵原西町3", "url": "https://www.kaigokensaku.mhlw.go.jp/26/index.php?action_kouhyou_detail_004_kani=true&JigyosyoCd=2674100959-00&ServiceCd=780&Type=search", "url2": "http:/aozora.xii.jp/" }, "geometry": { "type": "Point", "coordinates": [ 135.804495200000019, 34.9948219 ] } },
{ "type": "Feature", "properties": { "内容": "機能訓練デイサービスあいサポート【地域密着型通所介護】西野山桜ノ馬場町52-2", "url": "https://www.kaigokensaku.mhlw.go.jp/26/index.php?action_kouhyou_detail_004_kani=true&JigyosyoCd=2674100827-00&ServiceCd=780&Type=search", "url2": null }, "geometry": { "type": "Point", "coordinates": [ 135.797832100000051, 34.9677916 ] } },
{ "type": "Feature", "properties": { "内容": "たんぽぽデイサービス東野【地域密着型通所介護】東野中井ノ上町20-2", "url": "https://www.kaigokensaku.mhlw.go.jp/26/index.php?action_kouhyou_detail_004_kani=true&JigyosyoCd=2674100892-00&ServiceCd=780&Type=search", "url2": null }, "geometry": { "type": "Point", "coordinates": [ 135.821873699999969, 34.9794021 ] } },
{ "type": "Feature", "properties": { "内容": "ぐり～んデイサービス【地域密着型通所介護】京都京都市山科区椥辻東浦町7-5清涼ビル3F", "url": "https://www.kaigokensaku.mhlw.go.jp/26/index.php?action_kouhyou_detail_004_kani=true&JigyosyoCd=2674100710-00&ServiceCd=780&Type=search", "url2": null }, "geometry": { "type": "Point", "coordinates": [ 135.81602440000006, 34.9766744 ] } },
{ "type": "Feature", "properties": { "内容": "ぐり～ん２デイサービス【地域密着型通所介護】京都府京都市山科区椥辻東浦町7-5清涼ビル6F", "url": "https://www.kaigokensaku.mhlw.go.jp/26/index.php?action_kouhyou_detail_004_kani=true&JigyosyoCd=2674100835-00&ServiceCd=780&Type=search", "url2": null }, "geometry": { "type": "Point", "coordinates": [ 135.81602440000006, 34.9766744 ] } },
{ "type": "Feature", "properties": { "内容": "デイサービス歩笑夢【地域密着型通所介護】京都府京都市山科区東野中井ノ上町7番73カワナカマンション1階", "url": "https://www.kaigokensaku.mhlw.go.jp/26/index.php?action_kouhyou_detail_004_kani=true&JigyosyoCd=2674101221-00&ServiceCd=780&Type=search", "url2": null }, "geometry": { "type": "Point", "coordinates": [ 135.819068499999958, 34.9781132 ] } },
{ "type": "Feature", "properties": { "内容": "デイサービスセンターみのり【地域密着型通所介護】京都府京都市山科区大宅鳥井脇町３番地アーバンハウス１階", "url": "https://www.kaigokensaku.mhlw.go.jp/26/index.php?action_kouhyou_detail_004_kani=true&JigyosyoCd=2674100769-00&ServiceCd=780&Type=search", "url2": "http://www.eonet.ne.jp/~tsutsumi/" }, "geometry": { "type": "Point", "coordinates": [ 135.820562699999982, 34.968617200000011 ] } },
{ "type": "Feature", "properties": { "内容": "Re，Careデイサービス山科【地域密着型通所介護】大宅甲ノ辻町１グランディオス京都東1階", "url": "https://www.kaigokensaku.mhlw.go.jp/26/index.php?action_kouhyou_detail_004_kani=true&JigyosyoCd=2674100843-00&ServiceCd=780&Type=search", "url2": "https://a-a-e.jp" }, "geometry": { "type": "Point", "coordinates": [ 135.818310200000042, 34.9685199 ] } },
{ "type": "Feature", "properties": { "内容": "楽踏庵デイサービスセンター【地域密着型通所介護】京都市山科区西野八幡田町10番地1", "url": "https://www.kaigokensaku.mhlw.go.jp/26/index.php?action_kouhyou_detail_004_kani=true&JigyosyoCd=2670800388-00&ServiceCd=780&Type=search", "url2": "http://take4.net" }, "geometry": { "type": "Point", "coordinates": [ 135.805477191017047, 34.987813033014781 ] } },
{ "type": "Feature", "properties": { "内容": "デイサービスえがお【地域密着型通所介護】西野大手先町11-4", "url": "https://www.kaigokensaku.mhlw.go.jp/26/index.php?action_kouhyou_detail_004_kani=true&JigyosyoCd=2674101122-00&ServiceCd=780&Type=search", "url2": "https://egao0701.com" }, "geometry": { "type": "Point", "coordinates": [ 135.8138719, 34.98375410000002 ] } },
{ "type": "Feature", "properties": { "内容": "リハビリデイサービス雅【地域密着型通所介護】京都府京都市山科区西野山中鳥井町８１－１０", "url": "https://www.kaigokensaku.mhlw.go.jp/26/index.php?action_kouhyou_detail_004_kani=true&JigyosyoCd=2694100252-00&ServiceCd=780&Type=search", "url2": null }, "geometry": { "type": "Point", "coordinates": [ 135.801033664417986, 34.971356558128399 ] } },
{ "type": "Feature", "properties": { "内容": "NOTOS【地域密着型通所介護】京都府京都市山科区音羽草田町43-15渡辺ビル1階", "url": "https://www.kaigokensaku.mhlw.go.jp/26/index.php?action_kouhyou_detail_004_kani=true&JigyosyoCd=2694100377-00&ServiceCd=780&Type=search", "url2": "https://miyabi-otsu.amebaownd.com/" }, "geometry": { "type": "Point", "coordinates": [ 135.8279858, 34.989057 ] } },
{ "type": "Feature", "properties": { "内容": "ふくなかまデイサービスセンター【地域密着型通所介護】京都市山科区四ノ宮山田町3番地6", "url": "https://www.kaigokensaku.mhlw.go.jp/26/index.php?action_kouhyou_detail_004_kani=true&JigyosyoCd=2694100229-00&ServiceCd=780&Type=search", "url2": "http://www.fukunakama.co.jp" }, "geometry": { "type": "Point", "coordinates": [ 135.827018800000019, 34.993725 ] } },
{ "type": "Feature", "properties": { "内容": "カピラ機能訓練デイサービス【地域密着型通所介護】桂徳大寺北町11番", "url": "https://www.kaigokensaku.mhlw.go.jp/26/index.php?action_kouhyou_detail_004_kani=true&JigyosyoCd=2674000878-00&ServiceCd=780&Type=search", "url2": "http://kapira.jp/" }, "geometry": { "type": "Point", "coordinates": [ 135.705121103179863, 34.991885219195545 ] } },
{ "type": "Feature", "properties": { "内容": "デイサービスはっぴぃ【地域密着型通所介護】京都府京都市西京区大枝沓掛町２番１２クレスト桂坂１階店舗１号", "url": "https://www.kaigokensaku.mhlw.go.jp/26/index.php?action_kouhyou_detail_004_kani=true&JigyosyoCd=2694000437-00&ServiceCd=780&Type=search", "url2": "http://hp.kaipoke.biz/fa3/free1.html" }, "geometry": { "type": "Point", "coordinates": [ 135.666865, 34.9765023 ] } },
{ "type": "Feature", "properties": { "内容": "ゆびはりデイサービス【地域密着型通所介護】京都府京都市西京区大原野上里南ノ町165", "url": "https://www.kaigokensaku.mhlw.go.jp/26/index.php?action_kouhyou_detail_004_kani=true&JigyosyoCd=2694000395-00&ServiceCd=780&Type=search", "url2": "https://yubihari.com" }, "geometry": { "type": "Point", "coordinates": [ 135.6828969, 34.9511518 ] } },
{ "type": "Feature", "properties": { "内容": "デイサービスだるま【地域密着型通所介護】京都府京都市西京区大原野上里南ノ町544-3大原野坂元ビル1階", "url": "https://www.kaigokensaku.mhlw.go.jp/26/index.php?action_kouhyou_detail_004_kani=true&JigyosyoCd=2674001074-00&ServiceCd=780&Type=search", "url2": null }, "geometry": { "type": "Point", "coordinates": [ 135.691666400000031, 34.9503465 ] } },
{ "type": "Feature", "properties": { "内容": "カピラ機能訓練デイサービス【地域密着型通所介護】京都市西京区桂徳大寺北町11番地", "url": "https://www.kaigokensaku.mhlw.go.jp/26/index.php?action_kouhyou_detail_004_kani=true&JigyosyoCd=2694000452-00&ServiceCd=780&Type=search", "url2": null }, "geometry": { "type": "Point", "coordinates": [ 135.705126299999989, 34.991864 ] } },
{ "type": "Feature", "properties": { "内容": "デイサービスこのみ樫原【地域密着型通所介護】京都市西京区樫原平田町15-8", "url": "https://www.kaigokensaku.mhlw.go.jp/26/index.php?action_kouhyou_detail_004_kani=true&JigyosyoCd=2694000312-00&ServiceCd=780&Type=search", "url2": "http://hp.kaipoke.biz/tv2/" }, "geometry": { "type": "Point", "coordinates": [ 135.693699761376934, 34.973074778757038 ] } },
{ "type": "Feature", "properties": { "内容": "ゆうらくデイサービス【地域密着型通所介護】京都府京都市西京区上桂東ノ口町１５９番地ラ・セーヌ桂１階", "url": "https://www.kaigokensaku.mhlw.go.jp/26/index.php?action_kouhyou_detail_004_kani=true&JigyosyoCd=2694000239-00&ServiceCd=780&Type=search", "url2": null }, "geometry": { "type": "Point", "coordinates": [ 135.704756499999974, 34.9878072 ] } },
{ "type": "Feature", "properties": { "内容": "デイサービスセンター境谷元気館【地域密着型通所介護】京都府京都市西京区大原野西境谷町2-14-8", "url": "https://www.kaigokensaku.mhlw.go.jp/26/index.php?action_kouhyou_detail_004_kani=true&JigyosyoCd=2674000902-00&ServiceCd=780&Type=search", "url2": "ds-genkikan.com" }, "geometry": { "type": "Point", "coordinates": [ 135.669129399999946, 34.9622924 ] } },
{ "type": "Feature", "properties": { "内容": "デイサービスセンターわかがえり【地域密着型通所介護】京都市西京区上桂北村町２５９", "url": "https://www.kaigokensaku.mhlw.go.jp/26/index.php?action_kouhyou_detail_004_kani=true&JigyosyoCd=2674000928-00&ServiceCd=780&Type=search", "url2": null }, "geometry": { "type": "Point", "coordinates": [ 135.701730640475489, 34.991287426293844 ] } },
{ "type": "Feature", "properties": { "内容": "デイサービスセンター福西元気館【地域密着型通所介護】京都市西京区大枝東長町2-3クロスオーバービル1階", "url": "https://www.kaigokensaku.mhlw.go.jp/26/index.php?action_kouhyou_detail_004_kani=true&JigyosyoCd=2694000247-00&ServiceCd=780&Type=search", "url2": "ds-genkikan.com" }, "geometry": { "type": "Point", "coordinates": [ 135.677329135582028, 34.965160900824898 ] } },
{ "type": "Feature", "properties": { "内容": "デイサービスセンター千代原口元気館【地域密着型通所介護】御陵溝浦町21-1ムーンヒルズ蘭1階", "url": "https://www.kaigokensaku.mhlw.go.jp/26/index.php?action_kouhyou_detail_004_kani=true&JigyosyoCd=2694000429-00&ServiceCd=780&Type=search", "url2": "ds-genkikan.com" }, "geometry": { "type": "Point", "coordinates": [ 135.6936998, 34.9800953 ] } },
{ "type": "Feature", "properties": { "内容": "株式会社　デイサービスセンター元気館【地域密着型通所介護】京都市西京区桂坤町５０－２２", "url": "https://www.kaigokensaku.mhlw.go.jp/26/index.php?action_kouhyou_detail_004_kani=true&JigyosyoCd=2674000605-00&ServiceCd=780&Type=search", "url2": "ds-genkikan.com" }, "geometry": { "type": "Point", "coordinates": [ 135.694377799999984, 34.9800993 ] } },
{ "type": "Feature", "properties": { "内容": "デイサービス早稲田イーライフ京都【地域密着型通所介護】京都市西京区桂上野中町247白樺荘101", "url": "https://www.kaigokensaku.mhlw.go.jp/26/index.php?action_kouhyou_detail_004_kani=true&JigyosyoCd=2674000589-00&ServiceCd=780&Type=search", "url2": "http://www.e-life-kyoto.com" }, "geometry": { "type": "Point", "coordinates": [ 135.701588300000026, 34.9954646 ] } },
{ "type": "Feature", "properties": { "内容": "葉音デイサービス【地域密着型通所介護】京都府京都市西京区山田箱塚町28番地135", "url": "https://www.kaigokensaku.mhlw.go.jp/26/index.php?action_kouhyou_detail_004_kani=true&JigyosyoCd=2674000993-00&ServiceCd=780&Type=search", "url2": "http://hp.kaipoke.biz/py3/" }, "geometry": { "type": "Point", "coordinates": [ 135.686020099999951, 34.9852738 ] } },
{ "type": "Feature", "properties": { "内容": "デイサービス早稲田イーライフ桂【地域密着型通所介護】京都市西京区桂朝日町151", "url": "https://www.kaigokensaku.mhlw.go.jp/26/index.php?action_kouhyou_detail_004_kani=true&JigyosyoCd=2694000189-00&ServiceCd=780&Type=search", "url2": "http://www.e-life-kyoto.com" }, "geometry": { "type": "Point", "coordinates": [ 135.71072059844937, 34.979838769051717 ] } },
{ "type": "Feature", "properties": { "内容": "おうち・デイサービス・大枝【地域密着型通所介護】京都府京都市西京区大枝塚原町1番地61", "url": "https://www.kaigokensaku.mhlw.go.jp/26/index.php?action_kouhyou_detail_004_kani=true&JigyosyoCd=2694000221-00&ServiceCd=780&Type=search", "url2": "https://www.seijitsukikaku.com/" }, "geometry": { "type": "Point", "coordinates": [ 135.6694738, 34.9757441 ] } },
{ "type": "Feature", "properties": { "内容": "エバー桂　フィットネスデイサービス【地域密着型通所介護】川島寺田町１８－３タナカビル１階", "url": "https://www.kaigokensaku.mhlw.go.jp/26/index.php?action_kouhyou_detail_004_kani=true&JigyosyoCd=2674000829-00&ServiceCd=780&Type=search", "url2": null }, "geometry": { "type": "Point", "coordinates": [ 135.701832700000068, 34.9766024 ] } },
{ "type": "Feature", "properties": { "内容": "エバー洛西センター　フィットネスデイサービス【地域密着型通所介護】京都市西京区大原野東境谷町２－５－９洛西センタービル５０６号", "url": "https://www.kaigokensaku.mhlw.go.jp/26/index.php?action_kouhyou_detail_004_kani=true&JigyosyoCd=2674001041-00&ServiceCd=780&Type=search", "url2": null }, "geometry": { "type": "Point", "coordinates": [ 135.675276199999985, 34.963509 ] } },
{ "type": "Feature", "properties": { "内容": "春花デイサービス【地域密着型通所介護】京都府京都市西京区桂上野西町284", "url": "https://www.kaigokensaku.mhlw.go.jp/26/index.php?action_kouhyou_detail_004_kani=true&JigyosyoCd=2694000445-00&ServiceCd=780&Type=search", "url2": null }, "geometry": { "type": "Point", "coordinates": [ 135.6997189, 34.9957841 ] } },
{ "type": "Feature", "properties": { "内容": "南風デイサービスセンター【地域密着型通所介護】京都府福知山市駅南町2丁目265番地", "url": "https://www.kaigokensaku.mhlw.go.jp/26/index.php?action_kouhyou_detail_004_kani=true&JigyosyoCd=2672600596-00&ServiceCd=780&Type=search", "url2": "http://hp.kaipoke.biz/z5n/" }, "geometry": { "type": "Point", "coordinates": [ 135.118086299999987, 35.2928231 ] } },
{ "type": "Feature", "properties": { "内容": "フィットネス型デイサービスえむずケア【地域密着型通所介護】京都府福知山市篠尾新町１丁目７５番地グランコート篠尾新町1Ｆ", "url": "https://www.kaigokensaku.mhlw.go.jp/26/index.php?action_kouhyou_detail_004_kani=true&JigyosyoCd=2692600253-00&ServiceCd=780&Type=search", "url2": "https://emuzu-care.jp/" }, "geometry": { "type": "Point", "coordinates": [ 135.112994059524539, 35.298816703514674 ] } },
{ "type": "Feature", "properties": { "内容": "リハビリデイサービスたけのこ福知山店【地域密着型通所介護】篠尾新町２丁目８５番地", "url": "https://www.kaigokensaku.mhlw.go.jp/26/index.php?action_kouhyou_detail_004_kani=true&JigyosyoCd=2672600638-00&ServiceCd=780&Type=search", "url2": "https://takenoko-rd.jp/" }, "geometry": { "type": "Point", "coordinates": [ 135.113863189549221, 35.301596802160894 ] } },
{ "type": "Feature", "properties": { "内容": "デイサービス　プラトー【地域密着型通所介護】京都府福知山市土師新町２丁目８６番地の２", "url": "https://www.kaigokensaku.mhlw.go.jp/26/index.php?action_kouhyou_detail_004_kani=true&JigyosyoCd=2672600521-00&ServiceCd=780&Type=search", "url2": null }, "geometry": { "type": "Point", "coordinates": [ 135.146165041000387, 35.288675265916154 ] } },
{ "type": "Feature", "properties": { "内容": "デイサービス粋生俱楽部　舞鶴【地域密着型通所介護】寺内88", "url": "https://www.kaigokensaku.mhlw.go.jp/26/index.php?action_kouhyou_detail_004_kani=true&JigyosyoCd=2672700578-00&ServiceCd=780&Type=search", "url2": null }, "geometry": { "type": "Point", "coordinates": [ 135.324689799999987, 35.4505976 ] } },
{ "type": "Feature", "properties": { "内容": "医療法人社団　外松医院　　ハーモニーデイサービスセンター【地域密着型通所介護】京都府舞鶴市字竹屋98-1", "url": "https://www.kaigokensaku.mhlw.go.jp/26/index.php?action_kouhyou_detail_004_kani=true&JigyosyoCd=2692700020-00&ServiceCd=780&Type=search", "url2": null }, "geometry": { "type": "Point", "coordinates": [ 135.326486599999953, 35.4505158 ] } },
{ "type": "Feature", "properties": { "内容": "デイサービスセンターふれあい【地域密着型通所介護】京都府舞鶴市字平小字堂ヶ角1558番地1", "url": "https://www.kaigokensaku.mhlw.go.jp/26/index.php?action_kouhyou_detail_004_kani=true&JigyosyoCd=2672700271-00&ServiceCd=780&Type=search", "url2": null }, "geometry": { "type": "Point", "coordinates": [ 135.394698250462397, 35.517785982950578 ] } },
{ "type": "Feature", "properties": { "内容": "みぢかなデイサービス田園【地域密着型通所介護】京都府舞鶴市字志高５５３番地の5", "url": "https://www.kaigokensaku.mhlw.go.jp/26/index.php?action_kouhyou_detail_004_kani=true&JigyosyoCd=2672700487-00&ServiceCd=780&Type=search", "url2": null }, "geometry": { "type": "Point", "coordinates": [ 135.250894296337947, 35.435609719908165 ] } },
{ "type": "Feature", "properties": { "内容": "リハプライド　西舞鶴【地域密着型通所介護】京都府舞鶴市字京田63番地", "url": "https://www.kaigokensaku.mhlw.go.jp/26/index.php?action_kouhyou_detail_004_kani=true&JigyosyoCd=2672700495-00&ServiceCd=780&Type=search", "url2": "http://www.lets-club.com/nishimaizuru/" }, "geometry": { "type": "Point", "coordinates": [ 135.3281591, 35.4268548 ] } },
{ "type": "Feature", "properties": { "内容": "医療法人弘愛会西村内科デイサービスさくらプラザ【地域密着型通所介護】舞鶴市倉梯中町3番地の2", "url": "https://www.kaigokensaku.mhlw.go.jp/26/index.php?action_kouhyou_detail_004_kani=true&JigyosyoCd=2672700313-00&ServiceCd=780&Type=search", "url2": "http://www.eonet.ne.jp/~sakuraplaza/" }, "geometry": { "type": "Point", "coordinates": [ 135.395702300000039, 35.4614793 ] } },
{ "type": "Feature", "properties": { "内容": "医療法人社団外松医院　ハーモニーデイサービスセンター【地域密着型通所介護】京都府舞鶴市字竹屋98-1", "url": "https://www.kaigokensaku.mhlw.go.jp/26/index.php?action_kouhyou_detail_004_kani=true&JigyosyoCd=2692700210-00&ServiceCd=780&Type=search", "url2": null }, "geometry": { "type": "Point", "coordinates": [ 135.3266044, 35.4504781 ] } },
{ "type": "Feature", "properties": { "内容": "うえすぎ松寿苑デイサービスセンター【地域密着型通所介護】京都府綾部市上杉町花ノ木2番地３", "url": "https://www.kaigokensaku.mhlw.go.jp/26/index.php?action_kouhyou_detail_004_kani=true&JigyosyoCd=2691800227-00&ServiceCd=780&Type=search", "url2": "https://ayabe-shojuen.com/" }, "geometry": { "type": "Point", "coordinates": [ 135.31504240000001, 35.3553048 ] } },
{ "type": "Feature", "properties": { "内容": "ミストラル活き活きクラブ【地域密着型通所介護】京都府綾部市広小路二丁目12-1", "url": "https://www.kaigokensaku.mhlw.go.jp/26/index.php?action_kouhyou_detail_004_kani=true&JigyosyoCd=2691800235-00&ServiceCd=780&Type=search", "url2": "https://mistralservice.co.jp/" }, "geometry": { "type": "Point", "coordinates": [ 135.2541347, 35.2996908 ] } },
{ "type": "Feature", "properties": { "内容": "地域密着型通所介護事業所けんさぽ【地域密着型通所介護】京都府綾部市神宮寺町西谷２２", "url": "https://www.kaigokensaku.mhlw.go.jp/26/index.php?action_kouhyou_detail_004_kani=true&JigyosyoCd=2691800177-00&ServiceCd=780&Type=search", "url2": "http://kenkousapo-to.com" }, "geometry": { "type": "Point", "coordinates": [ 135.2516215, 35.2990407 ] } },
{ "type": "Feature", "properties": { "内容": "リハプライド綾部【地域密着型通所介護】京都府綾部市並松町上溝口２８番地７", "url": "https://www.kaigokensaku.mhlw.go.jp/26/index.php?action_kouhyou_detail_004_kani=true&JigyosyoCd=2691800219-00&ServiceCd=780&Type=search", "url2": "www.rehapride.co.jp/ayabe/" }, "geometry": { "type": "Point", "coordinates": [ 135.2632307, 35.2964115 ] } },
{ "type": "Feature", "properties": { "内容": "デイサービスプラトーあやべ【地域密着型通所介護】高津町１番地の５", "url": "https://www.kaigokensaku.mhlw.go.jp/26/index.php?action_kouhyou_detail_004_kani=true&JigyosyoCd=2671800247-00&ServiceCd=780&Type=search", "url2": null }, "geometry": { "type": "Point", "coordinates": [ 135.400476199999957, 34.4977608 ] } },
{ "type": "Feature", "properties": { "内容": "みどり機能訓練デイサービスセンター【地域密着型通所介護】槇島町南落合56番地1", "url": "https://www.kaigokensaku.mhlw.go.jp/26/index.php?action_kouhyou_detail_004_kani=true&JigyosyoCd=2671200786-00&ServiceCd=780&Type=search", "url2": null }, "geometry": { "type": "Point", "coordinates": [ 135.777512430619026, 34.905765572341515 ] } },
{ "type": "Feature", "properties": { "内容": "みむろどデイサービス【地域密着型通所介護】京都府宇治市菟道藪里41コスモウィング宇治101号", "url": "https://www.kaigokensaku.mhlw.go.jp/26/index.php?action_kouhyou_detail_004_kani=true&JigyosyoCd=2671200745-00&ServiceCd=780&Type=search", "url2": null }, "geometry": { "type": "Point", "coordinates": [ 135.808281900724779, 34.90152384979033 ] } },
{ "type": "Feature", "properties": { "内容": "機能訓練型デイサービス　喜楽縁【地域密着型通所介護】京都府宇治市神明宮北22番地の18北川ビル1階", "url": "https://www.kaigokensaku.mhlw.go.jp/26/index.php?action_kouhyou_detail_004_kani=true&JigyosyoCd=2691200170-00&ServiceCd=780&Type=search", "url2": null }, "geometry": { "type": "Point", "coordinates": [ 135.78950020000002, 34.8796222 ] } },
{ "type": "Feature", "properties": { "内容": "ひかり倶楽部【地域密着型通所介護】宇治市広野町桐生谷46-1", "url": "https://www.kaigokensaku.mhlw.go.jp/26/index.php?action_kouhyou_detail_004_kani=true&JigyosyoCd=2671200323-00&ServiceCd=780&Type=search", "url2": "http://www.snservice.jp" }, "geometry": { "type": "Point", "coordinates": [ 135.78367860000003, 34.8776196 ] } },
{ "type": "Feature", "properties": { "内容": "デイサービスセンターわっはっは神明【地域密着型通所介護】神明石塚25-21株式会社オールウェーズ", "url": "https://www.kaigokensaku.mhlw.go.jp/26/index.php?action_kouhyou_detail_004_kani=true&JigyosyoCd=2671200620-00&ServiceCd=780&Type=search", "url2": "http://care-net.biz/26/wahhahha1088/" }, "geometry": { "type": "Point", "coordinates": [ 135.790296301851754, 34.88293966901783 ] } },
{ "type": "Feature", "properties": { "内容": "あすみるデイサービス小倉【地域密着型通所介護】宇治市小倉町天王37-1", "url": "https://www.kaigokensaku.mhlw.go.jp/26/index.php?action_kouhyou_detail_004_kani=true&JigyosyoCd=2671200612-00&ServiceCd=780&Type=search", "url2": "http://www.jusei.gr.jp/akia/asumiru/" }, "geometry": { "type": "Point", "coordinates": [ 135.785104377820801, 34.894550893022881 ] } },
{ "type": "Feature", "properties": { "内容": "デイサービスリハとも【地域密着型通所介護】京都府宮津市字宮村1200-1", "url": "https://www.kaigokensaku.mhlw.go.jp/26/index.php?action_kouhyou_detail_004_kani=true&JigyosyoCd=2672100183-00&ServiceCd=780&Type=search", "url2": "http://rihatomo.com/" }, "geometry": { "type": "Point", "coordinates": [ 135.197052809895354, 35.529700684132415 ] } },
{ "type": "Feature", "properties": { "内容": "Re-style通所介護事業所【地域密着型通所介護】京都府宮津市字鶴賀2061番地の16", "url": "https://www.kaigokensaku.mhlw.go.jp/26/index.php?action_kouhyou_detail_004_kani=true&JigyosyoCd=2692100056-00&ServiceCd=780&Type=search", "url2": "http://www.hokuseikai.or.jp" }, "geometry": { "type": "Point", "coordinates": [ 135.1991223, 35.5362049 ] } },
{ "type": "Feature", "properties": { "内容": "吉笑庵デイサービス宮津【地域密着型通所介護】京都府宮津市字須津５２５番地１", "url": "https://www.kaigokensaku.mhlw.go.jp/26/index.php?action_kouhyou_detail_004_kani=true&JigyosyoCd=2672100159-00&ServiceCd=780&Type=search", "url2": null }, "geometry": { "type": "Point", "coordinates": [ 135.150551793362411, 35.551705954213531 ] } },
{ "type": "Feature", "properties": { "内容": "あおぞらリハビリデイサービスセンター【地域密着型通所介護】京都府亀岡市西つつじヶ丘五月台１丁目24-1", "url": "https://www.kaigokensaku.mhlw.go.jp/26/index.php?action_kouhyou_detail_004_kani=true&JigyosyoCd=2691600122-00&ServiceCd=780&Type=search", "url2": null }, "geometry": { "type": "Point", "coordinates": [ 135.369686699999988, 34.8290981 ] } },
{ "type": "Feature", "properties": { "内容": "あおばデイサービスセンター【地域密着型通所介護】京都府亀岡市三宅町２丁目１０－５", "url": "https://www.kaigokensaku.mhlw.go.jp/26/index.php?action_kouhyou_detail_004_kani=true&JigyosyoCd=2671600472-00&ServiceCd=780&Type=search", "url2": "https://care-net.biz/26/aoba1205/b16.php" }, "geometry": { "type": "Point", "coordinates": [ 135.590090420237715, 35.005823730196816 ] } },
{ "type": "Feature", "properties": { "内容": "リハビリデイサービスいろは【地域密着型通所介護】京都府亀岡市馬路町流川1０", "url": "https://www.kaigokensaku.mhlw.go.jp/26/index.php?action_kouhyou_detail_004_kani=true&JigyosyoCd=2671600563-00&ServiceCd=780&Type=search", "url2": null }, "geometry": { "type": "Point", "coordinates": [ 135.562054499999988, 35.0549078 ] } },
{ "type": "Feature", "properties": { "内容": "亀岡園デイサービスセンター【地域密着型通所介護】亀岡市河原林町河原尻上砂股100", "url": "https://www.kaigokensaku.mhlw.go.jp/26/index.php?action_kouhyou_detail_004_kani=true&JigyosyoCd=2671600043-00&ServiceCd=780&Type=search", "url2": "http://www.rishoukai.com" }, "geometry": { "type": "Point", "coordinates": [ 135.574125929499786, 35.049009544137597 ] } },
{ "type": "Feature", "properties": { "内容": "デイサービスセンター　百歳倶楽部【地域密着型通所介護】京都府城陽市寺田水度坂15-304", "url": "https://www.kaigokensaku.mhlw.go.jp/26/index.php?action_kouhyou_detail_004_kani=true&JigyosyoCd=2672800337-00&ServiceCd=780&Type=search", "url2": null }, "geometry": { "type": "Point", "coordinates": [ 135.78282100955218, 34.854895977497208 ] } },
{ "type": "Feature", "properties": { "内容": "デイサ－ビスはる【地域密着型通所介護】京都府城陽市富野堀口83番地71", "url": "https://www.kaigokensaku.mhlw.go.jp/26/index.php?action_kouhyou_detail_004_kani=true&JigyosyoCd=2672800402-00&ServiceCd=780&Type=search", "url2": null }, "geometry": { "type": "Point", "coordinates": [ 135.7828327, 34.8371634 ] } },
{ "type": "Feature", "properties": { "内容": "社会福祉法人和光会デイサービスセンター梅林園【地域密着型通所介護】京都府城陽市中芦原55番地", "url": "https://www.kaigokensaku.mhlw.go.jp/26/index.php?action_kouhyou_detail_004_kani=true&JigyosyoCd=2672800071-00&ServiceCd=780&Type=search", "url2": "https://bairinen.jp/" }, "geometry": { "type": "Point", "coordinates": [ 135.8174816, 34.8326675 ] } },
{ "type": "Feature", "properties": { "内容": "デイサービス友愛【地域密着型通所介護】京都府城陽市市辺中垣内４番地", "url": "https://www.kaigokensaku.mhlw.go.jp/26/index.php?action_kouhyou_detail_004_kani=true&JigyosyoCd=2672800147-00&ServiceCd=780&Type=search", "url2": "http://uikaigo.sakura.ne.jp" }, "geometry": { "type": "Point", "coordinates": [ 135.804880200000071, 34.8252306 ] } },
{ "type": "Feature", "properties": { "内容": "通所介護事業所ほほえみの里【地域密着型通所介護】京都府城陽市枇杷庄大堀94番地", "url": "https://www.kaigokensaku.mhlw.go.jp/26/index.php?action_kouhyou_detail_004_kani=true&JigyosyoCd=2672800154-00&ServiceCd=780&Type=search", "url2": null }, "geometry": { "type": "Point", "coordinates": [ 135.770123, 34.8366378 ] } },
{ "type": "Feature", "properties": { "内容": "デイサービスゆうあい寺田【地域密着型通所介護】城陽市寺田乾出北４５番地", "url": "https://www.kaigokensaku.mhlw.go.jp/26/index.php?action_kouhyou_detail_004_kani=true&JigyosyoCd=2672800287-00&ServiceCd=780&Type=search", "url2": "https://uihm.jp/" }, "geometry": { "type": "Point", "coordinates": [ 135.770263699999987, 34.8560801 ] } },
{ "type": "Feature", "properties": { "内容": "ビーンズリハビリデイサービス【地域密着型通所介護】上植野町北淀井5-12", "url": "https://www.kaigokensaku.mhlw.go.jp/26/index.php?action_kouhyou_detail_004_kani=true&JigyosyoCd=2673100265-00&ServiceCd=780&Type=search", "url2": "ｂeans-muko.com" }, "geometry": { "type": "Point", "coordinates": [ 135.713097299999959, 34.9326238 ] } },
{ "type": "Feature", "properties": { "内容": "医療法人村西医院　デイサービスセンター【地域密着型通所介護】京都府長岡京市神足七ノ坪１１", "url": "https://www.kaigokensaku.mhlw.go.jp/26/index.php?action_kouhyou_detail_004_kani=true&JigyosyoCd=2673000085-00&ServiceCd=780&Type=search", "url2": null }, "geometry": { "type": "Point", "coordinates": [ 135.710819600000036, 34.9204529 ] } },
{ "type": "Feature", "properties": { "内容": "デイサービスこもれび【地域密着型通所介護】友岡4丁目3番18号ニューコーポヤスダ　103", "url": "https://www.kaigokensaku.mhlw.go.jp/26/index.php?action_kouhyou_detail_004_kani=true&JigyosyoCd=2673000317-00&ServiceCd=780&Type=search", "url2": null }, "geometry": { "type": "Point", "coordinates": [ 135.690688799999947, 34.9158829 ] } },
{ "type": "Feature", "properties": { "内容": "笑顔リハぷらす　長岡今里店【地域密着型通所介護】今里彦林6-1", "url": "https://www.kaigokensaku.mhlw.go.jp/26/index.php?action_kouhyou_detail_004_kani=true&JigyosyoCd=2693000164-00&ServiceCd=780&Type=search", "url2": "http://www.smilelink15.com" }, "geometry": { "type": "Point", "coordinates": [ 135.68569709999997, 34.935556 ] } },
{ "type": "Feature", "properties": { "内容": "京都ひまわり園【地域密着型通所介護】京都府八幡市八幡清水井31番地", "url": "https://www.kaigokensaku.mhlw.go.jp/26/index.php?action_kouhyou_detail_004_kani=true&JigyosyoCd=2692900083-00&ServiceCd=780&Type=search", "url2": "http://ws-kyoto.jp" }, "geometry": { "type": "Point", "coordinates": [ 135.7012244, 34.8716441 ] } },
{ "type": "Feature", "properties": { "内容": "デイサービス　いちご【地域密着型通所介護】京都府京田辺市薪山垣外1-33", "url": "https://www.kaigokensaku.mhlw.go.jp/26/index.php?action_kouhyou_detail_004_kani=true&JigyosyoCd=2673200321-00&ServiceCd=780&Type=search", "url2": "http://www.day-ichigo.jp" }, "geometry": { "type": "Point", "coordinates": [ 135.756481600000029, 34.8181141 ] } },
{ "type": "Feature", "properties": { "内容": "デイサービスセンター　リエゾン健康村【地域密着型通所介護】京都府京田辺市大住大坪55－14", "url": "https://www.kaigokensaku.mhlw.go.jp/26/index.php?action_kouhyou_detail_004_kani=true&JigyosyoCd=2673200297-00&ServiceCd=780&Type=search", "url2": "http://www.kyoto-keishinkai.or.jp" }, "geometry": { "type": "Point", "coordinates": [ 135.7571815, 34.8305658 ] } },
{ "type": "Feature", "properties": { "内容": "常磐苑デイサービスセンター【地域密着型通所介護】京都府京田辺市草内五ノ坪6番地", "url": "https://www.kaigokensaku.mhlw.go.jp/26/index.php?action_kouhyou_detail_004_kani=true&JigyosyoCd=2673200115-00&ServiceCd=780&Type=search", "url2": "http://www.kyotanabesyakyou.com" }, "geometry": { "type": "Point", "coordinates": [ 135.782910500000071, 34.8066818 ] } },
{ "type": "Feature", "properties": { "内容": "デイサービス　おりーぶ【地域密着型通所介護】京都府京田辺市宮津宮ノ下７番地１０", "url": "https://www.kaigokensaku.mhlw.go.jp/26/index.php?action_kouhyou_detail_004_kani=true&JigyosyoCd=2693200079-00&ServiceCd=780&Type=search", "url2": "http://hp.kaipoke.biz/wu2/" }, "geometry": { "type": "Point", "coordinates": [ 139.0589836, 35.2414492 ] } },
{ "type": "Feature", "properties": { "内容": "デイサロンのんののんな【地域密着型通所介護】大宮町河辺1050tangoミモザ館", "url": "https://www.kaigokensaku.mhlw.go.jp/26/index.php?action_kouhyou_detail_004_kani=true&JigyosyoCd=2673300220-00&ServiceCd=780&Type=search", "url2": "https://tango-nonno-nonna.com/" }, "geometry": { "type": "Point", "coordinates": [ 135.091637860996968, 35.59431776771676 ] } },
{ "type": "Feature", "properties": { "内容": "でんでん倶楽部峰山【地域密着型通所介護】京都府京丹後市峰山町新町2462-2", "url": "https://www.kaigokensaku.mhlw.go.jp/26/index.php?action_kouhyou_detail_004_kani=true&JigyosyoCd=2693300184-00&ServiceCd=780&Type=search", "url2": "https://www.godai.net/denden-club/index.html" }, "geometry": { "type": "Point", "coordinates": [ 135.0818825, 35.6092129 ] } },
{ "type": "Feature", "properties": { "内容": "総合老人福祉施設弥栄はごろも苑【地域密着型通所介護】京丹後市弥栄町溝谷３５２４", "url": "https://www.kaigokensaku.mhlw.go.jp/26/index.php?action_kouhyou_detail_004_kani=true&JigyosyoCd=2673300162-00&ServiceCd=780&Type=search", "url2": "http://www.mineyama-fukusikai.jp" }, "geometry": { "type": "Point", "coordinates": [ 135.089036299999947, 35.6613339 ] } },
{ "type": "Feature", "properties": { "内容": "株式会社　Lukomoco【地域密着型通所介護】京都府京丹後市峰山町長岡738--7", "url": "https://www.kaigokensaku.mhlw.go.jp/26/index.php?action_kouhyou_detail_004_kani=true&JigyosyoCd=2693300234-00&ServiceCd=780&Type=search", "url2": null }, "geometry": { "type": "Point", "coordinates": [ 135.0623051, 35.6082027 ] } },
{ "type": "Feature", "properties": { "内容": "吉笑庵デイサービス峰山【地域密着型通所介護】京丹後市峰山町御旅２９番地", "url": "https://www.kaigokensaku.mhlw.go.jp/26/index.php?action_kouhyou_detail_004_kani=true&JigyosyoCd=2673300261-00&ServiceCd=780&Type=search", "url2": "https://t-kichihou.com/" }, "geometry": { "type": "Point", "coordinates": [ 135.058508800000027, 35.621629699999986 ] } },
{ "type": "Feature", "properties": { "内容": "リハ・すぎけん【地域密着型通所介護】京都府京丹後市大宮町三坂129-1", "url": "https://www.kaigokensaku.mhlw.go.jp/26/index.php?action_kouhyou_detail_004_kani=true&JigyosyoCd=2693300218-00&ServiceCd=780&Type=search", "url2": "https://sugiken.jp/" }, "geometry": { "type": "Point", "coordinates": [ 135.0994272, 35.5778436 ] } },
{ "type": "Feature", "properties": { "内容": "デイサービスふれあい本町【地域密着型通所介護】南丹市園部町本町33番地", "url": "https://www.kaigokensaku.mhlw.go.jp/26/index.php?action_kouhyou_detail_004_kani=true&JigyosyoCd=2673400160-00&ServiceCd=780&Type=search", "url2": "https://fureaihonmachi.jp/" }, "geometry": { "type": "Point", "coordinates": [ 135.472273816567622, 35.110690410956643 ] } },
{ "type": "Feature", "properties": { "内容": "NISのぞみトレーニングデイ【地域密着型通所介護】京都府南丹市八木町八木西町裏52-1", "url": "https://www.kaigokensaku.mhlw.go.jp/26/index.php?action_kouhyou_detail_004_kani=true&JigyosyoCd=2673400129-00&ServiceCd=780&Type=search", "url2": null }, "geometry": { "type": "Point", "coordinates": [ 135.535172793392945, 35.068356331797162 ] } },
{ "type": "Feature", "properties": { "内容": "デイサービスふれあいハート【地域密着型通所介護】京都府南丹市園部町本町62萌え木", "url": "https://www.kaigokensaku.mhlw.go.jp/26/index.php?action_kouhyou_detail_004_kani=true&JigyosyoCd=2673400103-00&ServiceCd=780&Type=search", "url2": "http://www.fureai-heart.jp/" }, "geometry": { "type": "Point", "coordinates": [ 135.47344529999998, 35.11051 ] } },
{ "type": "Feature", "properties": { "内容": "ケアリング　みそのまち【地域密着型通所介護】京都府南丹市園部町美園町4号1番", "url": "https://www.kaigokensaku.mhlw.go.jp/26/index.php?action_kouhyou_detail_004_kani=true&JigyosyoCd=2693400075-00&ServiceCd=780&Type=search", "url2": "www.care-ring.com" }, "geometry": { "type": "Point", "coordinates": [ 135.472507, 35.1082582 ] } },
{ "type": "Feature", "properties": { "内容": "ＮＰＯ法人ディハウスほっこり【地域密着型通所介護】京都府南丹市八木町八木東久保20-3", "url": "https://www.kaigokensaku.mhlw.go.jp/26/index.php?action_kouhyou_detail_004_kani=true&JigyosyoCd=2673400061-00&ServiceCd=780&Type=search", "url2": null }, "geometry": { "type": "Point", "coordinates": [ 135.532440700000052, 35.0717977 ] } },
{ "type": "Feature", "properties": { "内容": "はぎの里デイサービスセンター【地域密着型通所介護】京都府南丹市日吉町胡麻萩原15番地", "url": "https://www.kaigokensaku.mhlw.go.jp/26/index.php?action_kouhyou_detail_004_kani=true&JigyosyoCd=2693400059-00&ServiceCd=780&Type=search", "url2": "http://web1.kcn.jp/haginosato" }, "geometry": { "type": "Point", "coordinates": [ 135.486068899999964, 35.1841019 ] } },
{ "type": "Feature", "properties": { "内容": "Sukku【地域密着型通所介護】京都府南丹市園部町美園町4号16番地３８", "url": "https://www.kaigokensaku.mhlw.go.jp/26/index.php?action_kouhyou_detail_004_kani=true&JigyosyoCd=2693400067-00&ServiceCd=780&Type=search", "url2": null }, "geometry": { "type": "Point", "coordinates": [ 135.473276, 35.107377 ] } },
{ "type": "Feature", "properties": { "内容": "美山こぶしの里デイサービスセンター【地域密着型通所介護】京都府南丹市美山町高野素崎１４－２", "url": "https://www.kaigokensaku.mhlw.go.jp/26/index.php?action_kouhyou_detail_004_kani=true&JigyosyoCd=2693400117-00&ServiceCd=780&Type=search", "url2": "http://www.nananokai.com/" }, "geometry": { "type": "Point", "coordinates": [ 135.554737395114273, 35.301724883770774 ] } },
{ "type": "Feature", "properties": { "内容": "デイサービスセンターあおぞら【地域密着型通所介護】京都府南丹市八木町大藪穴ノ口7番地2", "url": "https://www.kaigokensaku.mhlw.go.jp/26/index.php?action_kouhyou_detail_004_kani=true&JigyosyoCd=2693400083-00&ServiceCd=780&Type=search", "url2": "https://aozora-nantan.com" }, "geometry": { "type": "Point", "coordinates": [ 135.521216, 35.078202 ] } },
{ "type": "Feature", "properties": { "内容": "デイサービスふるふる【地域密着型通所介護】京都府木津川市州見台七丁目１番地１", "url": "https://www.kaigokensaku.mhlw.go.jp/26/index.php?action_kouhyou_detail_004_kani=true&JigyosyoCd=2671400303-00&ServiceCd=780&Type=search", "url2": "https://seven-ph.co.jp/pages/daycarecenter" }, "geometry": { "type": "Point", "coordinates": [ 135.821211700000049, 34.7153642 ] } },
{ "type": "Feature", "properties": { "内容": "福丸デイサービスセンター【地域密着型通所介護】京都府木津川市城山台10丁目１６－９", "url": "https://www.kaigokensaku.mhlw.go.jp/26/index.php?action_kouhyou_detail_004_kani=true&JigyosyoCd=2673500175-00&ServiceCd=780&Type=search", "url2": "fukumaru-kaigo.com" }, "geometry": { "type": "Point", "coordinates": [ 135.8325405, 34.7272564 ] } },
{ "type": "Feature", "properties": { "内容": "リスタデイサービス木津川【地域密着型通所介護】京都府木津川市州見台七丁目1-1", "url": "https://www.kaigokensaku.mhlw.go.jp/26/index.php?action_kouhyou_detail_004_kani=true&JigyosyoCd=2693500106-00&ServiceCd=780&Type=search", "url2": "https://hp.kaipoke.biz/y06/" }, "geometry": { "type": "Point", "coordinates": [ 135.8211887, 34.715378 ] } },
{ "type": "Feature", "properties": { "内容": "デイサービスセンターみかのはら【地域密着型通所介護】京都府木津川市加茂町例幣小ノ林７５", "url": "https://www.kaigokensaku.mhlw.go.jp/26/index.php?action_kouhyou_detail_004_kani=true&JigyosyoCd=2673500084-00&ServiceCd=780&Type=search", "url2": null }, "geometry": { "type": "Point", "coordinates": [ 135.862560176224491, 34.769004292872985 ] } },
{ "type": "Feature", "properties": { "内容": "通所介護　芽吹【地域密着型通所介護】京都府木津川市城山台８丁目１番地", "url": "https://www.kaigokensaku.mhlw.go.jp/26/index.php?action_kouhyou_detail_004_kani=true&JigyosyoCd=2673500027-00&ServiceCd=780&Type=search", "url2": "https://mebuki.site" }, "geometry": { "type": "Point", "coordinates": [ 135.829436435304274, 34.73572396827803 ] } },
{ "type": "Feature", "properties": { "内容": "かがやきデイサービスセンター【地域密着型通所介護】京都府久世郡久御山町佐山北代4番地9", "url": "https://www.kaigokensaku.mhlw.go.jp/26/index.php?action_kouhyou_detail_004_kani=true&JigyosyoCd=2671100127-00&ServiceCd=780&Type=search", "url2": null }, "geometry": { "type": "Point", "coordinates": [ 135.7532397, 34.8765809 ] } },
{ "type": "Feature", "properties": { "内容": "医療法人啓信会　デイサービスセンターリエゾン久御山ひしの里【地域密着型通所介護】久世郡久御山町佐古内屋敷91-4", "url": "https://www.kaigokensaku.mhlw.go.jp/26/index.php?action_kouhyou_detail_004_kani=true&JigyosyoCd=2671100119-00&ServiceCd=780&Type=search", "url2": "http://www.kyoto-keishinkai.or.jp/" }, "geometry": { "type": "Point", "coordinates": [ 135.753856199999973, 34.8790056 ] } },
{ "type": "Feature", "properties": { "内容": "リハビリ特化型デイサービス-Link-【地域密着型通所介護】京都府久世郡久御山町市田北浦54-2中マンション1階6号", "url": "https://www.kaigokensaku.mhlw.go.jp/26/index.php?action_kouhyou_detail_004_kani=true&JigyosyoCd=2691100040-00&ServiceCd=780&Type=search", "url2": "http://sa-l-kyoto.com" }, "geometry": { "type": "Point", "coordinates": [ 135.7538384, 34.8885721 ] } },
{ "type": "Feature", "properties": { "内容": "デイサービスみのり【地域密着型通所介護】京都府綴喜郡井手町井手宮ノ本86番地", "url": "https://www.kaigokensaku.mhlw.go.jp/26/index.php?action_kouhyou_detail_004_kani=true&JigyosyoCd=2671300255-00&ServiceCd=780&Type=search", "url2": null }, "geometry": { "type": "Point", "coordinates": [ 135.809364, 34.7971853 ] } },
{ "type": "Feature", "properties": { "内容": "萩の里【地域密着型通所介護】綴喜郡宇治田原町大字南小字中屋8", "url": "https://www.kaigokensaku.mhlw.go.jp/26/index.php?action_kouhyou_detail_004_kani=true&JigyosyoCd=2671300222-00&ServiceCd=780&Type=search", "url2": "https://www.snservice.jp/" }, "geometry": { "type": "Point", "coordinates": [ 135.853922600000033, 34.8428018 ] } },
{ "type": "Feature", "properties": { "内容": "デイサービス・マドンナ【地域密着型通所介護】京都府綴喜郡宇治田原町銘城台７－１２", "url": "https://www.kaigokensaku.mhlw.go.jp/26/index.php?action_kouhyou_detail_004_kani=true&JigyosyoCd=2671300248-00&ServiceCd=780&Type=search", "url2": "http://www.doronko.or.ｊｐ/" }, "geometry": { "type": "Point", "coordinates": [ 135.844620599999985, 34.8459625 ] } },
{ "type": "Feature", "properties": { "内容": "京丹波デイサービスセンター【地域密着型通所介護】京都府船井郡京丹波町三ノ宮縄手39番地", "url": "https://www.kaigokensaku.mhlw.go.jp/26/index.php?action_kouhyou_detail_004_kani=true&JigyosyoCd=2671500359-00&ServiceCd=780&Type=search", "url2": "https://yamabikokai-kyoto.com" }, "geometry": { "type": "Point", "coordinates": [ 135.339191199999959, 35.2207317 ] } },
{ "type": "Feature", "properties": { "内容": "クローバー・デイサービスセンター【地域密着型通所介護】京都府船井郡京丹波町橋爪41番地1", "url": "https://www.kaigokensaku.mhlw.go.jp/26/index.php?action_kouhyou_detail_004_kani=true&JigyosyoCd=2671500193-00&ServiceCd=780&Type=search", "url2": "http://www.cloverservice.or.jp/" }, "geometry": { "type": "Point", "coordinates": [ 135.375324657008377, 35.179385857035328 ] } },
{ "type": "Feature", "properties": { "内容": "京丹波町社会福祉協議会デイサービスセンターほほえみ【地域密着型通所介護】京都府船井郡京丹波町和田田中6番地1", "url": "https://www.kaigokensaku.mhlw.go.jp/26/index.php?action_kouhyou_detail_004_kani=true&JigyosyoCd=2691500041-00&ServiceCd=780&Type=search", "url2": "http://www.kyoshakyo.or.jp/kyotanba/" }, "geometry": { "type": "Point", "coordinates": [ 135.372677399999986, 35.1814033 ] } },
{ "type": "Feature", "properties": { "内容": "デイサービス　楓【地域密着型通所介護】京都府与謝郡伊根町字大原494番地", "url": "https://www.kaigokensaku.mhlw.go.jp/26/index.php?action_kouhyou_detail_004_kani=true&JigyosyoCd=2692000108-00&ServiceCd=780&Type=search", "url2": null }, "geometry": { "type": "Point", "coordinates": [ 135.2919254, 35.6868699 ] } },
{ "type": "Feature", "properties": { "内容": "伊根デイサービスセンター【地域密着型通所介護】京都府与謝郡伊根町字六万部154", "url": "https://www.kaigokensaku.mhlw.go.jp/26/index.php?action_kouhyou_detail_004_kani=true&JigyosyoCd=2692000165-00&ServiceCd=780&Type=search", "url2": "http://yosagun-fukushikai.net/" }, "geometry": { "type": "Point", "coordinates": [ 135.279544671163904, 35.701696200235901 ] } },
{ "type": "Feature", "properties": { "内容": "デイサービスわおん【地域密着型通所介護】京都府与謝郡与謝野町字金屋４３１番地５８", "url": "https://www.kaigokensaku.mhlw.go.jp/26/index.php?action_kouhyou_detail_004_kani=true&JigyosyoCd=2672000292-00&ServiceCd=780&Type=search", "url2": null }, "geometry": { "type": "Point", "coordinates": [ 135.089481400000068, 35.488999399999983 ] } },
{ "type": "Feature", "properties": { "内容": "あるけるデイ・ユメライフ【地域密着型通所介護】京都府与謝郡与謝野町男山217-1-3", "url": "https://www.kaigokensaku.mhlw.go.jp/26/index.php?action_kouhyou_detail_004_kani=true&JigyosyoCd=2692000082-00&ServiceCd=780&Type=search", "url2": null }, "geometry": { "type": "Point", "coordinates": [ 135.161749099999952, 35.5719383 ] } },
{ "type": "Feature", "properties": { "内容": "Lifecareかすみ【地域密着型通所介護】京都府与謝郡与謝野町字男山217番地1‐3", "url": "https://www.kaigokensaku.mhlw.go.jp/26/index.php?action_kouhyou_detail_004_kani=true&JigyosyoCd=2692000140-00&ServiceCd=780&Type=search", "url2": null }, "geometry": { "type": "Point", "coordinates": [ 135.1617767, 35.57193 ] } }
]
}
