{
"type": "FeatureCollection",
"name": "geo_26_認知症対応型通所介護",
"crs": { "type": "name", "properties": { "name": "urn:ogc:def:crs:OGC:1.3:CRS84" } },
"features": [
{ "type": "Feature", "properties": { "内容": "デイサービスセンターたのしいデイきぬかけ【認知症対応型通所介護】京都府京都市北区衣笠天神森町20", "url": "https://www.kaigokensaku.mhlw.go.jp/26/index.php?action_kouhyou_detail_004_kani=true&JigyosyoCd=2690100405-00&ServiceCd=720&Type=search", "url2": null }, "geometry": { "type": "Point", "coordinates": [ 135.73165, 35.0368791 ] } },
{ "type": "Feature", "properties": { "内容": "こぶしの里サテライト今宮デイサービスセンター【認知症対応型通所介護】京都市北区紫野大徳寺町３５－２", "url": "https://www.kaigokensaku.mhlw.go.jp/26/index.php?action_kouhyou_detail_004_kani=true&JigyosyoCd=2690100041-00&ServiceCd=720&Type=search", "url2": "http://www.nananokai.com/" }, "geometry": { "type": "Point", "coordinates": [ 135.741419800000017, 35.04478 ] } },
{ "type": "Feature", "properties": { "内容": "社会福祉法人京都福祉サービス協会　紫野老人デイサービスセンター【認知症対応型通所介護】京都市北区紫野西野町１５番地", "url": "https://www.kaigokensaku.mhlw.go.jp/26/index.php?action_kouhyou_detail_004_kani=true&JigyosyoCd=2690100066-00&ServiceCd=720&Type=search", "url2": "http://kyoto-fukushi.org/index.html" }, "geometry": { "type": "Point", "coordinates": [ 135.741475300000047, 35.0413687 ] } },
{ "type": "Feature", "properties": { "内容": "デイサービスセンターかめさん【認知症対応型通所介護】京都市北区大宮南田尻町59番地", "url": "https://www.kaigokensaku.mhlw.go.jp/26/index.php?action_kouhyou_detail_004_kani=true&JigyosyoCd=2690100322-00&ServiceCd=720&Type=search", "url2": "http://www.miyakokai-kyouto.com" }, "geometry": { "type": "Point", "coordinates": [ 135.7496183, 35.0571744 ] } },
{ "type": "Feature", "properties": { "内容": "はつねデイサービスセンター【認知症対応型通所介護】京都市北区小山下初音町２４カマラーダ・ドーモ202号室", "url": "https://www.kaigokensaku.mhlw.go.jp/26/index.php?action_kouhyou_detail_004_kani=true&JigyosyoCd=2670100078-00&ServiceCd=720&Type=search", "url2": "https://www.nananokai.com/" }, "geometry": { "type": "Point", "coordinates": [ 135.753985300000068, 35.0448359 ] } },
{ "type": "Feature", "properties": { "内容": "糸屋町デイサービスセンター【認知症対応型通所介護】大宮通中立売上る糸屋町198　1Ｆ生活支援総合センター聚楽", "url": "https://www.kaigokensaku.mhlw.go.jp/26/index.php?action_kouhyou_detail_004_kani=true&JigyosyoCd=2690200072-00&ServiceCd=720&Type=search", "url2": "http://www.nananokai.com/" }, "geometry": { "type": "Point", "coordinates": [ 135.748844500000018, 35.0259126 ] } },
{ "type": "Feature", "properties": { "内容": "京都市上京老人デイサービスセンター【認知症対応型通所介護】京都市上京区今小路通御前東入西今小路町797", "url": "https://www.kaigokensaku.mhlw.go.jp/26/index.php?action_kouhyou_detail_004_kani=true&JigyosyoCd=2690200189-00&ServiceCd=720&Type=search", "url2": "https://www.sohma-hp.or.jp/day-care/rehabili-1" }, "geometry": { "type": "Point", "coordinates": [ 135.737046764418039, 35.028298984090164 ] } },
{ "type": "Feature", "properties": { "内容": "共用型認知症対応型特養都和のはな【認知症対応型通所介護】西ノ京小堀池町3-4", "url": "https://www.kaigokensaku.mhlw.go.jp/26/index.php?action_kouhyou_detail_004_kani=true&JigyosyoCd=2690300039-00&ServiceCd=720&Type=search", "url2": "http://www.hoken-fukushi.or.jp/" }, "geometry": { "type": "Point", "coordinates": [ 135.7265478, 35.0151303 ] } },
{ "type": "Feature", "properties": { "内容": "共用型認知症対応型通所介護グループホーム都和のはな【認知症対応型通所介護】京都市中京区西ノ京小堀池町３番地４", "url": "https://www.kaigokensaku.mhlw.go.jp/26/index.php?action_kouhyou_detail_004_kani=true&JigyosyoCd=2690300179-00&ServiceCd=720&Type=search", "url2": "http://www.hoken-fukushi.or.jp/gttowa.html" }, "geometry": { "type": "Point", "coordinates": [ 135.7265478, 35.0151303 ] } },
{ "type": "Feature", "properties": { "内容": "医療法人啓誠会　デイサービスセンターやすらぎ【認知症対応型通所介護】京都市中京区壬生桧町１6－22", "url": "https://www.kaigokensaku.mhlw.go.jp/26/index.php?action_kouhyou_detail_004_kani=true&JigyosyoCd=2690300013-00&ServiceCd=720&Type=search", "url2": "http://www.dr-taniguchi.com" }, "geometry": { "type": "Point", "coordinates": [ 135.735048760713198, 35.000336906940397 ] } },
{ "type": "Feature", "properties": { "内容": "洛東園デイサービスセンター【認知症対応型通所介護】京都府京都市東山区本町15丁目794番地", "url": "https://www.kaigokensaku.mhlw.go.jp/26/index.php?action_kouhyou_detail_004_kani=true&JigyosyoCd=2670800032-00&ServiceCd=720&Type=search", "url2": "http://www.wf-rakutouen.com" }, "geometry": { "type": "Point", "coordinates": [ 135.7731652, 34.9798535 ] } },
{ "type": "Feature", "properties": { "内容": "京都市久世老人デイサービスセンター【認知症対応型通所介護】京都市南区久世築山町328", "url": "https://www.kaigokensaku.mhlw.go.jp/26/index.php?action_kouhyou_detail_004_kani=true&JigyosyoCd=2670500012-00&ServiceCd=720&Type=search", "url2": "http://www.seiwaen.or.jp/" }, "geometry": { "type": "Point", "coordinates": [ 135.724757463893184, 34.957935201869873 ] } },
{ "type": "Feature", "properties": { "内容": "デイサービス　故郷の家・京都【認知症対応型通所介護】京都府京都市南区東九条南松ノ木町47", "url": "https://www.kaigokensaku.mhlw.go.jp/26/index.php?action_kouhyou_detail_004_kani=true&JigyosyoCd=2690500026-00&ServiceCd=720&Type=search", "url2": "http://www.kokorono.or.jp/" }, "geometry": { "type": "Point", "coordinates": [ 135.76645469999994, 34.9767675 ] } },
{ "type": "Feature", "properties": { "内容": "鳥羽ホーム認知症対応型デイサービスセンター【認知症対応型通所介護】京都府京都市南区上鳥羽堀子町88", "url": "https://www.kaigokensaku.mhlw.go.jp/26/index.php?action_kouhyou_detail_004_kani=true&JigyosyoCd=2690500133-00&ServiceCd=720&Type=search", "url2": "http://www.seiwaen.or.jp" }, "geometry": { "type": "Point", "coordinates": [ 135.744370500000059, 34.9682788 ] } },
{ "type": "Feature", "properties": { "内容": "認知症対応型デイサービスソラスト海ぶどう【認知症対応型通所介護】京都市右京区西京極畔勝町67光和ビル１F", "url": "https://www.kaigokensaku.mhlw.go.jp/26/index.php?action_kouhyou_detail_004_kani=true&JigyosyoCd=2690700410-00&ServiceCd=720&Type=search", "url2": "https://solasto-kaigo.com/service/dayservice/umibudou-2" }, "geometry": { "type": "Point", "coordinates": [ 135.7218552, 34.9928017 ] } },
{ "type": "Feature", "properties": { "内容": "ケアサービスまたあした【認知症対応型通所介護】京都府京都市右京区花園扇野町２６－６０", "url": "https://www.kaigokensaku.mhlw.go.jp/26/index.php?action_kouhyou_detail_004_kani=true&JigyosyoCd=2670300124-00&ServiceCd=720&Type=search", "url2": "mataacita@dolphin.ocn.ne.jp" }, "geometry": { "type": "Point", "coordinates": [ 135.715833800000041, 35.01748760000001 ] } },
{ "type": "Feature", "properties": { "内容": "ハーモニーこがなの家【認知症対応型通所介護】京都市伏見区久我石原町１－４１", "url": "https://www.kaigokensaku.mhlw.go.jp/26/index.php?action_kouhyou_detail_004_kani=true&JigyosyoCd=2690900101-00&ServiceCd=720&Type=search", "url2": "http://kurashino-harmony.or.jp" }, "geometry": { "type": "Point", "coordinates": [ 135.733007, 34.9463615 ] } },
{ "type": "Feature", "properties": { "内容": "ランランルンルンスマイルケア【認知症対応型通所介護】京都府京都市伏見区向島津田町102番地5OSA32", "url": "https://www.kaigokensaku.mhlw.go.jp/26/index.php?action_kouhyou_detail_004_kani=true&JigyosyoCd=2690900648-00&ServiceCd=720&Type=search", "url2": "http://www.mukaijima.jp" }, "geometry": { "type": "Point", "coordinates": [ 135.767926599999981, 34.9207373 ] } },
{ "type": "Feature", "properties": { "内容": "デイサービスセンター　醍醐の家ほっこり【認知症対応型通所介護】京都市伏見区醍醐南里町30-1", "url": "https://www.kaigokensaku.mhlw.go.jp/26/index.php?action_kouhyou_detail_004_kani=true&JigyosyoCd=2690900036-00&ServiceCd=720&Type=search", "url2": "http://www.kyoro.or.jp" }, "geometry": { "type": "Point", "coordinates": [ 135.814835499999958, 34.9465523 ] } },
{ "type": "Feature", "properties": { "内容": "医療法人松寿会デイサービスセンターことぶき【認知症対応型通所介護】京都市山科区勧修寺閑林寺８３－６", "url": "https://www.kaigokensaku.mhlw.go.jp/26/index.php?action_kouhyou_detail_004_kani=true&JigyosyoCd=2694100062-00&ServiceCd=720&Type=search", "url2": "http://.www.kyowa-hp.jp" }, "geometry": { "type": "Point", "coordinates": [ 135.811430400000063, 34.9560403 ] } },
{ "type": "Feature", "properties": { "内容": "西野の家「はなさんち」通所介護事業所【認知症対応型通所介護】京都市山科区西野広見町４", "url": "https://www.kaigokensaku.mhlw.go.jp/26/index.php?action_kouhyou_detail_004_kani=true&JigyosyoCd=2674100512-00&ServiceCd=720&Type=search", "url2": "https://www.dowaen.jp/" }, "geometry": { "type": "Point", "coordinates": [ 135.8086164, 34.9837886 ] } },
{ "type": "Feature", "properties": { "内容": "楽踏庵Vista【認知症対応型通所介護】京都府京都市山科区西野八幡田町10番地1", "url": "https://www.kaigokensaku.mhlw.go.jp/26/index.php?action_kouhyou_detail_004_kani=true&JigyosyoCd=2694100385-00&ServiceCd=720&Type=search", "url2": null }, "geometry": { "type": "Point", "coordinates": [ 135.805453825131224, 34.987823320085923 ] } },
{ "type": "Feature", "properties": { "内容": "ヴィラ山科オレンジデイサービスセンター【認知症対応型通所介護】大宅御所田町115-1", "url": "https://www.kaigokensaku.mhlw.go.jp/26/index.php?action_kouhyou_detail_004_kani=true&JigyosyoCd=2694100096-00&ServiceCd=720&Type=search", "url2": "http://www.takedahp.or.jp" }, "geometry": { "type": "Point", "coordinates": [ 135.825856700000031, 34.9710253 ] } },
{ "type": "Feature", "properties": { "内容": "グループホーム安らぎ【認知症対応型通所介護】京都市西京区御陵谷町29-2", "url": "https://www.kaigokensaku.mhlw.go.jp/26/index.php?action_kouhyou_detail_004_kani=true&JigyosyoCd=2690100058-00&ServiceCd=720&Type=search", "url2": "https://asahi-yasuragi.jimdofree.com/" }, "geometry": { "type": "Point", "coordinates": [ 135.68736770000001, 34.9768809 ] } },
{ "type": "Feature", "properties": { "内容": "京都厚生園山田の家【認知症対応型通所介護】京都府京都市西京区山田出口町31番地", "url": "https://www.kaigokensaku.mhlw.go.jp/26/index.php?action_kouhyou_detail_004_kani=true&JigyosyoCd=2694000122-00&ServiceCd=720&Type=search", "url2": "http://www.kyotokouseien.com" }, "geometry": { "type": "Point", "coordinates": [ 135.690158800000063, 34.9873959 ] } },
{ "type": "Feature", "properties": { "内容": "でいけあほーむ　かなや三丁目【認知症対応型通所介護】京都府福知山市大江町金屋724番地", "url": "https://www.kaigokensaku.mhlw.go.jp/26/index.php?action_kouhyou_detail_004_kani=true&JigyosyoCd=2692600048-00&ServiceCd=720&Type=search", "url2": "http://blog.livedoor.jp/f_yumekoubou/" }, "geometry": { "type": "Point", "coordinates": [ 135.157983100000024, 35.3925447 ] } },
{ "type": "Feature", "properties": { "内容": "土ニコニコハウスりんご村【認知症対応型通所介護】京都府福知山市字土小字山ノ下60番地", "url": "https://www.kaigokensaku.mhlw.go.jp/26/index.php?action_kouhyou_detail_004_kani=true&JigyosyoCd=2672600307-00&ServiceCd=720&Type=search", "url2": "http://www.nikonikoplaza.com/f-silver/cog-tuti.html" }, "geometry": { "type": "Point", "coordinates": [ 135.165819611141956, 35.298534479258571 ] } },
{ "type": "Feature", "properties": { "内容": "認知症対応型指定通所介護事業所デイサービスセンター庵【認知症対応型通所介護】福知山市字猪崎25-1", "url": "https://www.kaigokensaku.mhlw.go.jp/26/index.php?action_kouhyou_detail_004_kani=true&JigyosyoCd=2692600196-00&ServiceCd=720&Type=search", "url2": "http://mitsumi.or.jp/" }, "geometry": { "type": "Point", "coordinates": [ 135.142555600000037, 35.30781 ] } },
{ "type": "Feature", "properties": { "内容": "ニコニコハウス　りんご村【認知症対応型通所介護】福知山市字牧小字２５０番５", "url": "https://www.kaigokensaku.mhlw.go.jp/26/index.php?action_kouhyou_detail_004_kani=true&JigyosyoCd=2692600147-00&ServiceCd=720&Type=search", "url2": "http://www.nikonikoplaza.com/f-silver/fukuchiyama-silver-indx.html" }, "geometry": { "type": "Point", "coordinates": [ 135.09777639999993, 35.3323287 ] } },
{ "type": "Feature", "properties": { "内容": "社会福祉法人　福知山市社会福祉協議会　三和支所グループデイホーム【認知症対応型通所介護】京都府福知山市三和町千束66番地の6", "url": "https://www.kaigokensaku.mhlw.go.jp/26/index.php?action_kouhyou_detail_004_kani=true&JigyosyoCd=2672600380-00&ServiceCd=720&Type=search", "url2": "www.fukuchiyama-shakyo.org" }, "geometry": { "type": "Point", "coordinates": [ 135.232852699999967, 35.2165067 ] } },
{ "type": "Feature", "properties": { "内容": "ひだまりデイサービスセンター【認知症対応型通所介護】京都府福知山市夜久野町平野834番地", "url": "https://www.kaigokensaku.mhlw.go.jp/26/index.php?action_kouhyou_detail_004_kani=true&JigyosyoCd=2692600105-00&ServiceCd=720&Type=search", "url2": "http://greenvilla.kyoto.jp/" }, "geometry": { "type": "Point", "coordinates": [ 134.936856499999976, 35.3448751 ] } },
{ "type": "Feature", "properties": { "内容": "厚ニコニコハウス　りんご村【認知症対応型通所介護】厚中町200番地厚ニコニコハウス", "url": "https://www.kaigokensaku.mhlw.go.jp/26/index.php?action_kouhyou_detail_004_kani=true&JigyosyoCd=2692600097-00&ServiceCd=720&Type=search", "url2": "http://www.nikonikoplaza.com/f-silver/fukuchiyama-silver-indx.html" }, "geometry": { "type": "Point", "coordinates": [ 135.110978199999977, 35.3054764 ] } },
{ "type": "Feature", "properties": { "内容": "ハートケアデイサービスセンター【認知症対応型通所介護】京都府福知山市夜久野町額田1394-1", "url": "https://www.kaigokensaku.mhlw.go.jp/26/index.php?action_kouhyou_detail_004_kani=true&JigyosyoCd=2692600121-00&ServiceCd=720&Type=search", "url2": null }, "geometry": { "type": "Point", "coordinates": [ 134.99666830000001, 35.3203704 ] } },
{ "type": "Feature", "properties": { "内容": "駅南ニコニコハウス　りんご村【認知症対応型通所介護】福知山市駅南町2丁目270番地", "url": "https://www.kaigokensaku.mhlw.go.jp/26/index.php?action_kouhyou_detail_004_kani=true&JigyosyoCd=2692600113-00&ServiceCd=720&Type=search", "url2": null }, "geometry": { "type": "Point", "coordinates": [ 135.11818310000001, 35.294253 ] } },
{ "type": "Feature", "properties": { "内容": "モンファミーユ舞鶴デイサービスセンター【認知症対応型通所介護】京都府舞鶴市和田中田1065", "url": "https://www.kaigokensaku.mhlw.go.jp/26/index.php?action_kouhyou_detail_004_kani=true&JigyosyoCd=2672700297-00&ServiceCd=720&Type=search", "url2": "https://seihoukai-grp.jp/facility_post/maizuru-gh" }, "geometry": { "type": "Point", "coordinates": [ 135.351379799999989, 35.4710642 ] } },
{ "type": "Feature", "properties": { "内容": "グループデイいろり【認知症対応型通所介護】京都府舞鶴市行永1792", "url": "https://www.kaigokensaku.mhlw.go.jp/26/index.php?action_kouhyou_detail_004_kani=true&JigyosyoCd=2692700160-00&ServiceCd=720&Type=search", "url2": "http://daijukai.jp/" }, "geometry": { "type": "Point", "coordinates": [ 135.3990873, 35.4608301 ] } },
{ "type": "Feature", "properties": { "内容": "デイ・ホーム　和夢【認知症対応型通所介護】京都府舞鶴市下福井大野辺928-3", "url": "https://www.kaigokensaku.mhlw.go.jp/26/index.php?action_kouhyou_detail_004_kani=true&JigyosyoCd=2692700087-00&ServiceCd=720&Type=search", "url2": "http://www.maimu.jp/index.php?id=36" }, "geometry": { "type": "Point", "coordinates": [ 135.312643320623806, 35.449771160862497 ] } },
{ "type": "Feature", "properties": { "内容": "社会福祉法人　どんぐりの家　絆【認知症対応型通所介護】京都府綾部市里町向屋敷３３番地", "url": "https://www.kaigokensaku.mhlw.go.jp/26/index.php?action_kouhyou_detail_004_kani=true&JigyosyoCd=2691800169-00&ServiceCd=720&Type=search", "url2": "http://dongurinoie.sakura.ne.jp" }, "geometry": { "type": "Point", "coordinates": [ 135.259817399999946, 35.3148616 ] } },
{ "type": "Feature", "properties": { "内容": "ミストラルとよさと【認知症対応型通所介護】京都府綾部市栗町土居ノ内31番地", "url": "https://www.kaigokensaku.mhlw.go.jp/26/index.php?action_kouhyou_detail_004_kani=true&JigyosyoCd=2691800078-00&ServiceCd=720&Type=search", "url2": "http://www.mistralservice.co.jp/" }, "geometry": { "type": "Point", "coordinates": [ 135.22428119999995, 35.3159055 ] } },
{ "type": "Feature", "properties": { "内容": "メイプルリーフ名木【認知症対応型通所介護】宇治市伊勢田町南山4-1", "url": "https://www.kaigokensaku.mhlw.go.jp/26/index.php?action_kouhyou_detail_004_kani=true&JigyosyoCd=2691200014-00&ServiceCd=720&Type=search", "url2": "http://www.ujimapleleaf.com" }, "geometry": { "type": "Point", "coordinates": [ 135.775408199999987, 34.8813521 ] } },
{ "type": "Feature", "properties": { "内容": "おりつみ　おおわだの郷【認知症対応型通所介護】京都府宇治市五ヶ庄折坂55-1", "url": "https://www.kaigokensaku.mhlw.go.jp/26/index.php?action_kouhyou_detail_004_kani=true&JigyosyoCd=2691200311-00&ServiceCd=720&Type=search", "url2": null }, "geometry": { "type": "Point", "coordinates": [ 135.806175200000013, 34.909478 ] } },
{ "type": "Feature", "properties": { "内容": "特定非営利活動法人　伝書鳩デイサービス【認知症対応型通所介護】京都府宇治市広野町丸山２９－２", "url": "https://www.kaigokensaku.mhlw.go.jp/26/index.php?action_kouhyou_detail_004_kani=true&JigyosyoCd=2691200113-00&ServiceCd=720&Type=search", "url2": "https://www.denshobato.or.jp/" }, "geometry": { "type": "Point", "coordinates": [ 135.787097899999907, 34.8757865 ] } },
{ "type": "Feature", "properties": { "内容": "オレンジデイサービスセンターヴィラ鳳凰【認知症対応型通所介護】京都府宇治市宇治里尻36-35", "url": "https://www.kaigokensaku.mhlw.go.jp/26/index.php?action_kouhyou_detail_004_kani=true&JigyosyoCd=2691200212-00&ServiceCd=720&Type=search", "url2": "https://www.takedahp.or.jp/group/welfare/kyotoninchisho02/orangeday.html" }, "geometry": { "type": "Point", "coordinates": [ 135.801778799999965, 34.8929819 ] } },
{ "type": "Feature", "properties": { "内容": "デイサービスセンターくりくま【認知症対応型通所介護】宇治市広野町寺山47-4", "url": "https://www.kaigokensaku.mhlw.go.jp/26/index.php?action_kouhyou_detail_004_kani=true&JigyosyoCd=2691200121-00&ServiceCd=720&Type=search", "url2": "https://kurikuma.jp" }, "geometry": { "type": "Point", "coordinates": [ 135.781926399999946, 34.8709288 ] } },
{ "type": "Feature", "properties": { "内容": "一般財団法人　宇治市福祉サービス公社　西小倉デイサービスセンター【認知症対応型通所介護】宇治市小倉町山際６３－１", "url": "https://www.kaigokensaku.mhlw.go.jp/26/index.php?action_kouhyou_detail_004_kani=true&JigyosyoCd=2671200083-00&ServiceCd=720&Type=search", "url2": "http://www.poppo.or.jp" }, "geometry": { "type": "Point", "coordinates": [ 135.775392600000032, 34.888535 ] } },
{ "type": "Feature", "properties": { "内容": "メイプルリーフ金草原【認知症対応型通所介護】宇治市木幡金草原６－１", "url": "https://www.kaigokensaku.mhlw.go.jp/26/index.php?action_kouhyou_detail_004_kani=true&JigyosyoCd=2691200048-00&ServiceCd=720&Type=search", "url2": "http://www.ujimapleleaf.com/" }, "geometry": { "type": "Point", "coordinates": [ 135.803272600000014, 34.9292119 ] } },
{ "type": "Feature", "properties": { "内容": "メイプルリーフ槇島【認知症対応型通所介護】宇治市槇島町本屋敷１０－２", "url": "https://www.kaigokensaku.mhlw.go.jp/26/index.php?action_kouhyou_detail_004_kani=true&JigyosyoCd=2691200089-00&ServiceCd=720&Type=search", "url2": "http://www.ujimapleleaf.com" }, "geometry": { "type": "Point", "coordinates": [ 135.777699900000016, 34.9137877 ] } },
{ "type": "Feature", "properties": { "内容": "ハウゼ天橋通所介護事業所【認知症対応型通所介護】京都府宮津市字宮村1277番地", "url": "https://www.kaigokensaku.mhlw.go.jp/26/index.php?action_kouhyou_detail_004_kani=true&JigyosyoCd=2672100050-00&ServiceCd=720&Type=search", "url2": "http://www.hokuseikai.or.jp/" }, "geometry": { "type": "Point", "coordinates": [ 135.201066299999979, 35.5308217 ] } },
{ "type": "Feature", "properties": { "内容": "ほっとルーム　あゆみ【認知症対応型通所介護】京都府亀岡市篠町篠下中筋45番地5", "url": "https://www.kaigokensaku.mhlw.go.jp/26/index.php?action_kouhyou_detail_004_kani=true&JigyosyoCd=2691600080-00&ServiceCd=720&Type=search", "url2": "http://www.kameoka-ayumi.com" }, "geometry": { "type": "Point", "coordinates": [ 135.612752600000022, 35.0048485 ] } },
{ "type": "Feature", "properties": { "内容": "医療法人　啓信会　デイサービスセンターリエゾン萌木の村【認知症対応型通所介護】城陽市寺田新池65-2", "url": "https://www.kaigokensaku.mhlw.go.jp/26/index.php?action_kouhyou_detail_004_kani=true&JigyosyoCd=2672800238-00&ServiceCd=720&Type=search", "url2": "http://www.kyoto-keishinkai.or.jp/" }, "geometry": { "type": "Point", "coordinates": [ 135.7833736, 34.8481531 ] } },
{ "type": "Feature", "properties": { "内容": "城陽市立東部デイサービスセンター【認知症対応型通所介護】京都府城陽市久世芝ヶ原6番地の2", "url": "https://www.kaigokensaku.mhlw.go.jp/26/index.php?action_kouhyou_detail_004_kani=true&JigyosyoCd=2672800162-00&ServiceCd=720&Type=search", "url2": "http://www.takedahp.or.jp" }, "geometry": { "type": "Point", "coordinates": [ 135.778485100000012, 34.8620074 ] } },
{ "type": "Feature", "properties": { "内容": "デイサービス　保和囲邸【認知症対応型通所介護】京都府城陽市市辺小梨間33-2", "url": "https://www.kaigokensaku.mhlw.go.jp/26/index.php?action_kouhyou_detail_004_kani=true&JigyosyoCd=2692800085-00&ServiceCd=720&Type=search", "url2": "http://www.whyty.jp" }, "geometry": { "type": "Point", "coordinates": [ 135.80190540000001, 34.8273831 ] } },
{ "type": "Feature", "properties": { "内容": "せんしゅんかいデイサービスセンター花車【認知症対応型通所介護】向日市寺戸町北前田２９－１", "url": "https://www.kaigokensaku.mhlw.go.jp/26/index.php?action_kouhyou_detail_004_kani=true&JigyosyoCd=2693100063-00&ServiceCd=720&Type=search", "url2": "http://www.senshunkai.or.jp/" }, "geometry": { "type": "Point", "coordinates": [ 135.699635199999989, 34.9545462 ] } },
{ "type": "Feature", "properties": { "内容": "共用型指定介護認知症対応型通所介護事業所長岡京ケアハートガーデン西山の郷【認知症対応型通所介護】奥海印寺多貝垣外17-1", "url": "https://www.kaigokensaku.mhlw.go.jp/26/index.php?action_kouhyou_detail_004_kani=true&JigyosyoCd=2673000127-00&ServiceCd=720&Type=search", "url2": "https://www.mdlife.co.jp" }, "geometry": { "type": "Point", "coordinates": [ 135.680062038098214, 34.92175300136693 ] } },
{ "type": "Feature", "properties": { "内容": "せんしゅんかいデイサービスセンター風車【認知症対応型通所介護】京都府長岡京市馬場井料田４－７", "url": "https://www.kaigokensaku.mhlw.go.jp/26/index.php?action_kouhyou_detail_004_kani=true&JigyosyoCd=2693000057-00&ServiceCd=720&Type=search", "url2": "http://www.senshunkai.or.jp" }, "geometry": { "type": "Point", "coordinates": [ 135.703503800000021, 34.9279629 ] } },
{ "type": "Feature", "properties": { "内容": "旭が丘倶楽部　デイサービスセンター【認知症対応型通所介護】長岡京市井ノ内朝日寺23番", "url": "https://www.kaigokensaku.mhlw.go.jp/26/index.php?action_kouhyou_detail_004_kani=true&JigyosyoCd=2673000051-00&ServiceCd=720&Type=search", "url2": "https://www.oz-well.jp" }, "geometry": { "type": "Point", "coordinates": [ 135.681177558860782, 34.940071249845126 ] } },
{ "type": "Feature", "properties": { "内容": "せんしゅんかいデイサービスセンター羽根車【認知症対応型通所介護】京都府長岡京市今里庄ノ渕３２せんしゅんかい　介護複合施設　今里", "url": "https://www.kaigokensaku.mhlw.go.jp/26/index.php?action_kouhyou_detail_004_kani=true&JigyosyoCd=2693000131-00&ServiceCd=720&Type=search", "url2": "http://www.senshunkai.or.jp" }, "geometry": { "type": "Point", "coordinates": [ 135.691907, 34.9370824 ] } },
{ "type": "Feature", "properties": { "内容": "長岡京ケアハートガーデン　「西山の郷」【認知症対応型通所介護】奥海印寺多貝垣外１７－１", "url": "https://www.kaigokensaku.mhlw.go.jp/26/index.php?action_kouhyou_detail_004_kani=true&JigyosyoCd=2693000222-00&ServiceCd=720&Type=search", "url2": null }, "geometry": { "type": "Point", "coordinates": [ 135.676325803041067, 34.922829927559896 ] } },
{ "type": "Feature", "properties": { "内容": "社会福祉法人　八幡市社会福祉協議会　八寿園デイサービス【認知症対応型通所介護】八幡市男山美桜１８", "url": "https://www.kaigokensaku.mhlw.go.jp/26/index.php?action_kouhyou_detail_004_kani=true&JigyosyoCd=2692900034-00&ServiceCd=720&Type=search", "url2": null }, "geometry": { "type": "Point", "coordinates": [ 135.699913599999945, 34.8637559 ] } },
{ "type": "Feature", "properties": { "内容": "認知症対応型通所介護　デイサービスみやまき【認知症対応型通所介護】京都府京田辺市三山木中央四丁目６番地６", "url": "https://www.kaigokensaku.mhlw.go.jp/26/index.php?action_kouhyou_detail_004_kani=true&JigyosyoCd=2693200046-00&ServiceCd=720&Type=search", "url2": "http://www.kyotanabe-hosp.or.jp" }, "geometry": { "type": "Point", "coordinates": [ 135.7855465, 34.797016 ] } },
{ "type": "Feature", "properties": { "内容": "医療法人　栄仁会　デイサービス　でんでんむし【認知症対応型通所介護】京田辺市河原受田46-1栄仁会メンタルケア新田辺", "url": "https://www.kaigokensaku.mhlw.go.jp/26/index.php?action_kouhyou_detail_004_kani=true&JigyosyoCd=2693200038-00&ServiceCd=720&Type=search", "url2": "http://www.eijinkai.or.jp" }, "geometry": { "type": "Point", "coordinates": [ 135.773367276057428, 34.819473338791688 ] } },
{ "type": "Feature", "properties": { "内容": "デイサービス満寿園【認知症対応型通所介護】京都府京丹後市弥栄町溝谷３９番地の６外村満寿園", "url": "https://www.kaigokensaku.mhlw.go.jp/26/index.php?action_kouhyou_detail_004_kani=true&JigyosyoCd=2693300135-00&ServiceCd=720&Type=search", "url2": "http://ashiginu.or.jp/" }, "geometry": { "type": "Point", "coordinates": [ 135.116538025680512, 35.654619128256066 ] } },
{ "type": "Feature", "properties": { "内容": "はなまるデイサービス【認知症対応型通所介護】京都府京丹後市弥栄町堤743-7", "url": "https://www.kaigokensaku.mhlw.go.jp/26/index.php?action_kouhyou_detail_004_kani=true&JigyosyoCd=2693300077-00&ServiceCd=720&Type=search", "url2": "hanamarudei@yahoo.co.jp" }, "geometry": { "type": "Point", "coordinates": [ 135.091953399999966, 35.6547789 ] } },
{ "type": "Feature", "properties": { "内容": "認知症対応型通所介護事業所　やぎ詩の郷【認知症対応型通所介護】京都府南丹市八木町刑部片山20番地7", "url": "https://www.kaigokensaku.mhlw.go.jp/26/index.php?action_kouhyou_detail_004_kani=true&JigyosyoCd=2673400046-00&ServiceCd=720&Type=search", "url2": "http://care-net.biz/26/area3yagisato/" }, "geometry": { "type": "Point", "coordinates": [ 135.534554299999968, 35.0835134 ] } },
{ "type": "Feature", "properties": { "内容": "ラポールデイサービスセンター【認知症対応型通所介護】京都府南丹市八木町諸畑後町１８番地", "url": "https://www.kaigokensaku.mhlw.go.jp/26/index.php?action_kouhyou_detail_004_kani=true&JigyosyoCd=2693400026-00&ServiceCd=720&Type=search", "url2": "http://www.misyoukai.com" }, "geometry": { "type": "Point", "coordinates": [ 135.532407, 35.103817 ] } },
{ "type": "Feature", "properties": { "内容": "医療法人啓信会　認知症対応型デイサービスセンター　リエゾン久御山ひしの里【認知症対応型通所介護】京都府久世郡久御山町佐古内屋敷９１－１", "url": "https://www.kaigokensaku.mhlw.go.jp/26/index.php?action_kouhyou_detail_004_kani=true&JigyosyoCd=2691100024-00&ServiceCd=720&Type=search", "url2": "http://www.kyoto-keishinkai.or.jp/liaizon-kumiyama/top/index.html" }, "geometry": { "type": "Point", "coordinates": [ 135.753856199999973, 34.8790056 ] } },
{ "type": "Feature", "properties": { "内容": "（福）精華町社会福祉協議会【認知症対応型通所介護】京都府相楽郡精華町南稲八妻砂留22-1", "url": "https://www.kaigokensaku.mhlw.go.jp/26/index.php?action_kouhyou_detail_004_kani=true&JigyosyoCd=2671400089-00&ServiceCd=720&Type=search", "url2": "http://seikashakyo.or.jp" }, "geometry": { "type": "Point", "coordinates": [ 135.777075599999989, 34.7538343 ] } },
{ "type": "Feature", "properties": { "内容": "デイサービスセンター南天【認知症対応型通所介護】京都府船井郡京丹波町橋爪町田105番地", "url": "https://www.kaigokensaku.mhlw.go.jp/26/index.php?action_kouhyou_detail_004_kani=true&JigyosyoCd=2691500033-00&ServiceCd=720&Type=search", "url2": "https://yamabikokai-kyoto.com" }, "geometry": { "type": "Point", "coordinates": [ 135.3788889, 35.1780458 ] } },
{ "type": "Feature", "properties": { "内容": "介護ハウスうえもり【認知症対応型通所介護】明石６４２－２", "url": "https://www.kaigokensaku.mhlw.go.jp/26/index.php?action_kouhyou_detail_004_kani=true&JigyosyoCd=2692000041-00&ServiceCd=720&Type=search", "url2": "http://uemori201.com" }, "geometry": { "type": "Point", "coordinates": [ 135.1098902, 35.5168409 ] } },
{ "type": "Feature", "properties": { "内容": "岩滝あじさい苑ひより【認知症対応型通所介護】京都府与謝郡与謝野町岩滝98-1岩滝コミュニティセンター内", "url": "https://www.kaigokensaku.mhlw.go.jp/26/index.php?action_kouhyou_detail_004_kani=true&JigyosyoCd=2692000090-00&ServiceCd=720&Type=search", "url2": "yosagun-fukushikai.net" }, "geometry": { "type": "Point", "coordinates": [ 135.158443799999986, 35.5723965 ] } }
]
}
