{
"type": "FeatureCollection",
"name": "geo_26_短期入所療養介護（介護老人保健施設）",
"crs": { "type": "name", "properties": { "name": "urn:ogc:def:crs:OGC:1.3:CRS84" } },
"features": [
{ "type": "Feature", "properties": { "内容": "介護老人保健施設ライブリィきぬかけ【短期入所療養介護（介護老人保健施設）】京都市北区大北山原谷乾町127-1", "url": "https://www.kaigokensaku.mhlw.go.jp/26/index.php?action_kouhyou_detail_004_kani=true&JigyosyoCd=2650180017-00&ServiceCd=220&Type=search", "url2": "http://www.nananokai.com/" }, "geometry": { "type": "Point", "coordinates": [ 135.71878849999996, 35.0443629 ] } },
{ "type": "Feature", "properties": { "内容": "介護老人保健施設「がくさい」【短期入所療養介護（介護老人保健施設）】京都市北区鷹峯土天井町54番地", "url": "https://www.kaigokensaku.mhlw.go.jp/26/index.php?action_kouhyou_detail_004_kani=true&JigyosyoCd=2650180025-00&ServiceCd=220&Type=search", "url2": "https://gakusai.or.jp/rouken" }, "geometry": { "type": "Point", "coordinates": [ 135.732598400000029, 35.0527762 ] } },
{ "type": "Feature", "properties": { "内容": "介護老人保健施設　おおはら雅の郷【短期入所療養介護（介護老人保健施設）】京都市左京区大原野村町514", "url": "https://www.kaigokensaku.mhlw.go.jp/26/index.php?action_kouhyou_detail_004_kani=true&JigyosyoCd=2650680073-00&ServiceCd=220&Type=search", "url2": "http://www.kouryokai.jp/" }, "geometry": { "type": "Point", "coordinates": [ 135.819121399999972, 35.111907 ] } },
{ "type": "Feature", "properties": { "内容": "医療法人稲門会　介護老人保健施設フェアウインドきの【短期入所療養介護（介護老人保健施設）】京都市左京区岩倉幡枝町2250", "url": "https://www.kaigokensaku.mhlw.go.jp/26/index.php?action_kouhyou_detail_004_kani=true&JigyosyoCd=2650680081-00&ServiceCd=220&Type=search", "url2": "http://www.toumonkai.net/" }, "geometry": { "type": "Point", "coordinates": [ 135.77431409999997, 35.0696551 ] } },
{ "type": "Feature", "properties": { "内容": "介護老人保健施設　博寿苑【短期入所療養介護（介護老人保健施設）】京都市左京区大原戸寺町383", "url": "https://www.kaigokensaku.mhlw.go.jp/26/index.php?action_kouhyou_detail_004_kani=true&JigyosyoCd=2650680016-00&ServiceCd=220&Type=search", "url2": "http://www.kouryokai.jp" }, "geometry": { "type": "Point", "coordinates": [ 135.8217588, 35.1044158 ] } },
{ "type": "Feature", "properties": { "内容": "介護老人保健施設　しずはうす【短期入所療養介護（介護老人保健施設）】京都市左京区静市静原町５４８", "url": "https://www.kaigokensaku.mhlw.go.jp/26/index.php?action_kouhyou_detail_004_kani=true&JigyosyoCd=2650680032-00&ServiceCd=220&Type=search", "url2": "http://www.toumonkai.net/" }, "geometry": { "type": "Point", "coordinates": [ 135.779902399999969, 35.1034372 ] } },
{ "type": "Feature", "properties": { "内容": "介護老人保健施設　友々苑【短期入所療養介護（介護老人保健施設）】京都市左京区静市市原町447-1", "url": "https://www.kaigokensaku.mhlw.go.jp/26/index.php?action_kouhyou_detail_004_kani=true&JigyosyoCd=2650680040-00&ServiceCd=220&Type=search", "url2": "https://www.yuyuen.or.jp/" }, "geometry": { "type": "Point", "coordinates": [ 135.75624629999993, 35.0835007 ] } },
{ "type": "Feature", "properties": { "内容": "バプテスト老人保健施設【短期入所療養介護（介護老人保健施設）】京都市左京区北白川山ノ元町47", "url": "https://www.kaigokensaku.mhlw.go.jp/26/index.php?action_kouhyou_detail_004_kani=true&JigyosyoCd=2650680057-00&ServiceCd=220&Type=search", "url2": "http://www.jbh.or.jp/roken/" }, "geometry": { "type": "Point", "coordinates": [ 135.796275373047507, 35.033959118714087 ] } },
{ "type": "Feature", "properties": { "内容": "医療法人三幸会　介護老人保健施設紫雲苑【短期入所療養介護（介護老人保健施設）】京都府京都市左京区岩倉上蔵町303番地", "url": "https://www.kaigokensaku.mhlw.go.jp/26/index.php?action_kouhyou_detail_004_kani=true&JigyosyoCd=2650680024-00&ServiceCd=220&Type=search", "url2": "http://www.sankokai.jp/" }, "geometry": { "type": "Point", "coordinates": [ 135.780827400000021, 35.0800955 ] } },
{ "type": "Feature", "properties": { "内容": "介護老人保健施設　洛和ヴィライリオス【短期入所療養介護（介護老人保健施設）】京都市中京区聚楽廻西町186", "url": "https://www.kaigokensaku.mhlw.go.jp/26/index.php?action_kouhyou_detail_004_kani=true&JigyosyoCd=2650380013-00&ServiceCd=220&Type=search", "url2": "http://www.rakuwa.or.jp" }, "geometry": { "type": "Point", "coordinates": [ 135.7394011, 35.0173381 ] } },
{ "type": "Feature", "properties": { "内容": "介護老人保健施設西の京【短期入所療養介護（介護老人保健施設）】京都市中京区西ノ京小堀池町16番地", "url": "https://www.kaigokensaku.mhlw.go.jp/26/index.php?action_kouhyou_detail_004_kani=true&JigyosyoCd=2650380021-00&ServiceCd=220&Type=search", "url2": "http://www.hoken-fukushi.or.jp" }, "geometry": { "type": "Point", "coordinates": [ 135.726407900000027, 35.0145713 ] } },
{ "type": "Feature", "properties": { "内容": "社会医療法人健康会　介護老人保健施設ぬくもりの里【短期入所療養介護（介護老人保健施設）】京都市下京区七条御所ノ内西町68", "url": "https://www.kaigokensaku.mhlw.go.jp/26/index.php?action_kouhyou_detail_004_kani=true&JigyosyoCd=2650480029-00&ServiceCd=220&Type=search", "url2": "http://www.kyotominami.or.jp/" }, "geometry": { "type": "Point", "coordinates": [ 135.728216099475048, 34.987333305046008 ] } },
{ "type": "Feature", "properties": { "内容": "介護老人保健施設じゅんぷう【短期入所療養介護（介護老人保健施設）】京都府京都市下京区西堀川通松原下る橋橘町1番地", "url": "https://www.kaigokensaku.mhlw.go.jp/26/index.php?action_kouhyou_detail_004_kani=true&JigyosyoCd=2650480037-00&ServiceCd=220&Type=search", "url2": "http://www.junepooh.com" }, "geometry": { "type": "Point", "coordinates": [ 135.751692476690664, 34.998712114247951 ] } },
{ "type": "Feature", "properties": { "内容": "介護老人保健施設マムクオーレⅡ【短期入所療養介護（介護老人保健施設）】唐橋羅城門町38マム・スクエア内", "url": "https://www.kaigokensaku.mhlw.go.jp/26/index.php?action_kouhyou_detail_004_kani=true&JigyosyoCd=2650580026-00&ServiceCd=220&Type=search", "url2": "http://www.dojinkai.com" }, "geometry": { "type": "Point", "coordinates": [ 135.740476699999988, 34.9792422 ] } },
{ "type": "Feature", "properties": { "内容": "介護老人保健施設　マムクオーレ【短期入所療養介護（介護老人保健施設）】京都市南区吉祥院南落合町40番地3", "url": "https://www.kaigokensaku.mhlw.go.jp/26/index.php?action_kouhyou_detail_004_kani=true&JigyosyoCd=2650580018-00&ServiceCd=220&Type=search", "url2": "http://www.dojinkai.com/mam/" }, "geometry": { "type": "Point", "coordinates": [ 135.74043759999995, 34.9729894 ] } },
{ "type": "Feature", "properties": { "内容": "介護老人保健施設　リーベン嵯峨野【短期入所療養介護（介護老人保健施設）】京都市右京区常盤東ノ町22番5", "url": "https://www.kaigokensaku.mhlw.go.jp/26/index.php?action_kouhyou_detail_004_kani=true&JigyosyoCd=2650780014-00&ServiceCd=220&Type=search", "url2": "http://lieben.kyoto/" }, "geometry": { "type": "Point", "coordinates": [ 135.709356500000013, 35.0199013 ] } },
{ "type": "Feature", "properties": { "内容": "京都市京北介護老人保健施設【短期入所療養介護（介護老人保健施設）】京都市右京区京北下中町鳥谷３番地", "url": "https://www.kaigokensaku.mhlw.go.jp/26/index.php?action_kouhyou_detail_004_kani=true&JigyosyoCd=2650780030-00&ServiceCd=220&Type=search", "url2": "http://www.kch-org.jp/keihoku/" }, "geometry": { "type": "Point", "coordinates": [ 135.634392199999979, 35.1980529 ] } },
{ "type": "Feature", "properties": { "内容": "介護老人保健施設マリアンヌ【短期入所療養介護（介護老人保健施設）】京都府京都市右京区梅津中倉町10", "url": "https://www.kaigokensaku.mhlw.go.jp/26/index.php?action_kouhyou_detail_004_kani=true&JigyosyoCd=2650780048-00&ServiceCd=220&Type=search", "url2": "http://www.kenshokai.group" }, "geometry": { "type": "Point", "coordinates": [ 135.692011399999956, 35.0025806 ] } },
{ "type": "Feature", "properties": { "内容": "介護老人保健施設　ケア・スポット梅津【短期入所療養介護（介護老人保健施設）】京都府京都市右京区梅津尻溝町66-1", "url": "https://www.kaigokensaku.mhlw.go.jp/26/index.php?action_kouhyou_detail_004_kani=true&JigyosyoCd=2650780022-00&ServiceCd=220&Type=search", "url2": "http://carespotumezu.jimdo.com/" }, "geometry": { "type": "Point", "coordinates": [ 135.696158200000013, 35.0006169 ] } },
{ "type": "Feature", "properties": { "内容": "介護老人保健施設　醍醐の里【短期入所療養介護（介護老人保健施設）】京都府京都市伏見区醍醐内ケ井戸19番地1", "url": "https://www.kaigokensaku.mhlw.go.jp/26/index.php?action_kouhyou_detail_004_kani=true&JigyosyoCd=2650980085-00&ServiceCd=220&Type=search", "url2": "http://www.daigonosato.or.jp" }, "geometry": { "type": "Point", "coordinates": [ 135.823045800000045, 34.9636621 ] } },
{ "type": "Feature", "properties": { "内容": "介護老人保健施設　洛和ヴィラウラノス【短期入所療養介護（介護老人保健施設）】京都府京都市伏見区淀美豆町1133番地", "url": "https://www.kaigokensaku.mhlw.go.jp/26/index.php?action_kouhyou_detail_004_kani=true&JigyosyoCd=2650980143-00&ServiceCd=220&Type=search", "url2": "www.rakuwa.or.jp" }, "geometry": { "type": "Point", "coordinates": [ 135.706409962565601, 34.895727798806725 ] } },
{ "type": "Feature", "properties": { "内容": "特定医療法人　桃仁会　老人保健施設　桃寿苑【短期入所療養介護（介護老人保健施設）】京都府京都市伏見区向島津田町235-1", "url": "https://www.kaigokensaku.mhlw.go.jp/26/index.php?action_kouhyou_detail_004_kani=true&JigyosyoCd=2650980036-00&ServiceCd=220&Type=search", "url2": "http://www.tojinkai.jp" }, "geometry": { "type": "Point", "coordinates": [ 135.762381799999957, 34.9179121 ] } },
{ "type": "Feature", "properties": { "内容": "老人保健施設アールそせい【短期入所療養介護（介護老人保健施設）】京都市伏見区中島中道町87", "url": "https://www.kaigokensaku.mhlw.go.jp/26/index.php?action_kouhyou_detail_004_kani=true&JigyosyoCd=2650980010-00&ServiceCd=220&Type=search", "url2": "http://www.soseikai.or.jp/rsosei" }, "geometry": { "type": "Point", "coordinates": [ 135.746785207078972, 34.947136312955521 ] } },
{ "type": "Feature", "properties": { "内容": "介護老人保健施設　京しみず【短期入所療養介護（介護老人保健施設）】京都府京都市伏見区羽束師古川町177番地", "url": "https://www.kaigokensaku.mhlw.go.jp/26/index.php?action_kouhyou_detail_004_kani=true&JigyosyoCd=2650980044-00&ServiceCd=220&Type=search", "url2": "https://ksmcs.jp/ks/" }, "geometry": { "type": "Point", "coordinates": [ 135.723007199999984, 34.9250334 ] } },
{ "type": "Feature", "properties": { "内容": "深草京しみずショートステイ【短期入所療養介護（介護老人保健施設）】京都府京都市伏見区深草越後屋敷町１７番地", "url": "https://www.kaigokensaku.mhlw.go.jp/26/index.php?action_kouhyou_detail_004_kani=true&JigyosyoCd=2650980127-00&ServiceCd=220&Type=search", "url2": "http://ksmcs.jp/" }, "geometry": { "type": "Point", "coordinates": [ 135.763945899999953, 34.9493644 ] } },
{ "type": "Feature", "properties": { "内容": "老人保健施設　第2アールそせい【短期入所療養介護（介護老人保健施設）】京都市伏見区下鳥羽上三栖町129番地", "url": "https://www.kaigokensaku.mhlw.go.jp/26/index.php?action_kouhyou_detail_004_kani=true&JigyosyoCd=2650980028-00&ServiceCd=220&Type=search", "url2": "http://www.soseikai.or.jp" }, "geometry": { "type": "Point", "coordinates": [ 135.746219399999973, 34.9332713 ] } },
{ "type": "Feature", "properties": { "内容": "介護老人保健施設ハーモニーこが【短期入所療養介護（介護老人保健施設）】京都市伏見区久我森の宮町3-6", "url": "https://www.kaigokensaku.mhlw.go.jp/26/index.php?action_kouhyou_detail_004_kani=true&JigyosyoCd=2650980051-00&ServiceCd=220&Type=search", "url2": "http://www.kurashino-harmony.or.jp" }, "geometry": { "type": "Point", "coordinates": [ 135.730598699999973, 34.9415231 ] } },
{ "type": "Feature", "properties": { "内容": "介護老人保健施設　　第二京しみず【短期入所療養介護（介護老人保健施設）】京都市伏見区向島清水町45-1", "url": "https://www.kaigokensaku.mhlw.go.jp/26/index.php?action_kouhyou_detail_004_kani=true&JigyosyoCd=2650980077-00&ServiceCd=220&Type=search", "url2": "http://www.fushimi-shimizu.jp/" }, "geometry": { "type": "Point", "coordinates": [ 135.783441, 34.9198677 ] } },
{ "type": "Feature", "properties": { "内容": "老人保健施設　白寿【短期入所療養介護（介護老人保健施設）】京都市伏見区石田森南町9番地", "url": "https://www.kaigokensaku.mhlw.go.jp/26/index.php?action_kouhyou_detail_004_kani=true&JigyosyoCd=2650980119-00&ServiceCd=220&Type=search", "url2": "http://www.takedahp.or.jp/group/welfare/hakuju/index.html" }, "geometry": { "type": "Point", "coordinates": [ 135.805061300000034, 34.9390305 ] } },
{ "type": "Feature", "properties": { "内容": "介護老人保健施設あじさいガーデン伏見短期入所療養介護【短期入所療養介護（介護老人保健施設）】京都府京都市伏見区向島ニノ丸町151番81", "url": "https://www.kaigokensaku.mhlw.go.jp/26/index.php?action_kouhyou_detail_004_kani=true&JigyosyoCd=2650980069-00&ServiceCd=220&Type=search", "url2": "http://www.ajisai-kosyokai.com" }, "geometry": { "type": "Point", "coordinates": [ 135.769515, 34.914968 ] } },
{ "type": "Feature", "properties": { "内容": "医療法人社団千春会介護老人保健桃山【短期入所療養介護（介護老人保健施設）】京都府京都市伏見区桃山与五郎町1-589", "url": "https://www.kaigokensaku.mhlw.go.jp/26/index.php?action_kouhyou_detail_004_kani=true&JigyosyoCd=2650980135-00&ServiceCd=220&Type=search", "url2": "http://www.senshunkai.or.jp/" }, "geometry": { "type": "Point", "coordinates": [ 135.7817358, 34.9297441 ] } },
{ "type": "Feature", "properties": { "内容": "介護老人保健施設　香東園やましな【短期入所療養介護（介護老人保健施設）】京都府京都市山科区西野野色町15-88", "url": "https://www.kaigokensaku.mhlw.go.jp/26/index.php?action_kouhyou_detail_004_kani=true&JigyosyoCd=2654180070-00&ServiceCd=220&Type=search", "url2": "http://www.koutouen.com/yamashina/" }, "geometry": { "type": "Point", "coordinates": [ 135.8045591, 34.9856813 ] } },
{ "type": "Feature", "properties": { "内容": "一般社団法人愛生会　介護老人保健施設おおやけの里【短期入所療養介護（介護老人保健施設）】京都市山科区大宅向山10番5", "url": "https://www.kaigokensaku.mhlw.go.jp/26/index.php?action_kouhyou_detail_004_kani=true&JigyosyoCd=2654180021-00&ServiceCd=220&Type=search", "url2": "http://www.aiseikaihp.or.jp/" }, "geometry": { "type": "Point", "coordinates": [ 135.82083769999997, 34.9646703 ] } },
{ "type": "Feature", "properties": { "内容": "医療法人医仁会　老人保健施設いわやの里【短期入所療養介護（介護老人保健施設）】京都府京都市山科区大宅古海道町52番地", "url": "https://www.kaigokensaku.mhlw.go.jp/26/index.php?action_kouhyou_detail_004_kani=true&JigyosyoCd=2654180013-00&ServiceCd=220&Type=search", "url2": "http://www.takedahp.or.jp/" }, "geometry": { "type": "Point", "coordinates": [ 135.826431599999978, 34.9707753 ] } },
{ "type": "Feature", "properties": { "内容": "介護老人保健施設アビイロードやましな短期入所療養介護【短期入所療養介護（介護老人保健施設）】京都府京都市山科区勧修寺南大日33-1", "url": "https://www.kaigokensaku.mhlw.go.jp/26/index.php?action_kouhyou_detail_004_kani=true&JigyosyoCd=2654180054-00&ServiceCd=220&Type=search", "url2": "http://www.toumonkai.net/" }, "geometry": { "type": "Point", "coordinates": [ 135.802467400000069, 34.9551595 ] } },
{ "type": "Feature", "properties": { "内容": "介護老人保健施設　はーとふる東山【短期入所療養介護（介護老人保健施設）】京都市山科区日ノ岡夷谷町11番地", "url": "https://www.kaigokensaku.mhlw.go.jp/26/index.php?action_kouhyou_detail_004_kani=true&JigyosyoCd=2654180047-00&ServiceCd=220&Type=search", "url2": "http://www.juzenkai.or.jp/" }, "geometry": { "type": "Point", "coordinates": [ 135.7943603, 35.0003876 ] } },
{ "type": "Feature", "properties": { "内容": "医療法人社団洛和会介護老人保健施設洛和ヴィラアエル【短期入所療養介護（介護老人保健施設）】京都府京都市山科区小山鎮守町29番1", "url": "https://www.kaigokensaku.mhlw.go.jp/26/index.php?action_kouhyou_detail_004_kani=true&JigyosyoCd=2654180062-00&ServiceCd=220&Type=search", "url2": "http://www.rakuwa.or.jp" }, "geometry": { "type": "Point", "coordinates": [ 135.833629852702529, 34.987853402049687 ] } },
{ "type": "Feature", "properties": { "内容": "医療法人啓友会　洛西けいゆうの里【短期入所療養介護（介護老人保健施設）】京都府京都市西京区大枝東長町1-36", "url": "https://www.kaigokensaku.mhlw.go.jp/26/index.php?action_kouhyou_detail_004_kani=true&JigyosyoCd=2654080015-00&ServiceCd=220&Type=search", "url2": "http://www.keiyukai-nakajima.jp" }, "geometry": { "type": "Point", "coordinates": [ 135.67909, 34.9671865 ] } },
{ "type": "Feature", "properties": { "内容": "医療法人清仁会　介護老人保健施設シミズひまわりの里【短期入所療養介護（介護老人保健施設）】京都市西京区大枝沓掛町13-362", "url": "https://www.kaigokensaku.mhlw.go.jp/26/index.php?action_kouhyou_detail_004_kani=true&JigyosyoCd=2654080023-00&ServiceCd=220&Type=search", "url2": "https://www.shimizu-hospital.or.jp./" }, "geometry": { "type": "Point", "coordinates": [ 135.665704600000026, 34.974847 ] } },
{ "type": "Feature", "properties": { "内容": "介護老人保健施設「さくら苑」【短期入所療養介護（介護老人保健施設）】京都府福知山市字堀小字大岩谷3374番地", "url": "https://www.kaigokensaku.mhlw.go.jp/26/index.php?action_kouhyou_detail_004_kani=true&JigyosyoCd=2652680022-00&ServiceCd=220&Type=search", "url2": "http://www.fukuchikai.or.jp/sakura/" }, "geometry": { "type": "Point", "coordinates": [ 135.123982514927661, 35.270535539084555 ] } },
{ "type": "Feature", "properties": { "内容": "舞鶴共済病院　介護老人保健施設　すこやかの森【短期入所療養介護（介護老人保健施設）】京都府舞鶴市字引土630番地", "url": "https://www.kaigokensaku.mhlw.go.jp/26/index.php?action_kouhyou_detail_004_kani=true&JigyosyoCd=2652780012-00&ServiceCd=220&Type=search", "url2": "http://www.sukoyakanomori.com" }, "geometry": { "type": "Point", "coordinates": [ 135.3235929, 35.4364508 ] } },
{ "type": "Feature", "properties": { "内容": "介護老人保健施設エスペラル東舞鶴【短期入所療養介護（介護老人保健施設）】京都府舞鶴市字大波下小字前田765番16", "url": "https://www.kaigokensaku.mhlw.go.jp/26/index.php?action_kouhyou_detail_004_kani=true&JigyosyoCd=2652780038-00&ServiceCd=220&Type=search", "url2": "https://esp.iseikaihp.com/fcl/esp-hm/" }, "geometry": { "type": "Point", "coordinates": [ 135.399167135847733, 35.502375924855315 ] } },
{ "type": "Feature", "properties": { "内容": "介護老人保健施設アザレア舞鶴【短期入所療養介護（介護老人保健施設）】京都府舞鶴市大字和田小字中田１０５５－１", "url": "https://www.kaigokensaku.mhlw.go.jp/26/index.php?action_kouhyou_detail_004_kani=true&JigyosyoCd=2652780020-00&ServiceCd=220&Type=search", "url2": "https://seihoukai-grp.jp/facility_post/maizuru" }, "geometry": { "type": "Point", "coordinates": [ 135.341681707074031, 35.472180250558914 ] } },
{ "type": "Feature", "properties": { "内容": "老人保健施設あやべ【短期入所療養介護（介護老人保健施設）】綾部市小畑町うずいの98番地の1", "url": "https://www.kaigokensaku.mhlw.go.jp/26/index.php?action_kouhyou_detail_004_kani=true&JigyosyoCd=2651880011-00&ServiceCd=220&Type=search", "url2": "http://ninokunifukusikai.com/" }, "geometry": { "type": "Point", "coordinates": [ 135.203885500000069, 35.344468 ] } },
{ "type": "Feature", "properties": { "内容": "介護老人保健施設　京都綾部さくらホーム【短期入所療養介護（介護老人保健施設）】綾部市高津町遠所1番地611", "url": "https://www.kaigokensaku.mhlw.go.jp/26/index.php?action_kouhyou_detail_004_kani=true&JigyosyoCd=2651880029-00&ServiceCd=220&Type=search", "url2": "http://ayabesakura.jp/" }, "geometry": { "type": "Point", "coordinates": [ 135.2170489, 35.3041432 ] } },
{ "type": "Feature", "properties": { "内容": "医療法人徳洲会　宇治徳洲苑【短期入所療養介護（介護老人保健施設）】京都府宇治市槇島町石橋145番", "url": "https://www.kaigokensaku.mhlw.go.jp/26/index.php?action_kouhyou_detail_004_kani=true&JigyosyoCd=2651280048-00&ServiceCd=220&Type=search", "url2": "https://www.ujitoku.or.jp/md-intro/medical-department/tokusyuuen/" }, "geometry": { "type": "Point", "coordinates": [ 135.78648290000001, 34.9033963 ] } },
{ "type": "Feature", "properties": { "内容": "平成老人保健施設【短期入所療養介護（介護老人保健施設）】京都府宇治市五ケ庄芝ノ東５４－２", "url": "https://www.kaigokensaku.mhlw.go.jp/26/index.php?action_kouhyou_detail_004_kani=true&JigyosyoCd=2651280030-00&ServiceCd=220&Type=search", "url2": "http://www.uji-hosp.or.jp/" }, "geometry": { "type": "Point", "coordinates": [ 135.801567200000022, 34.9173823 ] } },
{ "type": "Feature", "properties": { "内容": "志津川五和の園老人保健施設【短期入所療養介護（介護老人保健施設）】京都府宇治市志津川南詰12番地", "url": "https://www.kaigokensaku.mhlw.go.jp/26/index.php?action_kouhyou_detail_004_kani=true&JigyosyoCd=2651280014-00&ServiceCd=220&Type=search", "url2": "http://ituwanosono.sakura.ne.jp" }, "geometry": { "type": "Point", "coordinates": [ 135.8246656, 34.8867468 ] } },
{ "type": "Feature", "properties": { "内容": "介護老人保健施設リハ・ヴィラなぎさ苑【短期入所療養介護（介護老人保健施設）】京都府宮津市字須津2268番地の1", "url": "https://www.kaigokensaku.mhlw.go.jp/26/index.php?action_kouhyou_detail_004_kani=true&JigyosyoCd=2652180015-00&ServiceCd=220&Type=search", "url2": "http://www.hokuseikai.or.jp/nagisaen/" }, "geometry": { "type": "Point", "coordinates": [ 135.159832899999969, 35.5534904 ] } },
{ "type": "Feature", "properties": { "内容": "介護老人保健施設　陽生苑【短期入所療養介護（介護老人保健施設）】京都府亀岡市篠町篠洗川47-1", "url": "https://www.kaigokensaku.mhlw.go.jp/26/index.php?action_kouhyou_detail_004_kani=true&JigyosyoCd=2651680023-00&ServiceCd=220&Type=search", "url2": "https://youseien.sakura.ne.jp" }, "geometry": { "type": "Point", "coordinates": [ 135.603348, 34.9989933 ] } },
{ "type": "Feature", "properties": { "内容": "介護老人保健施設こもれび【短期入所療養介護（介護老人保健施設）】京都府亀岡市千代川町北ノ庄向条24番地", "url": "https://www.kaigokensaku.mhlw.go.jp/26/index.php?action_kouhyou_detail_004_kani=true&JigyosyoCd=2651680015-00&ServiceCd=220&Type=search", "url2": "http://www.osawa-komorebi.com" }, "geometry": { "type": "Point", "coordinates": [ 135.528977, 35.052152 ] } },
{ "type": "Feature", "properties": { "内容": "医療法人啓信会介護老人保健施設萌木の村【短期入所療養介護（介護老人保健施設）】京都府城陽市寺田奥山1-6", "url": "https://www.kaigokensaku.mhlw.go.jp/26/index.php?action_kouhyou_detail_004_kani=true&JigyosyoCd=2652880010-00&ServiceCd=220&Type=search", "url2": "http://www.kyoto-keishinkai.or.jp/moegi/shisetu/index.html" }, "geometry": { "type": "Point", "coordinates": [ 135.802052199999906, 34.857027399999986 ] } },
{ "type": "Feature", "properties": { "内容": "介護老人保健施設　煌【短期入所療養介護（介護老人保健施設）】城陽市長池五社ヶ谷14番地１", "url": "https://www.kaigokensaku.mhlw.go.jp/26/index.php?action_kouhyou_detail_004_kani=true&JigyosyoCd=2652880028-00&ServiceCd=220&Type=search", "url2": "http://minamiyamashiro.com/" }, "geometry": { "type": "Point", "coordinates": [ 135.798688800000036, 34.8405679 ] } },
{ "type": "Feature", "properties": { "内容": "介護老人保健施設　ケアセンター回生【短期入所療養介護（介護老人保健施設）】京都府向日市物集女町中海道19番地の5", "url": "https://www.kaigokensaku.mhlw.go.jp/26/index.php?action_kouhyou_detail_004_kani=true&JigyosyoCd=2653180014-00&ServiceCd=220&Type=search", "url2": "http://www.kaiseikai.or.jp" }, "geometry": { "type": "Point", "coordinates": [ 135.691264, 34.9627287 ] } },
{ "type": "Feature", "properties": { "内容": "老人保健施設　アゼリアガーデン【短期入所療養介護（介護老人保健施設）】長岡京市友岡4丁目114番地", "url": "https://www.kaigokensaku.mhlw.go.jp/26/index.php?action_kouhyou_detail_004_kani=true&JigyosyoCd=2653080016-00&ServiceCd=220&Type=search", "url2": "http://www.nagaoka.or.jp" }, "geometry": { "type": "Point", "coordinates": [ 135.690021152114895, 34.913267849721926 ] } },
{ "type": "Feature", "properties": { "内容": "医療法人同仁会（社団）介護老人保健施設マムフローラ【短期入所療養介護（介護老人保健施設）】長岡京市奥海印寺奥ノ院25-2", "url": "https://www.kaigokensaku.mhlw.go.jp/26/index.php?action_kouhyou_detail_004_kani=true&JigyosyoCd=2653080024-00&ServiceCd=220&Type=search", "url2": "https://www.dojinkai.com/mam/brands/mam_flora.html" }, "geometry": { "type": "Point", "coordinates": [ 135.6752732, 34.9284259 ] } },
{ "type": "Feature", "properties": { "内容": "介護老人保健施設　春風【短期入所療養介護（介護老人保健施設）】長岡京市久貝１－６－２３", "url": "https://www.kaigokensaku.mhlw.go.jp/26/index.php?action_kouhyou_detail_004_kani=true&JigyosyoCd=2653080032-00&ServiceCd=220&Type=search", "url2": "http://www.senshunkai.or.jp/" }, "geometry": { "type": "Point", "coordinates": [ 135.69696691415561, 34.911898344226742 ] } },
{ "type": "Feature", "properties": { "内容": "介護老人保健施設　西山天王山【短期入所療養介護（介護老人保健施設）】京都府長岡京市友岡川原25-3", "url": "https://www.kaigokensaku.mhlw.go.jp/26/index.php?action_kouhyou_detail_004_kani=true&JigyosyoCd=2653080040-00&ServiceCd=220&Type=search", "url2": "senshunkai.or.jp" }, "geometry": { "type": "Point", "coordinates": [ 135.687824400000011, 34.9137384 ] } },
{ "type": "Feature", "properties": { "内容": "医療法人社団医聖会　介護老人保健施設梨の里【短期入所療養介護（介護老人保健施設）】京都府八幡市八幡柿木垣内25番地1", "url": "https://www.kaigokensaku.mhlw.go.jp/26/index.php?action_kouhyou_detail_004_kani=true&JigyosyoCd=2652980026-00&ServiceCd=220&Type=search", "url2": "http://www.iseikai.jp" }, "geometry": { "type": "Point", "coordinates": [ 135.707487629360912, 34.87046604886617 ] } },
{ "type": "Feature", "properties": { "内容": "介護老人保健施設　石清水【短期入所療養介護（介護老人保健施設）】京都府八幡市川口別所66", "url": "https://www.kaigokensaku.mhlw.go.jp/26/index.php?action_kouhyou_detail_004_kani=true&JigyosyoCd=2652980018-00&ServiceCd=220&Type=search", "url2": "http://www.iseikai.jp/sisetsu/shimizu/" }, "geometry": { "type": "Point", "coordinates": [ 135.716983900000088, 34.874380800000019 ] } },
{ "type": "Feature", "properties": { "内容": "医療法人社団　石鎚会　介護老人保健施設　やすらぎ苑【短期入所療養介護（介護老人保健施設）】京田辺市同志社山手二丁目2番", "url": "https://www.kaigokensaku.mhlw.go.jp/26/index.php?action_kouhyou_detail_004_kani=true&JigyosyoCd=2653280012-00&ServiceCd=220&Type=search", "url2": "http://www.sekitetsukai.kyoto" }, "geometry": { "type": "Point", "coordinates": [ 135.776282255325327, 34.78974874091886 ] } },
{ "type": "Feature", "properties": { "内容": "京丹後市やさか老人保健施設ふくじゅ【短期入所療養介護（介護老人保健施設）】京都府京丹後市弥栄町溝谷5422番地の1", "url": "https://www.kaigokensaku.mhlw.go.jp/26/index.php?action_kouhyou_detail_004_kani=true&JigyosyoCd=2653380010-00&ServiceCd=220&Type=search", "url2": "http://yasaka-fukujyu.jp/" }, "geometry": { "type": "Point", "coordinates": [ 135.089611600000012, 35.6579286 ] } },
{ "type": "Feature", "properties": { "内容": "老人保健施設　はぎの里【短期入所療養介護（介護老人保健施設）】京都府南丹市日吉町保野田萩原１番地１", "url": "https://www.kaigokensaku.mhlw.go.jp/26/index.php?action_kouhyou_detail_004_kani=true&JigyosyoCd=2653480026-00&ServiceCd=220&Type=search", "url2": "http://web1.kcn.jp/haginosato/" }, "geometry": { "type": "Point", "coordinates": [ 135.488370800000013, 35.1830426 ] } },
{ "type": "Feature", "properties": { "内容": "介護老人保健施設　シミズふないの里【短期入所療養介護（介護老人保健施設）】京都府南丹市八木町西田山崎16", "url": "https://www.kaigokensaku.mhlw.go.jp/26/index.php?action_kouhyou_detail_004_kani=true&JigyosyoCd=2653480018-00&ServiceCd=220&Type=search", "url2": "http://www.shimizu-hospital.or.jp/kaigo/care/funai/index.php" }, "geometry": { "type": "Point", "coordinates": [ 135.540227956483477, 35.077575568266184 ] } },
{ "type": "Feature", "properties": { "内容": "介護老人保健施設　やましろ【短期入所療養介護（介護老人保健施設）】京都府木津川市木津駅前一丁目27番地", "url": "https://www.kaigokensaku.mhlw.go.jp/26/index.php?action_kouhyou_detail_004_kani=true&JigyosyoCd=2653580015-00&ServiceCd=220&Type=search", "url2": "http://www.yamashiro-hp.jp" }, "geometry": { "type": "Point", "coordinates": [ 135.82361531586912, 34.735972956391244 ] } },
{ "type": "Feature", "properties": { "内容": "医療法人啓信会介護老人保健施設ひしの里【短期入所療養介護（介護老人保健施設）】京都府久世郡久御山町佐古内屋敷81-1", "url": "https://www.kaigokensaku.mhlw.go.jp/26/index.php?action_kouhyou_detail_004_kani=true&JigyosyoCd=2651180016-00&ServiceCd=220&Type=search", "url2": "http://www.kyoto-keishinkai.or.jp/rouken_hishinosato/index.html" }, "geometry": { "type": "Point", "coordinates": [ 135.753031299999947, 34.8787639 ] } },
{ "type": "Feature", "properties": { "内容": "医療法人　社団　医聖会　介護老人保健施設　とちのき【短期入所療養介護（介護老人保健施設）】京都府相楽郡精華町精華台７丁目４番地１", "url": "https://www.kaigokensaku.mhlw.go.jp/26/index.php?action_kouhyou_detail_004_kani=true&JigyosyoCd=2651480010-00&ServiceCd=220&Type=search", "url2": "https://iseikai.jp" }, "geometry": { "type": "Point", "coordinates": [ 135.785896081475812, 34.748993568533322 ] } },
{ "type": "Feature", "properties": { "内容": "京丹波町介護療養型老人保健施設【短期入所療養介護（介護老人保健施設）】京都府船井郡京丹波町本庄今福５番地", "url": "https://www.kaigokensaku.mhlw.go.jp/26/index.php?action_kouhyou_detail_004_kani=true&JigyosyoCd=2651580033-00&ServiceCd=220&Type=search", "url2": "https://www.town.kyotamba.kyoto.jp" }, "geometry": { "type": "Point", "coordinates": [ 135.399195700000064, 35.2600786 ] } }
]
}
