{
"type": "FeatureCollection",
"name": "geo_26_特定施設入居者生活介護（有料老人ホーム）",
"crs": { "type": "name", "properties": { "name": "urn:ogc:def:crs:OGC:1.3:CRS84" } },
"features": [
{ "type": "Feature", "properties": { "内容": "有料老人ホーム　シルバーホーム衣笠【特定施設入居者生活介護（有料老人ホーム）】京都市北区衣笠赤阪町1番地", "url": "https://www.kaigokensaku.mhlw.go.jp/26/index.php?action_kouhyou_detail_004_kani=true&JigyosyoCd=2670100284-00&ServiceCd=331&Type=search", "url2": "https://dai5kyo.or.jp/silver-kinugasa/" }, "geometry": { "type": "Point", "coordinates": [ 135.723982500000034, 35.04108 ] } },
{ "type": "Feature", "properties": { "内容": "エクセレント北野【特定施設入居者生活介護（有料老人ホーム）】北野東紅梅町10番地", "url": "https://www.kaigokensaku.mhlw.go.jp/26/index.php?action_kouhyou_detail_004_kani=true&JigyosyoCd=2670101845-00&ServiceCd=331&Type=search", "url2": "https://www.excare.co.jp/facility/01/kitano/" }, "geometry": { "type": "Point", "coordinates": [ 135.733217380426026, 35.029866764515113 ] } },
{ "type": "Feature", "properties": { "内容": "アーバンヴィラ上賀茂プレミアム【特定施設入居者生活介護（有料老人ホーム）】京都府京都市北区上賀茂西河原町１２高齢者総合施設上賀茂", "url": "https://www.kaigokensaku.mhlw.go.jp/26/index.php?action_kouhyou_detail_004_kani=true&JigyosyoCd=2670101167-00&ServiceCd=331&Type=search", "url2": "http://www.urban-stylecare.co.jp" }, "geometry": { "type": "Point", "coordinates": [ 135.746872165606618, 35.066047460531699 ] } },
{ "type": "Feature", "properties": { "内容": "アーバンヴィラ京都神山クラシック【特定施設入居者生活介護（有料老人ホーム）】京都府京都市北区上賀茂壱町口町26番地", "url": "https://www.kaigokensaku.mhlw.go.jp/26/index.php?action_kouhyou_detail_004_kani=true&JigyosyoCd=2670101563-00&ServiceCd=331&Type=search", "url2": "https://www.urban-stylecare.co.jp" }, "geometry": { "type": "Point", "coordinates": [ 135.753224412025446, 35.070138958550395 ] } },
{ "type": "Feature", "properties": { "内容": "京都ヴィラ【特定施設入居者生活介護（有料老人ホーム）】京都府京都市北区上賀茂ケシ山1番地", "url": "https://www.kaigokensaku.mhlw.go.jp/26/index.php?action_kouhyou_detail_004_kani=true&JigyosyoCd=2670100029-00&ServiceCd=331&Type=search", "url2": "https://kyoto-villa.com" }, "geometry": { "type": "Point", "coordinates": [ 135.770247899999958, 35.06127 ] } },
{ "type": "Feature", "properties": { "内容": "介護付有料老人ホームたのしい家堀川今出川【特定施設入居者生活介護（有料老人ホーム）】京都市上京区今出川通大宮1丁東入ル北猪熊町295", "url": "https://www.kaigokensaku.mhlw.go.jp/26/index.php?action_kouhyou_detail_004_kani=true&JigyosyoCd=2670200647-00&ServiceCd=331&Type=search", "url2": "https://www.tanoshii-ie.jp/single072/" }, "geometry": { "type": "Point", "coordinates": [ 135.759385, 35.030168 ] } },
{ "type": "Feature", "properties": { "内容": "ライフピア八瀬大原Ⅰ番館【特定施設入居者生活介護（有料老人ホーム）】八瀬野瀬町108番地", "url": "https://www.kaigokensaku.mhlw.go.jp/26/index.php?action_kouhyou_detail_004_kani=true&JigyosyoCd=2670601141-00&ServiceCd=331&Type=search", "url2": "https://yase-lifepia.jp/" }, "geometry": { "type": "Point", "coordinates": [ 135.80860830000006, 35.0648613 ] } },
{ "type": "Feature", "properties": { "内容": "ベストライフ京都洛北【特定施設入居者生活介護（有料老人ホーム）】京都府京都市左京区岩倉長谷町416-1", "url": "https://www.kaigokensaku.mhlw.go.jp/26/index.php?action_kouhyou_detail_004_kani=true&JigyosyoCd=2670601422-00&ServiceCd=331&Type=search", "url2": null }, "geometry": { "type": "Point", "coordinates": [ 135.7898356, 35.0809302 ] } },
{ "type": "Feature", "properties": { "内容": "スーパー・コート京・四条大宮【特定施設入居者生活介護（有料老人ホーム）】京都府京都市中京区壬生坊城町14-8", "url": "https://www.kaigokensaku.mhlw.go.jp/26/index.php?action_kouhyou_detail_004_kani=true&JigyosyoCd=2670301312-00&ServiceCd=331&Type=search", "url2": "https://www.supercourt.jp/" }, "geometry": { "type": "Point", "coordinates": [ 135.7464009, 35.0043986 ] } },
{ "type": "Feature", "properties": { "内容": "介護付有料老人ホーム　プレザングラン京都円町【特定施設入居者生活介護（有料老人ホーム）】西ノ京塚本町3-1", "url": "https://www.kaigokensaku.mhlw.go.jp/26/index.php?action_kouhyou_detail_004_kani=true&JigyosyoCd=2670301460-00&ServiceCd=331&Type=search", "url2": "https://www.tanoshii-ie.jp/single122/" }, "geometry": { "type": "Point", "coordinates": [ 135.7274966, 35.0156323 ] } },
{ "type": "Feature", "properties": { "内容": "ウェルエイジみぶ【特定施設入居者生活介護（有料老人ホーム）】京都市中京区壬生梛ノ宮町31番地", "url": "https://www.kaigokensaku.mhlw.go.jp/26/index.php?action_kouhyou_detail_004_kani=true&JigyosyoCd=2670300132-00&ServiceCd=331&Type=search", "url2": "https://wellage-mibu.com" }, "geometry": { "type": "Point", "coordinates": [ 135.743776199999957, 35.0016924 ] } },
{ "type": "Feature", "properties": { "内容": "介護付有料老人ホーム　エクセレント西ノ京【特定施設入居者生活介護（有料老人ホーム）】京都府京都市中京区西ノ京南上合町３２番", "url": "https://www.kaigokensaku.mhlw.go.jp/26/index.php?action_kouhyou_detail_004_kani=true&JigyosyoCd=2670301049-00&ServiceCd=331&Type=search", "url2": "http://www.excare.co.jp/" }, "geometry": { "type": "Point", "coordinates": [ 135.731285299999968, 35.014932499999986 ] } },
{ "type": "Feature", "properties": { "内容": "ローズライフ京都【特定施設入居者生活介護（有料老人ホーム）】壬生東高田町1番地の23", "url": "https://www.kaigokensaku.mhlw.go.jp/26/index.php?action_kouhyou_detail_004_kani=true&JigyosyoCd=2670301528-00&ServiceCd=331&Type=search", "url2": "https://joylife.alsok.co.jp/facility/roselife/rl_kyoto/" }, "geometry": { "type": "Point", "coordinates": [ 135.735636307934584, 34.998357788045425 ] } },
{ "type": "Feature", "properties": { "内容": "夢眠ひがしやま【特定施設入居者生活介護（有料老人ホーム）】京都府京都市東山区東瓦町684", "url": "https://www.kaigokensaku.mhlw.go.jp/26/index.php?action_kouhyou_detail_004_kani=true&JigyosyoCd=2670919121-00&ServiceCd=331&Type=search", "url2": "https://muminhome.jp/higashiyama/" }, "geometry": { "type": "Point", "coordinates": [ 135.7744391, 34.9868775 ] } },
{ "type": "Feature", "properties": { "内容": "トラストガーデン四条烏丸【特定施設入居者生活介護（有料老人ホーム）】松原通新町東入中野之町173-1", "url": "https://www.kaigokensaku.mhlw.go.jp/26/index.php?action_kouhyou_detail_004_kani=true&JigyosyoCd=2670400965-00&ServiceCd=331&Type=search", "url2": "https://www.trustgarden.jp" }, "geometry": { "type": "Point", "coordinates": [ 135.7570174, 34.998813 ] } },
{ "type": "Feature", "properties": { "内容": "トラストガーデン四条烏丸【特定施設入居者生活介護（有料老人ホーム）】松原通新町東入中野之町173-1", "url": "https://www.kaigokensaku.mhlw.go.jp/26/index.php?action_kouhyou_detail_004_kani=true&JigyosyoCd=2670401195-00&ServiceCd=331&Type=search", "url2": "https://www.trustgarden.jp/" }, "geometry": { "type": "Point", "coordinates": [ 135.7571998, 34.9990699 ] } },
{ "type": "Feature", "properties": { "内容": "CharmSuite（チャームスィート）京都桂川【特定施設入居者生活介護（有料老人ホーム）】京都市南区久世中久世町1-66-1", "url": "https://www.kaigokensaku.mhlw.go.jp/26/index.php?action_kouhyou_detail_004_kani=true&JigyosyoCd=2670500459-00&ServiceCd=331&Type=search", "url2": "http://www.charmcc.jp/" }, "geometry": { "type": "Point", "coordinates": [ 135.710773300000028, 34.9609706 ] } },
{ "type": "Feature", "properties": { "内容": "さわやかはーとらいふ西京極【特定施設入居者生活介護（有料老人ホーム）】京都府京都市右京区西京極堤下町8番地さわやかはーとらいふ西京極", "url": "https://www.kaigokensaku.mhlw.go.jp/26/index.php?action_kouhyou_detail_004_kani=true&JigyosyoCd=2670702709-00&ServiceCd=331&Type=search", "url2": "http://hl-nishikyougoku.sawayakaclub.jp" }, "geometry": { "type": "Point", "coordinates": [ 135.715956799999987, 34.9841572 ] } },
{ "type": "Feature", "properties": { "内容": "そんぽの家　太秦天神川【特定施設入居者生活介護（有料老人ホーム）】京都市右京区太秦木ノ下町16-9", "url": "https://www.kaigokensaku.mhlw.go.jp/26/index.php?action_kouhyou_detail_004_kani=true&JigyosyoCd=2670700927-00&ServiceCd=331&Type=search", "url2": "https://www.sompocare.com/service/home/kaigo/H000265" }, "geometry": { "type": "Point", "coordinates": [ 135.7151814, 35.0070219 ] } },
{ "type": "Feature", "properties": { "内容": "グッドタイムリビング嵯峨広沢【特定施設入居者生活介護（有料老人ホーム）】京都府京都市右京区嵯峨広沢御所ノ内34-1", "url": "https://www.kaigokensaku.mhlw.go.jp/26/index.php?action_kouhyou_detail_004_kani=true&JigyosyoCd=2670701842-00&ServiceCd=331&Type=search", "url2": "https://www.gtl-daiwa.co.jp/" }, "geometry": { "type": "Point", "coordinates": [ 135.688183400000071, 35.0213817 ] } },
{ "type": "Feature", "properties": { "内容": "ニチイケアセンター天神川【特定施設入居者生活介護（有料老人ホーム）】京都府京都市右京区南広町93", "url": "https://www.kaigokensaku.mhlw.go.jp/26/index.php?action_kouhyou_detail_004_kani=true&JigyosyoCd=2670701123-00&ServiceCd=331&Type=search", "url2": null }, "geometry": { "type": "Point", "coordinates": [ 135.714001851728881, 35.000047582739086 ] } },
{ "type": "Feature", "properties": { "内容": "ベストライフ京都西京極【特定施設入居者生活介護（有料老人ホーム）】京都府京都市右京区西京極佃田町5", "url": "https://www.kaigokensaku.mhlw.go.jp/26/index.php?action_kouhyou_detail_004_kani=true&JigyosyoCd=2670702410-00&ServiceCd=331&Type=search", "url2": null }, "geometry": { "type": "Point", "coordinates": [ 135.723922499999986, 34.9882612 ] } },
{ "type": "Feature", "properties": { "内容": "ベストライフ京都鳴滝【特定施設入居者生活介護（有料老人ホーム）】京都市右京区鳴滝本町65番地１ベストライフ京都鳴滝", "url": "https://www.kaigokensaku.mhlw.go.jp/26/index.php?action_kouhyou_detail_004_kani=true&JigyosyoCd=2670702428-00&ServiceCd=331&Type=search", "url2": null }, "geometry": { "type": "Point", "coordinates": [ 135.707054, 35.0293532 ] } },
{ "type": "Feature", "properties": { "内容": "スーパー・コート京・六地蔵【特定施設入居者生活介護（有料老人ホーム）】京都府京都市伏見区桃山町大島312", "url": "https://www.kaigokensaku.mhlw.go.jp/26/index.php?action_kouhyou_detail_004_kani=true&JigyosyoCd=2670917091-00&ServiceCd=331&Type=search", "url2": "http://www.supercourt.jp/blog/rokujizo/" }, "geometry": { "type": "Point", "coordinates": [ 135.790933387835707, 34.929949594986844 ] } },
{ "type": "Feature", "properties": { "内容": "あいらの杜　京都桃山【特定施設入居者生活介護（有料老人ホーム）】桃山町日向４６－８", "url": "https://www.kaigokensaku.mhlw.go.jp/26/index.php?action_kouhyou_detail_004_kani=true&JigyosyoCd=2670917125-00&ServiceCd=331&Type=search", "url2": "http://www.halenosumai.jp/" }, "geometry": { "type": "Point", "coordinates": [ 135.7922403, 34.939344 ] } },
{ "type": "Feature", "properties": { "内容": "そんぽの家　京都羽束師【特定施設入居者生活介護（有料老人ホーム）】京都府京都市伏見区羽束師古川町176", "url": "https://www.kaigokensaku.mhlw.go.jp/26/index.php?action_kouhyou_detail_004_kani=true&JigyosyoCd=2670901301-00&ServiceCd=331&Type=search", "url2": "https://www.sompocare.com/service/home/kaigo/H000267/" }, "geometry": { "type": "Point", "coordinates": [ 135.7231233, 34.925601200000024 ] } },
{ "type": "Feature", "properties": { "内容": "ハートフル京都・羽束師【特定施設入居者生活介護（有料老人ホーム）】京都府京都市羽束師菱川町５３６番地", "url": "https://www.kaigokensaku.mhlw.go.jp/26/index.php?action_kouhyou_detail_004_kani=true&JigyosyoCd=2670917158-00&ServiceCd=331&Type=search", "url2": "http://goshonouchi.com/hazukashi/" }, "geometry": { "type": "Point", "coordinates": [ 135.721041, 34.9331185 ] } },
{ "type": "Feature", "properties": { "内容": "ベストライフ京都桃山【特定施設入居者生活介護（有料老人ホーム）】京都府京都市伏見区深草大亀谷東寺町22番", "url": "https://www.kaigokensaku.mhlw.go.jp/26/index.php?action_kouhyou_detail_004_kani=true&JigyosyoCd=2670917869-00&ServiceCd=331&Type=search", "url2": null }, "geometry": { "type": "Point", "coordinates": [ 135.779416199999986, 34.9484216 ] } },
{ "type": "Feature", "properties": { "内容": "ベストライフ京都【特定施設入居者生活介護（有料老人ホーム）】京都府京都市伏見区横大路貴船36", "url": "https://www.kaigokensaku.mhlw.go.jp/26/index.php?action_kouhyou_detail_004_kani=true&JigyosyoCd=2670917877-00&ServiceCd=331&Type=search", "url2": null }, "geometry": { "type": "Point", "coordinates": [ 135.738736599999982, 34.9280283 ] } },
{ "type": "Feature", "properties": { "内容": "介護付有料老人ホームすずらん【特定施設入居者生活介護（有料老人ホーム）】京都府京都市山科区厨子奥若林町46-2", "url": "https://www.kaigokensaku.mhlw.go.jp/26/index.php?action_kouhyou_detail_004_kani=true&JigyosyoCd=2674101932-00&ServiceCd=331&Type=search", "url2": "https://www.suzuran-kouyoukai.com" }, "geometry": { "type": "Point", "coordinates": [ 135.810716800000023, 34.987769794930806 ] } },
{ "type": "Feature", "properties": { "内容": "ヒルデモア東山【特定施設入居者生活介護（有料老人ホーム）】京都市山科区日ノ岡夷谷町21－15", "url": "https://www.kaigokensaku.mhlw.go.jp/26/index.php?action_kouhyou_detail_004_kani=true&JigyosyoCd=2674100611-00&ServiceCd=331&Type=search", "url2": "https://www.tnbls.co.jp/hyldemoer/home/higashiyama/" }, "geometry": { "type": "Point", "coordinates": [ 135.791549499999974, 35.0042788 ] } },
{ "type": "Feature", "properties": { "内容": "Charm（チャーム）京都山科【特定施設入居者生活介護（有料老人ホーム）】京都府京都市山科区大宅石郡町１１６番", "url": "https://www.kaigokensaku.mhlw.go.jp/26/index.php?action_kouhyou_detail_004_kani=true&JigyosyoCd=2674100744-00&ServiceCd=331&Type=search", "url2": "http://www.charmcc.jp" }, "geometry": { "type": "Point", "coordinates": [ 135.816293800000039, 34.9651896 ] } },
{ "type": "Feature", "properties": { "内容": "Charm（チャーム）京都音羽【特定施設入居者生活介護（有料老人ホーム）】音羽珍事町39-1", "url": "https://www.kaigokensaku.mhlw.go.jp/26/index.php?action_kouhyou_detail_004_kani=true&JigyosyoCd=2674100868-00&ServiceCd=331&Type=search", "url2": "http://www.charmcc.jp/" }, "geometry": { "type": "Point", "coordinates": [ 135.831273399999986, 34.9893515 ] } },
{ "type": "Feature", "properties": { "内容": "ベストライフ山科【特定施設入居者生活介護（有料老人ホーム）】京都府京都市山科区大塚北溝町19-1", "url": "https://www.kaigokensaku.mhlw.go.jp/26/index.php?action_kouhyou_detail_004_kani=true&JigyosyoCd=2674101718-00&ServiceCd=331&Type=search", "url2": null }, "geometry": { "type": "Point", "coordinates": [ 135.8306431, 34.9815912 ] } },
{ "type": "Feature", "properties": { "内容": "スーパー・コート　京・桂【特定施設入居者生活介護（有料老人ホーム）】京都市西京区桂朝日町123番スーパー・コート　京・桂", "url": "https://www.kaigokensaku.mhlw.go.jp/26/index.php?action_kouhyou_detail_004_kani=true&JigyosyoCd=2674001363-00&ServiceCd=331&Type=search", "url2": null }, "geometry": { "type": "Point", "coordinates": [ 135.7099442, 34.9796599 ] } },
{ "type": "Feature", "properties": { "内容": "アスデンシア　京都嵐山【特定施設入居者生活介護（有料老人ホーム）】京都府京都市西京区嵐山上海道町７５", "url": "https://www.kaigokensaku.mhlw.go.jp/26/index.php?action_kouhyou_detail_004_kani=true&JigyosyoCd=2674001603-00&ServiceCd=331&Type=search", "url2": "https://www.hale.co.jp/" }, "geometry": { "type": "Point", "coordinates": [ 135.681275854492185, 35.009242566977598 ] } },
{ "type": "Feature", "properties": { "内容": "ライフ・イン京都【特定施設入居者生活介護（有料老人ホーム）】京都府京都市西京区山田平尾町46番地2ライフ・イン京都", "url": "https://www.kaigokensaku.mhlw.go.jp/26/index.php?action_kouhyou_detail_004_kani=true&JigyosyoCd=2674000704-00&ServiceCd=331&Type=search", "url2": "http://www.lifeinkyoto.com" }, "geometry": { "type": "Point", "coordinates": [ 135.683796610311902, 34.982275319433008 ] } },
{ "type": "Feature", "properties": { "内容": "ベストライフ京都松尾【特定施設入居者生活介護（有料老人ホーム）】京都府京都市西京区松室中溝町34-1", "url": "https://www.kaigokensaku.mhlw.go.jp/26/index.php?action_kouhyou_detail_004_kani=true&JigyosyoCd=2674001447-00&ServiceCd=331&Type=search", "url2": null }, "geometry": { "type": "Point", "coordinates": [ 135.6908348, 34.9970933 ] } },
{ "type": "Feature", "properties": { "内容": "メゾンパルテール福知山【特定施設入居者生活介護（有料老人ホーム）】京都府福知山市字天田１０７－１", "url": "https://www.kaigokensaku.mhlw.go.jp/26/index.php?action_kouhyou_detail_004_kani=true&JigyosyoCd=2672600489-00&ServiceCd=331&Type=search", "url2": "http://www.maisonparterre.com/" }, "geometry": { "type": "Point", "coordinates": [ 135.119988299999932, 35.301763 ] } },
{ "type": "Feature", "properties": { "内容": "京都〈ゆうゆうの里〉【特定施設入居者生活介護（有料老人ホーム）】宇治市白川鍋倉山14-1", "url": "https://www.kaigokensaku.mhlw.go.jp/26/index.php?action_kouhyou_detail_004_kani=true&JigyosyoCd=2671200166-00&ServiceCd=331&Type=search", "url2": "https://www.yuyunosato.or.jp/place/kyoto/" }, "geometry": { "type": "Point", "coordinates": [ 135.81480339999996, 34.8660154 ] } },
{ "type": "Feature", "properties": { "内容": "ニチイケアセンター宇治春日の森【特定施設入居者生活介護（有料老人ホーム）】京都府宇治市小倉町春日森45", "url": "https://www.kaigokensaku.mhlw.go.jp/26/index.php?action_kouhyou_detail_004_kani=true&JigyosyoCd=2671200851-00&ServiceCd=331&Type=search", "url2": null }, "geometry": { "type": "Point", "coordinates": [ 135.780724700000064, 34.9010113 ] } },
{ "type": "Feature", "properties": { "内容": "あいらの杜　宇治五ヶ庄【特定施設入居者生活介護（有料老人ホーム）】京都府宇治市五ヶ庄戸ノ内19-1", "url": "https://www.kaigokensaku.mhlw.go.jp/26/index.php?action_kouhyou_detail_004_kani=true&JigyosyoCd=2671200943-00&ServiceCd=331&Type=search", "url2": "http://www.hale.co.jp/" }, "geometry": { "type": "Point", "coordinates": [ 135.797821828245333, 34.907240695429294 ] } },
{ "type": "Feature", "properties": { "内容": "オーチャード・ケア株式会社　介護付き有料老人ホームオーチャード天橋立【特定施設入居者生活介護（有料老人ホーム）】京都府宮津市字万年小字赤岩１０６０番地１オーチャード天橋立", "url": "https://www.kaigokensaku.mhlw.go.jp/26/index.php?action_kouhyou_detail_004_kani=true&JigyosyoCd=2672100167-00&ServiceCd=331&Type=search", "url2": "http://amanohashidate.orchardo-care.co.jp" }, "geometry": { "type": "Point", "coordinates": [ 135.195566500000041, 35.5355767 ] } },
{ "type": "Feature", "properties": { "内容": "Charm（チャーム）長岡京【特定施設入居者生活介護（有料老人ホーム）】京都府長岡京市神足太田1番地4", "url": "https://www.kaigokensaku.mhlw.go.jp/26/index.php?action_kouhyou_detail_004_kani=true&JigyosyoCd=2673000457-00&ServiceCd=331&Type=search", "url2": "http://www.charmcc.jp" }, "geometry": { "type": "Point", "coordinates": [ 135.70444539999994, 34.917889 ] } },
{ "type": "Feature", "properties": { "内容": "オーチャード長岡京【特定施設入居者生活介護（有料老人ホーム）】京都府長岡京市調子２丁目１０番２１号", "url": "https://www.kaigokensaku.mhlw.go.jp/26/index.php?action_kouhyou_detail_004_kani=true&JigyosyoCd=2673000507-00&ServiceCd=331&Type=search", "url2": "http://nagaokakyo.orchard-care.co.jp/" }, "geometry": { "type": "Point", "coordinates": [ 135.690970975393611, 34.911010406188154 ] } },
{ "type": "Feature", "properties": { "内容": "サンライフ三友【特定施設入居者生活介護（有料老人ホーム）】京都府京田辺市薪山垣外86番地の1", "url": "https://www.kaigokensaku.mhlw.go.jp/26/index.php?action_kouhyou_detail_004_kani=true&JigyosyoCd=2673200099-00&ServiceCd=331&Type=search", "url2": "http://sunlife-sunyou.com/" }, "geometry": { "type": "Point", "coordinates": [ 135.762189499999977, 34.8206639 ] } },
{ "type": "Feature", "properties": { "内容": "介護付有料老人ホームケアポート梅美台【特定施設入居者生活介護（有料老人ホーム）】京都府木津川市梅美台7-3-3", "url": "https://www.kaigokensaku.mhlw.go.jp/26/index.php?action_kouhyou_detail_004_kani=true&JigyosyoCd=2673500092-00&ServiceCd=331&Type=search", "url2": "http://www.telwel-west.co.jp/kaigo/umemidai/index.html" }, "geometry": { "type": "Point", "coordinates": [ 135.842417845574573, 34.711539976235414 ] } },
{ "type": "Feature", "properties": { "内容": "サンシティ木津【特定施設入居者生活介護（有料老人ホーム）】京都府木津川市市坂六本木76", "url": "https://www.kaigokensaku.mhlw.go.jp/26/index.php?action_kouhyou_detail_004_kani=true&JigyosyoCd=2671400113-00&ServiceCd=331&Type=search", "url2": "https://hcm-suncity.co.jp/" }, "geometry": { "type": "Point", "coordinates": [ 135.807354499999974, 34.7183999 ] } },
{ "type": "Feature", "properties": { "内容": "ローズライフ高の原【特定施設入居者生活介護（有料老人ホーム）】京都府木津川市相楽台９丁目１番地５", "url": "https://www.kaigokensaku.mhlw.go.jp/26/index.php?action_kouhyou_detail_004_kani=true&JigyosyoCd=2673500480-00&ServiceCd=331&Type=search", "url2": "https://joylife.alsok.co.jp/facility/roselife/rl_takanohara/" }, "geometry": { "type": "Point", "coordinates": [ 135.793009899999987, 34.7249324 ] } }
]
}
